{"type":"FeatureCollection","features":[{"type":"Feature","properties":{"agency_name":"Alhambra Community Transit (ACT)","route_id":"8576","agency_id":"7057","route_short_name":"Blue","route_long_name":"ACT Blue","route_type":3,"route_color":"#1F77B4","route_text_color":"#FFFFFF"},"geometry":{"type":"MultiLineString","coordinates":[[[-118.168523657,34.063093536],[-118.168900236,34.063135542],[-118.169117772,34.063159234],[-118.169226921,34.063177707],[-118.169278166,34.0632234],[-118.169292364,34.063259753],[-118.169268574,34.063339672],[-118.169888424,34.063405249],[-118.170181,34.063402],[-118.170222,34.0634],[-118.170305,34.06339],[-118.170522,34.063356],[-118.171034,34.063274],[-118.171315,34.063224],[-118.171533,34.063185],[-118.171654,34.063163],[-118.171679,34.063236],[-118.171807,34.063795],[-118.171827,34.063882],[-118.171878,34.064075],[-118.171936,34.064222],[-118.171957,34.064259],[-118.172104688,34.064475145],[-118.172343415,34.064667631],[-118.172719,34.064873],[-118.172715,34.064911],[-118.172724,34.065021],[-118.172715,34.065042],[-118.172714,34.065043],[-118.172592,34.065331],[-118.172582,34.065415],[-118.172445,34.065628],[-118.172326,34.065773],[-118.172204,34.065877],[-118.172039,34.066004],[-118.171866,34.066105],[-118.171788,34.066142],[-118.171648,34.066207],[-118.171449,34.066274],[-118.171265,34.066319],[-118.171087,34.066352],[-118.170666,34.066418],[-118.170274,34.066511],[-118.170093,34.066564],[-118.169993,34.066616],[-118.169865,34.066696],[-118.169725,34.06681],[-118.169621,34.066925],[-118.169546,34.067038],[-118.169483,34.067155],[-118.169419,34.067313],[-118.169406,34.067425],[-118.169405,34.067429],[-118.169397,34.067497],[-118.169399,34.06754],[-118.169422,34.067677],[-118.169467,34.067814],[-118.169541,34.067988],[-118.169577,34.068078],[-118.169678,34.068308],[-118.169712,34.068418],[-118.169713,34.068421],[-118.169716,34.06843],[-118.169744,34.068568],[-118.169751,34.068684],[-118.169747,34.068774],[-118.16972,34.068928],[-118.16969,34.069009],[-118.169677,34.069043],[-118.16961,34.069168],[-118.169549,34.069261],[-118.169482,34.06935],[-118.169333,34.069514],[-118.169198,34.069716],[-118.169135,34.069905],[-118.169112,34.070007],[-118.169089,34.070209],[-118.169086,34.070356],[-118.169089,34.070527],[-118.16909,34.070606],[-118.169087,34.070694],[-118.169085,34.070726],[-118.169081,34.070781],[-118.169071,34.070836],[-118.169045,34.070925],[-118.168999,34.071034],[-118.168966,34.071099],[-118.16891,34.071188],[-118.168829,34.071287],[-118.168731,34.071381],[-118.168661,34.071434],[-118.168524,34.071524],[-118.168378,34.071594],[-118.168193,34.07166],[-118.168101,34.071683],[-118.167978,34.071693],[-118.167803,34.071707],[-118.167601,34.071709],[-118.167524,34.071709],[-118.166235,34.071712],[-118.166037,34.071699],[-118.165882,34.071666],[-118.165748,34.071623],[-118.165634,34.071574],[-118.165522,34.071511],[-118.165506,34.0715],[-118.165405,34.071429],[-118.165299,34.071348],[-118.165007,34.071122],[-118.165006,34.071121],[-118.164964,34.071092],[-118.164924,34.071061],[-118.164437,34.07069],[-118.164287,34.07057],[-118.16427,34.070556],[-118.164252,34.070542],[-118.164204,34.070503],[-118.163747,34.070151],[-118.163634,34.070064],[-118.163582,34.070022],[-118.163544,34.069996],[-118.163341,34.069859],[-118.16317,34.069774],[-118.163006,34.069717],[-118.162844,34.069678],[-118.162703,34.069663],[-118.162664,34.069664],[-118.162546,34.069667],[-118.162518,34.069667],[-118.161723,34.069668],[-118.161695,34.069669],[-118.160941,34.06966],[-118.16013,34.069655],[-118.160002,34.069655],[-118.159627,34.069648],[-118.159543,34.069647],[-118.159537,34.069647],[-118.15943,34.069647],[-118.159406,34.069647],[-118.15856,34.069646],[-118.158033,34.069643],[-118.157847,34.069642],[-118.156984,34.06964],[-118.156689,34.069639],[-118.155976,34.069635],[-118.155957,34.069635],[-118.155886,34.069634],[-118.15581,34.069634],[-118.155262,34.069634],[-118.154729,34.069634],[-118.154649,34.069634],[-118.154571,34.069633],[-118.153958,34.069631],[-118.153509,34.06963],[-118.153419,34.06963],[-118.153416,34.06963],[-118.153323,34.06963],[-118.15279,34.069627],[-118.152314,34.069625],[-118.152185,34.069624],[-118.152174,34.069624],[-118.152081,34.069623],[-118.151947,34.069622],[-118.151927,34.069622],[-118.151805,34.069599],[-118.151851,34.069533],[-118.151846,34.069487],[-118.151832,34.069394],[-118.15181,34.069298],[-118.151785,34.069224],[-118.151761,34.069158],[-118.151733,34.069092],[-118.151702,34.06903],[-118.151664,34.068963],[-118.151613,34.06889],[-118.151583,34.068849],[-118.15156,34.068818],[-118.151499,34.068745],[-118.151443,34.068688],[-118.151276,34.068521],[-118.150849,34.068137],[-118.150765,34.068062],[-118.150678,34.067986],[-118.150588,34.067909],[-118.150503,34.067849],[-118.150422,34.067797],[-118.150332,34.067748],[-118.15028,34.067725],[-118.150244,34.067709],[-118.150148,34.067674],[-118.150081,34.067655],[-118.150054,34.067647],[-118.149961,34.067627],[-118.149876,34.067611],[-118.149784,34.0676],[-118.149689,34.067594],[-118.149558,34.06759],[-118.149499,34.0676],[-118.14944,34.067622],[-118.149389,34.067643],[-118.149496,34.06781],[-118.149585,34.06795],[-118.149648,34.068048],[-118.149704,34.068168],[-118.149735,34.068241],[-118.149867,34.068537],[-118.149892,34.068594],[-118.14978,34.068674],[-118.149535,34.068846],[-118.149392,34.068937],[-118.149261,34.069011],[-118.149138,34.069081],[-118.149128,34.069087],[-118.148765,34.069277],[-118.148457,34.069442],[-118.148107,34.069642],[-118.148083,34.069656],[-118.147952,34.069651],[-118.147915,34.069651],[-118.147527,34.069652],[-118.146707,34.069657],[-118.146457,34.069658],[-118.145771,34.069661],[-118.145593,34.069662],[-118.145393,34.069663],[-118.144931,34.069665],[-118.144315,34.069668],[-118.144249,34.069669],[-118.144179,34.069669],[-118.143485,34.069684],[-118.143155,34.069686],[-118.143072,34.069687],[-118.142985,34.069688],[-118.14179,34.069699],[-118.140545,34.06971],[-118.139418,34.069718],[-118.139331,34.069718],[-118.13924,34.069719],[-118.138205,34.069726],[-118.138115,34.069727],[-118.137844,34.069729],[-118.137115,34.069735],[-118.135919,34.069748],[-118.135736,34.069746],[-118.134968,34.069757],[-118.134628,34.069755],[-118.134602,34.069756],[-118.134407,34.069757],[-118.134223,34.069754],[-118.134199,34.069754],[-118.134007,34.069754],[-118.133948,34.069754],[-118.133859,34.069754],[-118.13348,34.069758],[-118.133285,34.06976],[-118.133062,34.069762],[-118.133007,34.069762],[-118.132781,34.069761],[-118.132155,34.06976],[-118.131686,34.069768],[-118.130683,34.069771],[-118.130455,34.06977],[-118.129302,34.069763],[-118.129223,34.069762],[-118.129144,34.069762],[-118.128594,34.06977],[-118.127963,34.069771],[-118.127649,34.069769],[-118.127332,34.06977],[-118.126892,34.069767],[-118.126701,34.069769],[-118.126077,34.069776],[-118.125454,34.069778],[-118.124826,34.069783],[-118.124671,34.069782],[-118.124523,34.069781],[-118.124202,34.069782],[-118.123851,34.069777],[-118.123572,34.06978],[-118.123396,34.069778],[-118.123339,34.069777],[-118.123181,34.069775],[-118.123118,34.069775],[-118.12309,34.069774],[-118.122975,34.069772],[-118.122876,34.069772],[-118.122873,34.069852],[-118.122873,34.06989],[-118.122874,34.069981],[-118.122877,34.070119],[-118.12288,34.070469],[-118.122879,34.070841],[-118.12288,34.071267],[-118.12288,34.071291],[-118.122901,34.07191],[-118.1229,34.072024],[-118.122898,34.072259],[-118.122905,34.072735],[-118.122904,34.073106],[-118.122908,34.073222],[-118.122928,34.07352],[-118.122924,34.073677],[-118.122924,34.073775],[-118.122924,34.07384],[-118.122924,34.074008],[-118.122963,34.074059],[-118.122964,34.074155],[-118.122964,34.074172],[-118.122965,34.074306],[-118.122966,34.074402],[-118.122968,34.07472],[-118.122969,34.074816],[-118.122972,34.075236],[-118.122993,34.075721],[-118.122997,34.075833],[-118.123,34.075978],[-118.123002,34.076055],[-118.123,34.076131],[-118.123001,34.076145],[-118.123009,34.076293],[-118.123016,34.07642],[-118.123012,34.076551],[-118.123015,34.076619],[-118.12302,34.076738],[-118.123015,34.076902],[-118.123025,34.077062],[-118.123024,34.077213],[-118.12303,34.07735],[-118.12303,34.077357],[-118.123029,34.077509],[-118.123005,34.077654],[-118.123006,34.077722],[-118.123006,34.077744],[-118.123011,34.078028],[-118.123011,34.078147],[-118.123011,34.078158],[-118.123011,34.078235],[-118.123011,34.078292],[-118.123011,34.078326],[-118.123012,34.078368],[-118.123012,34.078405],[-118.123012,34.078418],[-118.123013,34.078444],[-118.123013,34.07852],[-118.123013,34.078627],[-118.123014,34.07872],[-118.123014,34.07873],[-118.123014,34.078734],[-118.123016,34.078862],[-118.123017,34.078964],[-118.123017,34.07898],[-118.123018,34.079113],[-118.123021,34.079307],[-118.123028,34.079896],[-118.123035,34.080444],[-118.123037,34.080634],[-118.123038,34.080717],[-118.123039,34.080799],[-118.123039,34.080815],[-118.12304,34.080949],[-118.12304,34.080981],[-118.123054,34.082289],[-118.123056,34.082438],[-118.123057,34.082531],[-118.123068,34.082701],[-118.123069,34.082714],[-118.123069,34.08279],[-118.12307,34.082865],[-118.12307,34.082893],[-118.12307,34.082895],[-118.123073,34.083079],[-118.123073,34.083135],[-118.123077,34.083763],[-118.123075,34.084467],[-118.123076,34.084724],[-118.123057,34.085202],[-118.123056,34.085257],[-118.123056,34.085392],[-118.123055,34.085515],[-118.123055,34.085603],[-118.123055,34.085629],[-118.123055,34.085705],[-118.123061,34.085832],[-118.123057,34.085926],[-118.123056,34.085964],[-118.123054,34.086034],[-118.123068,34.086088],[-118.123075,34.086288],[-118.123074,34.086542],[-118.123071,34.086597],[-118.12307,34.087165],[-118.123072,34.087314],[-118.123066,34.087523],[-118.123069,34.087669],[-118.123069,34.0878],[-118.123072,34.087859],[-118.12307,34.087898],[-118.123074,34.088106],[-118.123068,34.088232],[-118.123062,34.08837],[-118.123065,34.08874],[-118.123066,34.088814],[-118.123068,34.088976],[-118.123069,34.089012],[-118.123069,34.089031],[-118.12307,34.089132],[-118.12307,34.089264],[-118.12307,34.089275],[-118.12307,34.089336],[-118.123072,34.089505],[-118.123072,34.089542],[-118.123073,34.089589],[-118.123075,34.089636],[-118.123077,34.08968],[-118.123083,34.089733],[-118.123095,34.089755],[-118.123103,34.089771],[-118.123142,34.089848],[-118.123177,34.089915],[-118.123226,34.08997],[-118.123394,34.090208],[-118.12352,34.090391],[-118.123816,34.090815],[-118.12393,34.090978],[-118.124056,34.091158],[-118.124193,34.091347],[-118.124404,34.091637],[-118.124567,34.09186],[-118.124715,34.092063],[-118.124716,34.092065],[-118.124717,34.092067],[-118.124776,34.092148],[-118.124828,34.092227],[-118.124838,34.092241],[-118.125058,34.092573],[-118.125405,34.093098],[-118.125465,34.093183],[-118.125478,34.093204],[-118.125479,34.093205],[-118.125519,34.093268],[-118.125525,34.093276],[-118.125569,34.093343],[-118.125753,34.093615],[-118.125804,34.093694],[-118.125941,34.09389],[-118.126053,34.094046],[-118.126096,34.094105],[-118.126136,34.094165],[-118.126245,34.094329],[-118.126393,34.094546],[-118.126587,34.094829],[-118.126765,34.09507],[-118.126771,34.095079],[-118.12684,34.095172],[-118.126914,34.095275],[-118.126935,34.095304],[-118.127151,34.095604],[-118.127165,34.095623],[-118.127182,34.095646],[-118.127431,34.095992],[-118.127461,34.096033],[-118.127723,34.096398],[-118.127768,34.09646],[-118.127845,34.096567],[-118.127906,34.096651],[-118.128018,34.096804],[-118.128029,34.096819],[-118.128063,34.096869],[-118.128097,34.096918],[-118.128145,34.096989],[-118.128213,34.097087],[-118.128311,34.09723],[-118.128431,34.097404],[-118.12844,34.097417],[-118.12853,34.097547],[-118.128581,34.097621],[-118.128471,34.097692],[-118.128271,34.097791],[-118.128008,34.097921],[-118.127941,34.097954],[-118.127458,34.098197],[-118.127442,34.098205],[-118.12733,34.098256],[-118.127307,34.098266],[-118.126508,34.098659],[-118.126221,34.09879],[-118.125784,34.099009],[-118.125546,34.099127],[-118.125536,34.099137],[-118.125473,34.099199],[-118.125465,34.099187],[-118.125422,34.099126],[-118.12531,34.098998],[-118.125165,34.098787],[-118.124869,34.098356],[-118.124833,34.098305],[-118.124832,34.098303],[-118.124815,34.098279],[-118.124777,34.098228],[-118.124482,34.097824],[-118.12447,34.097808],[-118.124403,34.097715],[-118.124391,34.097699],[-118.124237,34.097477],[-118.124167,34.097376],[-118.124064,34.097229],[-118.124008,34.097149],[-118.123985,34.097117],[-118.123834,34.096874],[-118.123827,34.096863],[-118.123772,34.096775],[-118.123754,34.096745],[-118.12369,34.096652],[-118.123673,34.096627],[-118.123657,34.096602],[-118.123625,34.096552],[-118.123527,34.096419],[-118.123526,34.096417],[-118.123483,34.096359],[-118.123372,34.096233],[-118.123296,34.096122],[-118.123281,34.096101],[-118.123116,34.095864],[-118.12311,34.095855]],[[-118.123116,34.095864],[-118.123062,34.095786],[-118.123007,34.095708],[-118.122856,34.09549],[-118.122746,34.095333],[-118.1227,34.095267],[-118.122579,34.095093],[-118.122432,34.094882],[-118.122381,34.094794],[-118.12232,34.094688],[-118.122314,34.094679],[-118.122246,34.09458],[-118.122355,34.094544],[-118.12247,34.094491],[-118.122488,34.094483],[-118.122613,34.094425],[-118.122768,34.094358],[-118.122931,34.094279],[-118.122944,34.094274],[-118.123426,34.094071],[-118.12343,34.094069],[-118.123821,34.093894],[-118.123849,34.093881],[-118.123856,34.093878],[-118.124093,34.093755],[-118.124312,34.093651],[-118.124524,34.093552],[-118.124979,34.093415],[-118.125376,34.093304],[-118.125519,34.093268],[-118.125358,34.093027],[-118.125058,34.092573],[-118.125052,34.092564],[-118.124838,34.092241]],[[-118.124715,34.092063],[-118.124634,34.091952],[-118.124567,34.09186]],[[-118.12393,34.090978],[-118.123906,34.090943],[-118.123082,34.089722],[-118.123077,34.08968]],[[-118.12307,34.089132],[-118.12307,34.089116],[-118.123069,34.089031]],[[-118.123069,34.089012],[-118.123066,34.088814]],[[-118.123065,34.08874],[-118.123064,34.088636],[-118.123062,34.08837]],[[-118.123056,34.085964],[-118.123061,34.085832]],[[-118.123075,34.084467],[-118.123076,34.084115001],[-118.123077,34.083763],[-118.123073,34.083079]],[[-118.123057,34.082531],[-118.123057,34.082495],[-118.123056,34.082438]],[[-118.12304,34.080981],[-118.123039,34.080815]],[[-118.123037,34.080634],[-118.123035,34.080488],[-118.123035,34.080444]],[[-118.123016,34.078862],[-118.123015,34.078796],[-118.123014,34.078734]],[[-118.123012,34.078368],[-118.123011,34.078292]],[[-118.12302,34.076738],[-118.123012,34.076551]],[[-118.122993,34.075721],[-118.122984,34.075522],[-118.122972,34.075236]],[[-118.122968,34.07472],[-118.122965,34.074306],[-118.122964,34.074222],[-118.122964,34.074172]],[[-118.122963,34.074059],[-118.123103,34.074058],[-118.12313,34.074057],[-118.123606,34.074064],[-118.123625,34.074064],[-118.124166,34.074058],[-118.124252,34.074057],[-118.124338,34.074056],[-118.124886,34.074049],[-118.125415,34.07404],[-118.12549,34.074039],[-118.125605,34.074037],[-118.12611,34.074031],[-118.126683,34.074022],[-118.12676,34.07402],[-118.126853,34.074021],[-118.127391,34.074017],[-118.127925,34.074011],[-118.128009,34.074012],[-118.128109,34.074009],[-118.1282645,34.074008],[-118.12842,34.074007],[-118.129275,34.074016],[-118.129274,34.073995],[-118.129276,34.073924],[-118.129268,34.073556],[-118.12926,34.073188],[-118.1291896,34.0730249],[-118.1289855,34.0727393],[-118.1288783,34.0725563],[-118.1288062,34.07228],[-118.12881,34.071879],[-118.128818,34.0712],[-118.128818,34.071186],[-118.128813,34.071031],[-118.128821,34.070891],[-118.128846,34.070742],[-118.128914,34.070507],[-118.128957,34.070407],[-118.129017,34.070329],[-118.129111,34.070223],[-118.129221,34.070114],[-118.129221,34.06984],[-118.129223,34.069762]],[[-118.129302,34.069763],[-118.1298165,34.069766],[-118.130331,34.069769],[-118.130455,34.06977]],[[-118.130683,34.069771],[-118.131185,34.069769],[-118.131686,34.069768]],[[-118.133859,34.069754],[-118.134007,34.069754]],[[-118.134628,34.069755],[-118.134833,34.069756],[-118.1349005,34.0697565],[-118.134968,34.069757]],[[-118.135919,34.069748],[-118.136517,34.0697415],[-118.137115,34.069735],[-118.138115,34.069727]],[[-118.138205,34.069726],[-118.138384,34.069725],[-118.13924,34.069719]],[[-118.139418,34.069718],[-118.1399815,34.069714],[-118.140545,34.06971],[-118.141167,34.069705],[-118.14179,34.069699]],[[-118.143155,34.069686],[-118.143421,34.069684],[-118.143485,34.069684]],[[-118.145593,34.069662],[-118.146025,34.06966],[-118.146457,34.069658]],[[-118.148083,34.069656],[-118.148457,34.069442],[-118.148611,34.06936],[-118.148765,34.069277]],[[-118.149648,34.068048],[-118.149674,34.067935],[-118.149686,34.067895],[-118.149707,34.067862],[-118.149744,34.067826],[-118.149786,34.067801],[-118.149834,34.067787],[-118.149898,34.067779],[-118.149959,34.067785],[-118.150023,34.067796],[-118.150163,34.067825],[-118.150281,34.067841],[-118.150346,34.067875],[-118.150409,34.067912],[-118.150465,34.067949],[-118.150519,34.067988],[-118.150574,34.068033],[-118.150627,34.068081],[-118.15097,34.0683975],[-118.151313,34.068714],[-118.15138,34.068781],[-118.151437,34.068847],[-118.151496,34.068918],[-118.151542,34.068979],[-118.151582,34.069043],[-118.151602,34.069083],[-118.151618,34.069115],[-118.15165,34.069189],[-118.151676,34.069262],[-118.1517,34.069335],[-118.151718,34.069414],[-118.151723,34.069491],[-118.151728,34.069532],[-118.15179,34.069621],[-118.151927,34.069622]],[[-118.152185,34.069624],[-118.15279,34.069627]],[[-118.153509,34.06963],[-118.1537335,34.0696305],[-118.153958,34.069631]],[[-118.156984,34.06964],[-118.157785,34.069642],[-118.157847,34.069642],[-118.15856,34.069646]],[[-118.161695,34.069669],[-118.161709,34.069668],[-118.161723,34.069668],[-118.162121,34.069667],[-118.162518,34.069667]],[[-118.16317,34.069774],[-118.16323,34.069804],[-118.163341,34.069859]],[[-118.163634,34.070064],[-118.163919,34.0702835],[-118.164204,34.070503]],[[-118.164437,34.07069],[-118.164881,34.071028],[-118.164924,34.071061]],[[-118.166235,34.071712],[-118.166918,34.07171],[-118.167601,34.071709]],[[-118.167803,34.071707],[-118.167899,34.071699],[-118.167978,34.071693]],[[-118.168829,34.071287],[-118.168852,34.071259],[-118.16891,34.071188]],[[-118.169549,34.069261],[-118.16962,34.069148],[-118.169677,34.069043],[-118.16972,34.068928]],[[-118.169751,34.068684],[-118.169745,34.068586],[-118.169716,34.06843]],[[-118.169541,34.067988],[-118.169534,34.067971],[-118.169467,34.067814]],[[-118.169399,34.06754],[-118.169398,34.067486],[-118.169405,34.067429]],[[-118.169621,34.066925],[-118.169693,34.066846],[-118.169725,34.06681]],[[-118.170093,34.066564],[-118.170167,34.066542],[-118.170274,34.066511]],[[-118.170666,34.066418],[-118.17076,34.066403],[-118.171087,34.066352]],[[-118.171449,34.066274],[-118.171593,34.066226],[-118.171648,34.066207],[-118.171866,34.066105],[-118.172043,34.066001],[-118.172204,34.065877]],[[-118.172582,34.065415],[-118.172645,34.065352],[-118.172646,34.065351],[-118.172672,34.065326],[-118.172784,34.065073],[-118.1727457,34.0649599],[-118.1727073,34.0648469],[-118.172268,34.064609],[-118.172149,34.064502],[-118.172119,34.064471],[-118.172055,34.064402],[-118.172013,34.064358],[-118.171936,34.064222],[-118.171916,34.064172],[-118.171878,34.064075]],[[-118.171827,34.063882],[-118.171779,34.06367],[-118.171721,34.063418],[-118.171654,34.063163]],[[-118.170222,34.0634],[-118.17012,34.063405],[-118.16992,34.063406],[-118.16979,34.063396],[-118.169476,34.063355],[-118.169265,34.063337],[-118.169118,34.06333],[-118.169039,34.063327],[-118.168965,34.06332],[-118.168954,34.063319],[-118.168602,34.063299],[-118.168427,34.063289],[-118.168251,34.063278],[-118.1681699,34.0632722],[-118.1681478,34.06321],[-118.168149,34.0631458],[-118.1681875,34.0630849],[-118.1682601,34.0630609],[-118.1683871,34.0630763],[-118.1684506,34.0630841],[-118.1685141,34.0630918]]]}},{"type":"Feature","properties":{"agency_name":"Alhambra Community Transit (ACT)","route_id":"8579","agency_id":"7057","route_short_name":"Green","route_long_name":"ACT Counterclockwise","route_type":3,"route_color":"#31A354","route_text_color":"#FFFFFF"},"geometry":{"type":"MultiLineString","coordinates":[[[-118.111328,34.07941],[-118.111327,34.079726],[-118.111323,34.08037],[-118.111324,34.080386],[-118.111324,34.080964],[-118.111325,34.08103],[-118.111428,34.081024],[-118.112219,34.080991],[-118.112248,34.080989],[-118.113062,34.080947],[-118.113173,34.080944],[-118.113961,34.080904],[-118.114014,34.080901],[-118.114105,34.080896],[-118.114204,34.080891],[-118.115037,34.08085],[-118.115955,34.080806],[-118.116848,34.080763],[-118.116938,34.080759],[-118.116938,34.080839],[-118.116939,34.082758],[-118.116939,34.082834],[-118.11694,34.082899],[-118.116954,34.084032],[-118.116957,34.084193],[-118.116956,34.084282],[-118.11696,34.084354],[-118.116972,34.085539],[-118.116973,34.08567],[-118.116973,34.085744],[-118.116973,34.08577],[-118.116973,34.085813],[-118.116973,34.085925],[-118.116979,34.086103],[-118.116979,34.086407],[-118.116979,34.086735],[-118.116978,34.087066],[-118.116977,34.087487],[-118.116977,34.087698],[-118.116987,34.088019],[-118.116985,34.088054],[-118.116987,34.088194],[-118.116988,34.088259],[-118.116985,34.088464],[-118.116988,34.088576],[-118.116991,34.088871],[-118.116997,34.089191],[-118.116997,34.089206],[-118.116995,34.089356],[-118.116973,34.089938],[-118.116984,34.090222],[-118.116993,34.090443],[-118.117402,34.09044],[-118.118279,34.090434],[-118.118294,34.090434],[-118.119129,34.090432],[-118.119298,34.09042],[-118.119299,34.09042],[-118.119624,34.090415],[-118.119669,34.090414],[-118.119768,34.090416],[-118.119778,34.090416],[-118.119778,34.09043],[-118.119778,34.090604],[-118.119779,34.090743],[-118.119779,34.090747],[-118.119786,34.090907],[-118.119788,34.090939],[-118.119795,34.090988],[-118.119686,34.091035],[-118.119207,34.091242],[-118.118985,34.091339],[-118.118973,34.091344],[-118.118572,34.091512],[-118.118126,34.091705],[-118.117748,34.091863],[-118.11738,34.092018],[-118.117006,34.092177],[-118.116246,34.092507],[-118.115918,34.092647],[-118.115893,34.092658],[-118.115318,34.092905],[-118.115117,34.093001],[-118.114816,34.093125],[-118.114794,34.093134],[-118.114174,34.0934],[-118.11371,34.0936],[-118.113766,34.093675],[-118.113769,34.093679],[-118.113815,34.093743],[-118.11383,34.093768],[-118.113995,34.094029],[-118.114279,34.094414],[-118.114778,34.095156],[-118.114983,34.095454],[-118.115201,34.095757],[-118.115484,34.09616],[-118.115824,34.096653],[-118.116063,34.096968],[-118.116108,34.097028],[-118.116371,34.097408],[-118.116403,34.097455],[-118.116472,34.097555],[-118.117042,34.098381],[-118.117273,34.098726],[-118.117305,34.09877],[-118.11749,34.099037],[-118.117736,34.099362],[-118.117801,34.099451],[-118.117806,34.099458],[-118.117876,34.09942],[-118.118192,34.099268],[-118.118425,34.099154],[-118.118845,34.098963],[-118.119276,34.098747],[-118.119337,34.098717],[-118.119486,34.098642],[-118.119724,34.098523],[-118.119839,34.098466],[-118.119903,34.098432],[-118.119925,34.098421],[-118.120018,34.09838],[-118.12003,34.098375],[-118.120363,34.098219],[-118.120523,34.098145],[-118.120608,34.098105],[-118.12088,34.097978],[-118.120903,34.097967],[-118.120925,34.097957],[-118.121006,34.097925],[-118.12111,34.097917],[-118.121124,34.097911],[-118.121162,34.097894],[-118.121386,34.097795],[-118.12177,34.097626],[-118.122038,34.097499],[-118.122188,34.097429],[-118.122261,34.097394],[-118.122283,34.097383],[-118.122857,34.097102],[-118.123245,34.096909],[-118.123253,34.096899],[-118.123257,34.096888],[-118.123261,34.096867],[-118.123271,34.096836],[-118.123587,34.096692],[-118.123666,34.096661],[-118.123687,34.096653],[-118.12369,34.096652],[-118.123792,34.096606],[-118.123819,34.096591],[-118.123821,34.09659],[-118.12398,34.096503],[-118.124111,34.096431],[-118.124244,34.09644],[-118.124527,34.096309],[-118.124594,34.09621],[-118.124738,34.096144],[-118.124759,34.096134],[-118.124819,34.096106],[-118.124836,34.096098],[-118.124927,34.096118],[-118.125443,34.095878],[-118.125464,34.095869],[-118.125549,34.095836],[-118.125753,34.095736],[-118.125881,34.095675],[-118.126272,34.095487],[-118.126339,34.0954],[-118.126547,34.095305],[-118.12659,34.095286],[-118.126645,34.095261],[-118.126691,34.09524],[-118.126693,34.095239],[-118.126714,34.095229],[-118.12684,34.095172],[-118.126969,34.09511],[-118.12729,34.094954],[-118.127561,34.094823],[-118.127819,34.094699],[-118.127833,34.094692],[-118.127907,34.094656],[-118.127999,34.094613],[-118.128013,34.094607],[-118.128301,34.094474],[-118.128561,34.094355],[-118.128845,34.094223],[-118.128859,34.094217],[-118.128876,34.094209],[-118.128948,34.094175],[-118.128954,34.094172],[-118.129034,34.094134],[-118.129046,34.094128],[-118.129058,34.094123],[-118.129179,34.094064],[-118.129393,34.09396],[-118.129663,34.093829],[-118.129999,34.093692],[-118.130058,34.093664],[-118.130078,34.093654],[-118.130158,34.093619],[-118.130506,34.093434],[-118.130721,34.093335],[-118.131071,34.093186],[-118.131079,34.093182],[-118.131142,34.093153],[-118.131162,34.093144],[-118.131247,34.09311],[-118.131541,34.092974],[-118.131549,34.09297],[-118.131819,34.092838],[-118.131826,34.092835],[-118.132104,34.092705],[-118.132106,34.092704],[-118.132118,34.092698],[-118.132192,34.092667],[-118.1322,34.092663],[-118.132285,34.092615],[-118.132383,34.092562],[-118.132603,34.092442],[-118.132826,34.092338],[-118.133169,34.092195],[-118.133248,34.092162],[-118.133255,34.092159],[-118.133304,34.09214],[-118.13338,34.092159],[-118.133546,34.092083],[-118.133896,34.091916],[-118.134077,34.091836],[-118.134277,34.091747],[-118.134402,34.091691],[-118.134493,34.091606],[-118.134501,34.091605],[-118.134613,34.091594],[-118.134774,34.091561],[-118.13479,34.091561],[-118.135072,34.09156],[-118.135076,34.09156],[-118.135199,34.091559],[-118.135407,34.091558],[-118.135786,34.091557],[-118.135804,34.091557],[-118.135879,34.091556],[-118.135967,34.091556],[-118.135996,34.091556],[-118.136254,34.091554],[-118.136448,34.091553],[-118.136647,34.091552],[-118.137031,34.09155],[-118.137046,34.09155],[-118.137119,34.091548],[-118.137194,34.09155],[-118.137238,34.09155],[-118.137593,34.091548],[-118.138229,34.091546],[-118.138247,34.091546],[-118.138315,34.091545],[-118.138325,34.091545],[-118.138417,34.091545],[-118.138459,34.091545],[-118.138955,34.091541],[-118.138993,34.091541],[-118.13911,34.09154],[-118.139115,34.09154],[-118.139213,34.091539],[-118.139502,34.091537],[-118.139592,34.091537],[-118.139675,34.091536],[-118.139894,34.091535],[-118.140003,34.091534],[-118.140173,34.091536],[-118.140422,34.091531],[-118.140774,34.091529],[-118.141092,34.091527],[-118.141391,34.091524],[-118.141656,34.091522],[-118.141867,34.09152],[-118.141916,34.09152],[-118.141937,34.09152],[-118.142032,34.091519],[-118.142138,34.091519],[-118.142142,34.091519],[-118.14235,34.091518],[-118.142481,34.091517],[-118.142685,34.091518],[-118.142715,34.091517],[-118.143157,34.091514],[-118.143266,34.091513],[-118.143367,34.091512],[-118.144091,34.091507],[-118.144182,34.091507],[-118.144258,34.091506],[-118.144332,34.091506],[-118.144479,34.091509],[-118.144526,34.09151],[-118.144612,34.091511],[-118.144694,34.091512],[-118.144891,34.091516],[-118.144908,34.091516],[-118.144928,34.091516],[-118.14503,34.091518],[-118.145242,34.09152],[-118.14533,34.091465],[-118.145427,34.091404],[-118.145499,34.091359],[-118.145574,34.091308],[-118.145649,34.091253],[-118.145729,34.091216],[-118.145782,34.091169],[-118.145801,34.09115],[-118.145861,34.091094],[-118.145926,34.091007],[-118.145975,34.090912],[-118.146022,34.090846],[-118.146083,34.090748],[-118.146076,34.090625],[-118.146244,34.090361],[-118.146251,34.090351],[-118.146299,34.090273],[-118.146413,34.090095],[-118.146451,34.090035],[-118.146492,34.08996],[-118.146525,34.089887],[-118.146547,34.08983],[-118.146565,34.089769],[-118.146578,34.08971],[-118.146587,34.089653],[-118.146593,34.089593],[-118.146595,34.089533],[-118.146593,34.08943],[-118.146588,34.089228],[-118.14658,34.088925],[-118.146653,34.088847],[-118.14664,34.088347],[-118.146639,34.088158],[-118.146638,34.088058],[-118.146623,34.088016],[-118.146759786,34.087875579],[-118.147579,34.087865],[-118.14778,34.087863],[-118.147954,34.087862],[-118.14808,34.087861],[-118.14819,34.08786],[-118.148311,34.087859],[-118.148344,34.087859],[-118.14876,34.087855],[-118.148819,34.087855],[-118.148865,34.087854],[-118.149327,34.08785],[-118.149463,34.087849],[-118.150211,34.087843],[-118.150265,34.087843],[-118.150366,34.087842],[-118.15046,34.087841],[-118.150654,34.087839],[-118.150936,34.087837],[-118.150947,34.087837],[-118.151191,34.087835],[-118.151525,34.087832],[-118.151542,34.087832],[-118.151802,34.087829],[-118.151975,34.087823],[-118.151975,34.087806],[-118.151973,34.087731],[-118.151973,34.087722],[-118.15197,34.087523],[-118.151968,34.087383],[-118.151961,34.086985],[-118.151966,34.086682],[-118.151966,34.08665],[-118.151968,34.086547],[-118.151969,34.08645],[-118.151969,34.086434],[-118.151972,34.086186],[-118.151971,34.086076],[-118.152012,34.086005],[-118.152017,34.085951],[-118.152014,34.085678],[-118.152013,34.085551],[-118.151986,34.083765],[-118.152,34.083562],[-118.152,34.083469],[-118.151993,34.082648],[-118.151964,34.081071],[-118.151961,34.080891],[-118.151956,34.080654],[-118.151956,34.080455],[-118.151956,34.080439],[-118.151955,34.080365],[-118.151955,34.080293],[-118.151955,34.07978],[-118.151955,34.079648],[-118.151955,34.079543],[-118.15194,34.07948],[-118.151935,34.07946],[-118.151906,34.079335],[-118.151901,34.079224],[-118.1519,34.079206],[-118.151899,34.079187],[-118.151899,34.079178],[-118.151893,34.079037],[-118.151892,34.07901],[-118.151891,34.078997],[-118.151889,34.078969],[-118.151887,34.078918],[-118.151884,34.078786],[-118.15194,34.078726],[-118.151927,34.078441],[-118.151924,34.07768],[-118.151878,34.077544],[-118.151872,34.077412],[-118.151868,34.077107],[-118.151868,34.077075],[-118.151868,34.077056],[-118.151869,34.076962],[-118.151869,34.076857],[-118.151713,34.076865],[-118.151429,34.076881],[-118.151171,34.076894],[-118.151065,34.076899],[-118.148351,34.077061],[-118.148322,34.077063],[-118.148206,34.077069],[-118.148125,34.077074],[-118.14797,34.077083],[-118.147749,34.077095],[-118.147694,34.077098],[-118.147598,34.077103],[-118.146927,34.077139],[-118.146545,34.077174],[-118.146529,34.077174],[-118.146136,34.077179],[-118.145857,34.077195],[-118.145587,34.077211],[-118.145562,34.077213],[-118.145475,34.077218],[-118.14546,34.077219],[-118.145385,34.077223],[-118.145348,34.077225],[-118.145157,34.077236],[-118.144827,34.077256],[-118.144399,34.077282],[-118.144395,34.077282],[-118.143646,34.077325],[-118.143593,34.077328],[-118.143144,34.077353],[-118.14247,34.077392],[-118.14203,34.077418],[-118.141991,34.07742],[-118.141867,34.077428],[-118.141762,34.077434],[-118.141547,34.077447],[-118.140975,34.077482],[-118.140566,34.077507],[-118.14018,34.077531],[-118.140138,34.077533],[-118.140045,34.077539],[-118.140027,34.07754],[-118.139959,34.077544],[-118.139937,34.077545],[-118.139934,34.077545],[-118.139684,34.077559],[-118.139611,34.077563],[-118.139319,34.077579],[-118.139246,34.077584],[-118.139132,34.07759],[-118.139113,34.077591],[-118.139095,34.077592],[-118.138688,34.077616],[-118.1386,34.077621],[-118.138315,34.077638],[-118.138289,34.07764],[-118.138194,34.077646],[-118.13818,34.077647],[-118.138099,34.077651],[-118.138078,34.077652],[-118.137823,34.077666],[-118.137192,34.077703],[-118.136619,34.077736],[-118.136343,34.077752],[-118.136016,34.07777],[-118.135653,34.077791],[-118.135337,34.077809],[-118.135193,34.077818],[-118.134943,34.077832],[-118.134692,34.077847],[-118.134671,34.077848],[-118.134493,34.077858],[-118.134361,34.077866],[-118.134079,34.077882],[-118.13397,34.077888],[-118.133716,34.077903],[-118.133534,34.077914],[-118.133259,34.077929],[-118.133244,34.077938],[-118.133137,34.077987],[-118.133043,34.077993],[-118.133023,34.077994],[-118.13246,34.078027],[-118.132316,34.078035],[-118.132215,34.078041],[-118.131847,34.078062],[-118.131764,34.078067],[-118.131661,34.078073],[-118.131647,34.078074],[-118.131639,34.078075],[-118.131634,34.078075],[-118.131567,34.078079],[-118.131374,34.07809],[-118.131308,34.078094],[-118.131164,34.078103],[-118.131022,34.078111],[-118.130751,34.078127],[-118.130701,34.07813],[-118.130688,34.078131],[-118.130663,34.078132],[-118.130525,34.078141],[-118.130378,34.078149],[-118.129955,34.078173],[-118.12995,34.078173],[-118.129779,34.078182],[-118.129543,34.078195],[-118.129502,34.078197],[-118.129461,34.0782],[-118.129423,34.078202],[-118.129325,34.078208],[-118.129244,34.078212],[-118.129082,34.078222],[-118.128908,34.078233],[-118.128706,34.078245],[-118.128192,34.078276],[-118.128072,34.078281],[-118.127972,34.078289],[-118.127939,34.078291],[-118.127931,34.078291],[-118.127489,34.078314],[-118.127415,34.078318],[-118.127356,34.078321],[-118.127172,34.07833],[-118.126942,34.078342],[-118.126912,34.078344],[-118.126798,34.07835],[-118.126716,34.078355],[-118.126426,34.078373],[-118.126387,34.078375],[-118.126189,34.078388],[-118.126085,34.078395],[-118.125692,34.078421],[-118.125558,34.07843],[-118.125459,34.078432],[-118.125432,34.078434],[-118.125427,34.078434],[-118.125401,34.078435],[-118.125193,34.078446],[-118.124957,34.078459],[-118.124759,34.07847],[-118.124598,34.078478],[-118.1243,34.078494],[-118.124198,34.078453],[-118.123913,34.07847],[-118.12354,34.078493],[-118.123451,34.078498],[-118.123179,34.078514],[-118.123151,34.078516],[-118.123119,34.078518],[-118.123013,34.07852],[-118.122903,34.07853],[-118.12276,34.078538],[-118.122469,34.078553],[-118.12221,34.078567],[-118.122125,34.078572],[-118.122028,34.078577],[-118.121929,34.078636],[-118.121908,34.078637],[-118.121612,34.078652],[-118.121462,34.078659],[-118.121437,34.07866],[-118.121079,34.078679],[-118.121056,34.07868],[-118.120991,34.078682],[-118.120958,34.078683],[-118.120851,34.078687],[-118.120838,34.078688],[-118.120758,34.078693],[-118.120673,34.078698],[-118.12067,34.078698],[-118.120285,34.078722],[-118.120153,34.07873],[-118.120109,34.078732],[-118.119968,34.07874],[-118.119898,34.078742],[-118.119883,34.078743],[-118.119858,34.078744],[-118.119761,34.078747],[-118.119746,34.078744],[-118.11967,34.078728],[-118.119636,34.078721],[-118.119579,34.07871],[-118.11865,34.078747],[-118.11825,34.078764],[-118.118221,34.078766],[-118.117984,34.07878],[-118.117681,34.078801],[-118.117492,34.078814],[-118.117457,34.078816],[-118.117169,34.078836],[-118.117063,34.078843],[-118.117052,34.078844],[-118.117014,34.078847],[-118.116925,34.078849],[-118.116819,34.078859],[-118.116582,34.078871],[-118.115729,34.078915],[-118.11568,34.078917],[-118.11557,34.078969],[-118.11457,34.079021],[-118.114207,34.079039],[-118.114096,34.079045],[-118.114025,34.079048],[-118.113989,34.07905],[-118.113688,34.079065],[-118.113534,34.079072],[-118.112468,34.079125],[-118.111751,34.079156],[-118.111462,34.079173],[-118.111426,34.079175],[-118.111329,34.079179],[-118.111328,34.079309],[-118.111328,34.07941]]]}},{"type":"Feature","properties":{"agency_name":"Alhambra Community Transit (ACT)","route_id":"8575","agency_id":"7057","route_short_name":"Green","route_long_name":"ACT Green Clockwise","route_type":3,"route_color":"#2CA02C","route_text_color":"#FFFFFF"},"geometry":{"type":"MultiLineString","coordinates":[[[-118.111751,34.079156],[-118.112468,34.079125],[-118.113534,34.079072],[-118.113688,34.079065],[-118.113989,34.07905],[-118.114013,34.079049],[-118.114096,34.079045],[-118.114207,34.079039],[-118.11457,34.079021],[-118.11557,34.078969],[-118.115683,34.079016],[-118.116402,34.078985],[-118.11678,34.078964],[-118.11682,34.078962],[-118.116927,34.078956],[-118.11706,34.078948],[-118.117086,34.078946],[-118.117446,34.078923],[-118.117517,34.078919],[-118.117787,34.078902],[-118.118223,34.078872],[-118.118243,34.078871],[-118.119134,34.078828],[-118.11931,34.07882],[-118.119334,34.078819],[-118.119594,34.078806],[-118.119638,34.078791],[-118.119667,34.07878],[-118.119744,34.078753],[-118.119761,34.078747],[-118.119858,34.078744],[-118.119883,34.078743],[-118.119898,34.078742],[-118.119968,34.07874],[-118.120109,34.078732],[-118.120153,34.07873],[-118.120285,34.078722],[-118.12067,34.078698],[-118.120673,34.078698],[-118.120758,34.078693],[-118.120838,34.078688],[-118.120851,34.078687],[-118.120958,34.078683],[-118.120991,34.078682],[-118.121056,34.07868],[-118.121079,34.078679],[-118.121437,34.07866],[-118.121462,34.078659],[-118.121612,34.078652],[-118.121908,34.078637],[-118.121929,34.078636],[-118.122023,34.078683],[-118.122731,34.078642],[-118.122882,34.078633],[-118.122917,34.078631],[-118.123013,34.078627],[-118.123115,34.078622],[-118.123161,34.078619],[-118.123279,34.078613],[-118.123424,34.078605],[-118.123599,34.078596],[-118.123781,34.078586],[-118.123948,34.078577],[-118.12402,34.078573],[-118.124203,34.078563],[-118.1243,34.078494],[-118.124598,34.078478],[-118.124759,34.07847],[-118.124957,34.078459],[-118.125193,34.078446],[-118.125401,34.078435],[-118.125427,34.078434],[-118.125432,34.078434],[-118.125459,34.078432],[-118.125558,34.07843],[-118.125692,34.078421],[-118.126085,34.078395],[-118.126189,34.078388],[-118.126426,34.078373],[-118.126716,34.078355],[-118.126798,34.07835],[-118.126912,34.078344],[-118.126942,34.078342],[-118.127058,34.078336],[-118.129664,34.078188],[-118.129779,34.078182],[-118.12995,34.078173],[-118.129955,34.078173],[-118.130378,34.078149],[-118.130525,34.078141],[-118.130663,34.078132],[-118.130688,34.078131],[-118.130701,34.07813],[-118.130751,34.078127],[-118.131022,34.078111],[-118.131164,34.078103],[-118.131308,34.078094],[-118.131374,34.07809],[-118.131567,34.078079],[-118.131634,34.078075],[-118.131639,34.078075],[-118.131647,34.078074],[-118.131661,34.078073],[-118.131764,34.078067],[-118.131847,34.078062],[-118.132215,34.078041],[-118.132316,34.078035],[-118.13246,34.078027],[-118.133023,34.077994],[-118.133043,34.077993],[-118.133137,34.077987],[-118.133149,34.077992],[-118.133244,34.078028],[-118.133253,34.078034],[-118.133264,34.078033],[-118.133843,34.078003],[-118.134101,34.077989],[-118.134337,34.077977],[-118.134368,34.077975],[-118.1345,34.077969],[-118.134678,34.077958],[-118.134977,34.07794],[-118.13515,34.077929],[-118.135699,34.077896],[-118.135994,34.077879],[-118.13603,34.077877],[-118.136353,34.077857],[-118.136817,34.077829],[-118.136874,34.077826],[-118.137153,34.07781],[-118.137193,34.077807],[-118.13753,34.077788],[-118.137679,34.077779],[-118.138079,34.077756],[-118.138104,34.077754],[-118.138181,34.07775],[-118.138195,34.077749],[-118.138295,34.077743],[-118.138415,34.077736],[-118.139119,34.077697],[-118.139795,34.077655],[-118.139917,34.077648],[-118.139957,34.077646],[-118.14003,34.077642],[-118.140046,34.077641],[-118.140142,34.077635],[-118.140168,34.077633],[-118.140171,34.077633],[-118.140943,34.077587],[-118.141287,34.077567],[-118.141749,34.077539],[-118.141789,34.077536],[-118.141896,34.07753],[-118.141995,34.077525],[-118.142036,34.077523],[-118.142099,34.07752],[-118.142259,34.077511],[-118.142801,34.077482],[-118.143143,34.077471],[-118.143145,34.077471],[-118.14352,34.077442],[-118.143942,34.077416],[-118.144398,34.077387],[-118.145051,34.07735],[-118.14536,34.07732],[-118.145385,34.077319],[-118.145472,34.077326],[-118.145561,34.077322],[-118.145602,34.07732],[-118.145754,34.077311],[-118.146151,34.077287],[-118.146538,34.077269],[-118.14654,34.077269],[-118.147163,34.077228],[-118.14721,34.077224],[-118.147379,34.077215],[-118.147603,34.077208],[-118.147608,34.077207],[-118.147694,34.077197],[-118.147748,34.077194],[-118.148323,34.077162],[-118.148586,34.077144],[-118.148608,34.077145],[-118.148695,34.077139],[-118.14879,34.07713],[-118.148831,34.077127],[-118.148834,34.077127],[-118.14904,34.077113],[-118.149361,34.07709],[-118.149367,34.07709],[-118.149667,34.077082],[-118.14975,34.077082],[-118.15043,34.07704],[-118.150806,34.077018],[-118.15106,34.077004],[-118.151416,34.076986],[-118.151452,34.076984],[-118.151665,34.076972],[-118.151671,34.076972],[-118.151692,34.076971],[-118.151713,34.07697],[-118.151869,34.076962],[-118.151868,34.077056],[-118.151868,34.077075],[-118.151868,34.077107],[-118.151872,34.077412],[-118.151878,34.077544],[-118.151824,34.077669],[-118.151839,34.078645],[-118.151841,34.078733],[-118.151884,34.078786],[-118.151887,34.078918],[-118.151889,34.078969],[-118.151891,34.078997],[-118.151892,34.07901],[-118.151893,34.079037],[-118.151899,34.079178],[-118.151899,34.079187],[-118.1519,34.079206],[-118.151901,34.079224],[-118.151906,34.079335],[-118.151885,34.079467],[-118.151876,34.079515],[-118.151867,34.079565],[-118.151865,34.079672],[-118.151861,34.080009],[-118.15186,34.080085],[-118.151857,34.080267],[-118.151857,34.080288],[-118.151856,34.080362],[-118.151856,34.08045],[-118.151856,34.080483],[-118.151862,34.080893],[-118.151865,34.081073],[-118.151887,34.082662],[-118.151892,34.083442],[-118.151889,34.08356],[-118.151878,34.083614],[-118.151862,34.083973],[-118.151864,34.084065],[-118.151866,34.084176],[-118.151866,34.084209],[-118.151866,34.084211],[-118.151869,34.084522],[-118.151878,34.085307],[-118.151913,34.085779],[-118.151928,34.086005],[-118.151959,34.086056],[-118.151971,34.086076],[-118.151972,34.086186],[-118.151969,34.086434],[-118.151969,34.08645],[-118.151968,34.086547],[-118.151966,34.08665],[-118.151966,34.086682],[-118.151961,34.086985],[-118.151968,34.087383],[-118.15197,34.087523],[-118.151973,34.087722],[-118.151973,34.087731],[-118.151975,34.087806],[-118.151975,34.087823],[-118.151977,34.087926],[-118.151978,34.087967],[-118.151981,34.088147],[-118.151982,34.088222],[-118.151986,34.088306],[-118.152028,34.089292],[-118.152032,34.090828],[-118.152033,34.091122],[-118.152036,34.091259],[-118.152036,34.09128],[-118.152039,34.091394],[-118.151852,34.091396],[-118.151802,34.091397],[-118.15129,34.0914],[-118.150985,34.091401],[-118.150791,34.091401],[-118.150513,34.091402],[-118.150443,34.091404],[-118.150377,34.091409],[-118.150315,34.091417],[-118.150247,34.091426],[-118.149492,34.091571],[-118.148793,34.091706],[-118.148375,34.091787],[-118.148069,34.091846],[-118.147992,34.091861],[-118.147761,34.091906],[-118.147698,34.091918],[-118.147411,34.091973],[-118.14733,34.091989],[-118.147246,34.092009],[-118.147063,34.092082],[-118.14704,34.092096],[-118.146955,34.092157],[-118.146709,34.091965],[-118.146693,34.091952],[-118.146488,34.09182],[-118.146281,34.091707],[-118.14603,34.091611],[-118.145984,34.091601],[-118.145934,34.091591],[-118.145888,34.091578],[-118.145532,34.091497],[-118.145486,34.091493],[-118.145445,34.091491],[-118.145382,34.09149],[-118.145315,34.091501],[-118.145253,34.091517],[-118.145242,34.09152],[-118.14503,34.091518],[-118.144928,34.091516],[-118.144908,34.091516],[-118.144694,34.091512],[-118.144612,34.091511],[-118.144526,34.09151],[-118.144479,34.091509],[-118.144332,34.091506],[-118.144258,34.091506],[-118.144182,34.091507],[-118.144091,34.091507],[-118.143367,34.091512],[-118.143266,34.091513],[-118.143157,34.091514],[-118.142715,34.091517],[-118.142685,34.091518],[-118.142481,34.091517],[-118.14235,34.091518],[-118.142142,34.091519],[-118.142138,34.091519],[-118.142032,34.091519],[-118.141937,34.09152],[-118.141916,34.09152],[-118.141767,34.091521],[-118.141656,34.091522],[-118.141391,34.091524],[-118.141092,34.091527],[-118.140774,34.091529],[-118.140422,34.091531],[-118.140173,34.091536],[-118.140003,34.091534],[-118.139675,34.091536],[-118.139592,34.091537],[-118.139502,34.091537],[-118.13933,34.091538],[-118.139213,34.091539],[-118.139115,34.09154],[-118.13911,34.09154],[-118.138993,34.091541],[-118.138955,34.091541],[-118.138459,34.091545],[-118.138417,34.091545],[-118.138325,34.091545],[-118.138315,34.091545],[-118.138247,34.091546],[-118.138229,34.091546],[-118.137593,34.091548],[-118.137238,34.09155],[-118.137194,34.09155],[-118.137119,34.091548],[-118.137046,34.09155],[-118.137031,34.09155],[-118.136647,34.091552],[-118.136448,34.091553],[-118.136254,34.091554],[-118.135996,34.091556],[-118.135967,34.091556],[-118.135879,34.091556],[-118.135804,34.091557],[-118.135786,34.091557],[-118.135407,34.091558],[-118.135199,34.091559],[-118.135076,34.09156],[-118.135072,34.09156],[-118.13485,34.091561],[-118.13479,34.091561],[-118.134774,34.091561],[-118.134613,34.091594],[-118.134501,34.091605],[-118.134493,34.091606],[-118.134396,34.091583],[-118.134032,34.091749],[-118.133996,34.091765],[-118.133841,34.091836],[-118.133566,34.091968],[-118.133561,34.09197],[-118.133338,34.092078],[-118.133325,34.092089],[-118.133304,34.09214],[-118.133255,34.092159],[-118.133248,34.092162],[-118.133169,34.092195],[-118.132826,34.092338],[-118.132603,34.092442],[-118.132285,34.092615],[-118.1322,34.092663],[-118.132192,34.092667],[-118.132118,34.092698],[-118.132106,34.092704],[-118.132104,34.092705],[-118.131826,34.092835],[-118.131819,34.092838],[-118.131549,34.09297],[-118.131541,34.092974],[-118.131247,34.09311],[-118.131162,34.093144],[-118.131142,34.093153],[-118.131079,34.093182],[-118.131071,34.093186],[-118.130721,34.093335],[-118.130506,34.093434],[-118.130406,34.093487],[-118.130158,34.093619],[-118.130078,34.093654],[-118.130058,34.093664],[-118.129999,34.093692],[-118.129663,34.093829],[-118.129393,34.09396],[-118.129058,34.094123],[-118.129046,34.094128],[-118.129034,34.094134],[-118.128954,34.094172],[-118.128948,34.094175],[-118.128876,34.094209],[-118.128859,34.094217],[-118.128845,34.094223],[-118.128622,34.094327],[-118.128561,34.094355],[-118.128301,34.094474],[-118.128013,34.094607],[-118.127999,34.094613],[-118.127907,34.094656],[-118.127833,34.094692],[-118.127819,34.094699],[-118.127561,34.094823],[-118.12729,34.094954],[-118.126969,34.09511],[-118.12684,34.095172],[-118.126714,34.095229],[-118.126693,34.095239],[-118.126691,34.09524],[-118.126645,34.095261],[-118.12659,34.095286],[-118.126412,34.095367],[-118.126339,34.0954],[-118.126234,34.09541],[-118.125569,34.09573],[-118.125503,34.095762],[-118.125419,34.095803],[-118.124876,34.096044],[-118.12487,34.096052],[-118.124836,34.096098],[-118.124819,34.096106],[-118.124759,34.096134],[-118.124738,34.096144],[-118.124594,34.09621],[-118.124511,34.096214],[-118.124193,34.096363],[-118.124111,34.096431],[-118.123821,34.09659],[-118.123819,34.096591],[-118.123792,34.096606],[-118.12369,34.096652],[-118.123687,34.096653],[-118.123666,34.096661],[-118.123587,34.096692],[-118.123483,34.096739],[-118.123271,34.096836],[-118.123264,34.096836],[-118.123128,34.096844],[-118.122854,34.096979],[-118.122735,34.097037],[-118.122361,34.097235],[-118.122348,34.097243],[-118.122242,34.097309],[-118.122211,34.097322],[-118.122132,34.097355],[-118.122126,34.097358],[-118.12211,34.097365],[-118.122026,34.0974],[-118.121792,34.097497],[-118.121707,34.097535],[-118.121498,34.097644],[-118.121333,34.097721],[-118.121285,34.097743],[-118.121132,34.097816],[-118.121099,34.097832],[-118.121087,34.097838],[-118.121078,34.097846],[-118.121006,34.097925],[-118.120925,34.097957],[-118.120903,34.097967],[-118.12088,34.097978],[-118.120608,34.098105],[-118.120523,34.098145],[-118.120363,34.098219],[-118.12003,34.098375],[-118.120018,34.09838],[-118.119925,34.098421],[-118.119903,34.098432],[-118.119839,34.098466],[-118.119829,34.098471],[-118.119486,34.098642],[-118.119337,34.098717],[-118.119276,34.098747],[-118.118845,34.098963],[-118.118675,34.09904],[-118.118425,34.099154],[-118.118418,34.099157],[-118.118192,34.099268],[-118.117876,34.09942],[-118.117806,34.099458],[-118.117736,34.099362],[-118.11749,34.099037],[-118.117305,34.09877],[-118.117273,34.098726],[-118.117042,34.098381],[-118.116472,34.097555],[-118.116403,34.097455],[-118.116371,34.097408],[-118.116108,34.097028],[-118.116063,34.096968],[-118.115824,34.096653],[-118.115484,34.09616],[-118.115201,34.095757],[-118.114983,34.095454],[-118.114778,34.095156],[-118.114279,34.094414],[-118.113995,34.094029],[-118.11383,34.093768],[-118.113815,34.093743],[-118.113769,34.093679],[-118.11428,34.093453],[-118.114866,34.093205],[-118.115167,34.093079],[-118.115375,34.092988],[-118.115972,34.092731],[-118.116291,34.092588],[-118.11706,34.092255],[-118.117432,34.092096],[-118.1178,34.091942],[-118.11818,34.091783],[-118.118626,34.09159],[-118.119039,34.091414],[-118.119255,34.091323],[-118.119438,34.091244],[-118.11955,34.091195],[-118.119693,34.091134],[-118.119721,34.091124],[-118.119812,34.091084],[-118.119795,34.090988],[-118.119788,34.090939],[-118.119786,34.090907],[-118.119779,34.090747],[-118.119779,34.090743],[-118.119778,34.090604],[-118.119778,34.090454],[-118.119778,34.090416],[-118.119768,34.090416],[-118.119669,34.090414],[-118.119624,34.090415],[-118.119299,34.09042],[-118.119298,34.09042],[-118.119129,34.090432],[-118.118294,34.090434],[-118.118279,34.090434],[-118.117402,34.09044],[-118.116993,34.090443],[-118.116982,34.090165],[-118.116972,34.085554],[-118.11696,34.084354],[-118.116956,34.084282],[-118.116957,34.084193],[-118.116954,34.084032],[-118.11694,34.082899],[-118.116939,34.082834],[-118.116939,34.082758],[-118.116938,34.080839],[-118.116938,34.080759],[-118.116839,34.080763],[-118.115955,34.080806],[-118.115037,34.08085],[-118.114204,34.080891],[-118.114105,34.080896],[-118.114014,34.080901],[-118.113961,34.080904],[-118.113173,34.080944],[-118.113062,34.080947],[-118.112248,34.080989],[-118.112219,34.080991],[-118.111428,34.081024],[-118.111374,34.081027],[-118.111325,34.08103],[-118.111324,34.080964],[-118.111324,34.080386],[-118.111323,34.08037],[-118.111327,34.079726],[-118.111328,34.079309],[-118.111324597,34.07917871],[-118.111588993,34.079166127]]]}}]}