{"type":"FeatureCollection","features":[{"type":"Feature","properties":{"stop_id":"208695","stop_name":"Almansor St / Corto St (CCW)","wheelchair_boarding":0,"routes":[{"route_id":"8579","agency_id":"7057","route_short_name":"Green","route_long_name":"ACT Counterclockwise","route_type":3,"route_color":"#31A354","route_text_color":"#FFFFFF"}],"agency_name":"Alhambra Community Transit (ACT)"},"geometry":{"type":"Point","coordinates":[-118.116972,34.090222]}},{"type":"Feature","properties":{"stop_id":"211390","stop_code":"2055","stop_name":"Almansor St / Corto St (CW)","wheelchair_boarding":0,"routes":[{"route_id":"8575","agency_id":"7057","route_short_name":"Green","route_long_name":"ACT Green Clockwise","route_type":3,"route_color":"#2CA02C","route_text_color":"#FFFFFF"}],"agency_name":"Alhambra Community Transit (ACT)"},"geometry":{"type":"Point","coordinates":[-118.11715,34.09016]}},{"type":"Feature","properties":{"stop_id":"208694","stop_code":"1003","stop_name":"Almansor St / Los Higos St (CCW)","wheelchair_boarding":0,"routes":[{"route_id":"8579","agency_id":"7057","route_short_name":"Green","route_long_name":"ACT Counterclockwise","route_type":3,"route_color":"#31A354","route_text_color":"#FFFFFF"}],"agency_name":"Alhambra Community Transit (ACT)"},"geometry":{"type":"Point","coordinates":[-118.116863,34.08554]}},{"type":"Feature","properties":{"stop_id":"211389","stop_code":"2056","stop_name":"Almansor St / Los Higos St (CW)","wheelchair_boarding":0,"routes":[{"route_id":"8575","agency_id":"7057","route_short_name":"Green","route_long_name":"ACT Green Clockwise","route_type":3,"route_color":"#2CA02C","route_text_color":"#FFFFFF"}],"agency_name":"Alhambra Community Transit (ACT)"},"geometry":{"type":"Point","coordinates":[-118.116915131,34.08555445]}},{"type":"Feature","properties":{"stop_id":"208723","stop_name":"Cal State LA Luckman Theater","wheelchair_boarding":0,"routes":[{"route_id":"8576","agency_id":"7057","route_short_name":"Blue","route_long_name":"ACT Blue","route_type":3,"route_color":"#1F77B4","route_text_color":"#FFFFFF"}],"agency_name":"Alhambra Community Transit (ACT)"},"geometry":{"type":"Point","coordinates":[-118.169574,34.068979]}},{"type":"Feature","properties":{"stop_id":"208722","stop_code":"3001","stop_name":"Cal State LA Metro Link","wheelchair_boarding":0,"routes":[{"route_id":"8576","agency_id":"7057","route_short_name":"Blue","route_long_name":"ACT Blue","route_type":3,"route_color":"#1F77B4","route_text_color":"#FFFFFF"}],"agency_name":"Alhambra Community Transit (ACT)"},"geometry":{"type":"Point","coordinates":[-118.168514,34.063205]}},{"type":"Feature","properties":{"stop_id":"208724","stop_name":"Cal State LA South Village Housing","wheelchair_boarding":0,"routes":[{"route_id":"8576","agency_id":"7057","route_short_name":"Blue","route_long_name":"ACT Blue","route_type":3,"route_color":"#1F77B4","route_text_color":"#FFFFFF"}],"agency_name":"Alhambra Community Transit (ACT)"},"geometry":{"type":"Point","coordinates":[-118.163826,34.070081]}},{"type":"Feature","properties":{"stop_id":"208696","stop_code":"4021","stop_name":"Chapel Ave / Bay State St","wheelchair_boarding":0,"routes":[{"route_id":"8576","agency_id":"7057","route_short_name":"Blue","route_long_name":"ACT Blue","route_type":3,"route_color":"#1F77B4","route_text_color":"#FFFFFF"}],"agency_name":"Alhambra Community Transit (ACT)"},"geometry":{"type":"Point","coordinates":[-118.1224574,34.0947633]}},{"type":"Feature","properties":{"stop_id":"208742","stop_code":"4018","stop_name":"Chapel Ave / Main St (N)","wheelchair_boarding":0,"routes":[{"route_id":"8576","agency_id":"7057","route_short_name":"Blue","route_long_name":"ACT Blue","route_type":3,"route_color":"#1F77B4","route_text_color":"#FFFFFF"}],"agency_name":"Alhambra Community Transit (ACT)"},"geometry":{"type":"Point","coordinates":[-118.124284,34.09732]}},{"type":"Feature","properties":{"stop_id":"209787","stop_code":"4020","stop_name":"Chapel Ave / Main St (S)","wheelchair_boarding":0,"routes":[{"route_id":"8576","agency_id":"7057","route_short_name":"Blue","route_long_name":"ACT Blue","route_type":3,"route_color":"#1F77B4","route_text_color":"#FFFFFF"}],"agency_name":"Alhambra Community Transit (ACT)"},"geometry":{"type":"Point","coordinates":[-118.123237,34.095795]}},{"type":"Feature","properties":{"stop_id":"208706","stop_code":"4028/1015","stop_name":"Fremont Ave / Commonwealth Ave (IB)","wheelchair_boarding":0,"routes":[{"route_id":"8579","agency_id":"7057","route_short_name":"Green","route_long_name":"ACT Counterclockwise","route_type":3,"route_color":"#31A354","route_text_color":"#FFFFFF"}],"agency_name":"Alhambra Community Transit (ACT)"},"geometry":{"type":"Point","coordinates":[-118.152094,34.087341]}},{"type":"Feature","properties":{"stop_id":"220518","stop_name":"Fremont Ave / Commonweatlh Ave (CW)","wheelchair_boarding":0,"routes":[{"route_id":"8575","agency_id":"7057","route_short_name":"Green","route_long_name":"ACT Green Clockwise","route_type":3,"route_color":"#2CA02C","route_text_color":"#FFFFFF"}],"agency_name":"Alhambra Community Transit (ACT)"},"geometry":{"type":"Point","coordinates":[-118.1518751,34.08830937]}},{"type":"Feature","properties":{"stop_id":"209801","stop_code":"3007","stop_name":"Fremont Ave / Mission Rd (EB)","wheelchair_boarding":0,"routes":[{"route_id":"8575","agency_id":"7057","route_short_name":"Green","route_long_name":"ACT Green Clockwise","route_type":3,"route_color":"#2CA02C","route_text_color":"#FFFFFF"}],"agency_name":"Alhambra Community Transit (ACT)"},"geometry":{"type":"Point","coordinates":[-118.151763,34.080154]}},{"type":"Feature","properties":{"stop_id":"208708","stop_code":"4030","stop_name":"Fremont Ave / Mission Rd (WB)","wheelchair_boarding":0,"routes":[{"route_id":"8579","agency_id":"7057","route_short_name":"Green","route_long_name":"ACT Counterclockwise","route_type":3,"route_color":"#31A354","route_text_color":"#FFFFFF"}],"agency_name":"Alhambra Community Transit (ACT)"},"geometry":{"type":"Point","coordinates":[-118.152054,34.079648]}},{"type":"Feature","properties":{"stop_id":"208727","stop_name":"Fremont Ave / Montezuma Ave","wheelchair_boarding":0,"routes":[{"route_id":"8576","agency_id":"7057","route_short_name":"Blue","route_long_name":"ACT Blue","route_type":3,"route_color":"#1F77B4","route_text_color":"#FFFFFF"}],"agency_name":"Alhambra Community Transit (ACT)"},"geometry":{"type":"Point","coordinates":[-118.149482,34.067995]}},{"type":"Feature","properties":{"stop_id":"209802","stop_code":"3008","stop_name":"Fremont Ave / Orange St (EB)","wheelchair_boarding":0,"routes":[{"route_id":"8575","agency_id":"7057","route_short_name":"Green","route_long_name":"ACT Green Clockwise","route_type":3,"route_color":"#2CA02C","route_text_color":"#FFFFFF"}],"agency_name":"Alhambra Community Transit (ACT)"},"geometry":{"type":"Point","coordinates":[-118.151801,34.084523]}},{"type":"Feature","properties":{"stop_id":"208707","stop_code":"4029/1016","stop_name":"Fremont Ave / Orange St (WB)","wheelchair_boarding":0,"routes":[{"route_id":"8579","agency_id":"7057","route_short_name":"Green","route_long_name":"ACT Counterclockwise","route_type":3,"route_color":"#31A354","route_text_color":"#FFFFFF"}],"agency_name":"Alhambra Community Transit (ACT)"},"geometry":{"type":"Point","coordinates":[-118.152046,34.083768]}},{"type":"Feature","properties":{"stop_id":"208720","stop_name":"Fremont Ave / Poplar Blvd","wheelchair_boarding":0,"routes":[{"route_id":"8575","agency_id":"7057","route_short_name":"Green","route_long_name":"ACT Green Clockwise","route_type":3,"route_color":"#2CA02C","route_text_color":"#FFFFFF"}],"agency_name":"Alhambra Community Transit (ACT)"},"geometry":{"type":"Point","coordinates":[-118.1519434,34.09123799]}},{"type":"Feature","properties":{"stop_id":"209800","stop_code":"3006","stop_name":"Fremont Ave / Valley Blvd (EB)","wheelchair_boarding":0,"routes":[{"route_id":"8575","agency_id":"7057","route_short_name":"Green","route_long_name":"ACT Green Clockwise","route_type":3,"route_color":"#2CA02C","route_text_color":"#FFFFFF"}],"agency_name":"Alhambra Community Transit (ACT)"},"geometry":{"type":"Point","coordinates":[-118.151755,34.077461]}},{"type":"Feature","properties":{"stop_id":"208750","stop_code":"4022","stop_name":"Garfield Ave / Bay State St","wheelchair_boarding":0,"routes":[{"route_id":"8576","agency_id":"7057","route_short_name":"Blue","route_long_name":"ACT Blue","route_type":3,"route_color":"#1F77B4","route_text_color":"#FFFFFF"}],"agency_name":"Alhambra Community Transit (ACT)"},"geometry":{"type":"Point","coordinates":[-118.125468,34.092977]}},{"type":"Feature","properties":{"stop_id":"208739","stop_name":"Garfield Ave / Beacon St","wheelchair_boarding":0,"routes":[{"route_id":"8576","agency_id":"7057","route_short_name":"Blue","route_long_name":"ACT Blue","route_type":3,"route_color":"#1F77B4","route_text_color":"#FFFFFF"}],"agency_name":"Alhambra Community Transit (ACT)"},"geometry":{"type":"Point","coordinates":[-118.124147,34.091447]}},{"type":"Feature","properties":{"stop_id":"208752","stop_name":"Garfield Ave / Beacon St","wheelchair_boarding":0,"routes":[{"route_id":"8576","agency_id":"7057","route_short_name":"Blue","route_long_name":"ACT Blue","route_type":3,"route_color":"#1F77B4","route_text_color":"#FFFFFF"}],"agency_name":"Alhambra Community Transit (ACT)"},"geometry":{"type":"Point","coordinates":[-118.124016,34.09089]}},{"type":"Feature","properties":{"stop_id":"208740","stop_code":"3015","stop_name":"Garfield Ave / Commonwealth Ave (EB)","wheelchair_boarding":0,"routes":[{"route_id":"8576","agency_id":"7057","route_short_name":"Blue","route_long_name":"ACT Blue","route_type":3,"route_color":"#1F77B4","route_text_color":"#FFFFFF"}],"agency_name":"Alhambra Community Transit (ACT)"},"geometry":{"type":"Point","coordinates":[-118.124946,34.09264]}},{"type":"Feature","properties":{"stop_id":"208751","stop_code":"4026","stop_name":"Garfield Ave / Commonwealth Ave (WB)","wheelchair_boarding":0,"routes":[{"route_id":"8576","agency_id":"7057","route_short_name":"Blue","route_long_name":"ACT Blue","route_type":3,"route_color":"#1F77B4","route_text_color":"#FFFFFF"}],"agency_name":"Alhambra Community Transit (ACT)"},"geometry":{"type":"Point","coordinates":[-118.124728,34.091905]}},{"type":"Feature","properties":{"stop_id":"208732","stop_name":"Garfield Ave / Glendon Way","wheelchair_boarding":0,"routes":[{"route_id":"8576","agency_id":"7057","route_short_name":"Blue","route_long_name":"ACT Blue","route_type":3,"route_color":"#1F77B4","route_text_color":"#FFFFFF"}],"agency_name":"Alhambra Community Transit (ACT)"},"geometry":{"type":"Point","coordinates":[-118.122894,34.074402]}},{"type":"Feature","properties":{"stop_id":"208759","stop_name":"Garfield Ave / Glendon Way","wheelchair_boarding":0,"routes":[{"route_id":"8576","agency_id":"7057","route_short_name":"Blue","route_long_name":"ACT Blue","route_type":3,"route_color":"#1F77B4","route_text_color":"#FFFFFF"}],"agency_name":"Alhambra Community Transit (ACT)"},"geometry":{"type":"Point","coordinates":[-118.123093,34.074221]}},{"type":"Feature","properties":{"stop_id":"208737","stop_name":"Garfield Ave / Los Higos St","wheelchair_boarding":0,"routes":[{"route_id":"8576","agency_id":"7057","route_short_name":"Blue","route_long_name":"ACT Blue","route_type":3,"route_color":"#1F77B4","route_text_color":"#FFFFFF"}],"agency_name":"Alhambra Community Transit (ACT)"},"geometry":{"type":"Point","coordinates":[-118.1229755,34.08592435]}},{"type":"Feature","properties":{"stop_id":"208754","stop_name":"Garfield Ave / Los Higos St","wheelchair_boarding":0,"routes":[{"route_id":"8576","agency_id":"7057","route_short_name":"Blue","route_long_name":"ACT Blue","route_type":3,"route_color":"#1F77B4","route_text_color":"#FFFFFF"}],"agency_name":"Alhambra Community Transit (ACT)"},"geometry":{"type":"Point","coordinates":[-118.123185,34.085399]}},{"type":"Feature","properties":{"stop_id":"208749","stop_name":"Garfield Ave / Main St","wheelchair_boarding":0,"routes":[{"route_id":"8576","agency_id":"7057","route_short_name":"Blue","route_long_name":"ACT Blue","route_type":3,"route_color":"#1F77B4","route_text_color":"#FFFFFF"}],"agency_name":"Alhambra Community Transit (ACT)"},"geometry":{"type":"Point","coordinates":[-118.127041,34.095658]}},{"type":"Feature","properties":{"stop_id":"208733","stop_name":"Garfield Ave / Norwood Pl","wheelchair_boarding":0,"routes":[{"route_id":"8576","agency_id":"7057","route_short_name":"Blue","route_long_name":"ACT Blue","route_type":3,"route_color":"#1F77B4","route_text_color":"#FFFFFF"}],"agency_name":"Alhambra Community Transit (ACT)"},"geometry":{"type":"Point","coordinates":[-118.122898,34.076622]}},{"type":"Feature","properties":{"stop_id":"208758","stop_name":"Garfield Ave / Norwood Pl","wheelchair_boarding":0,"routes":[{"route_id":"8576","agency_id":"7057","route_short_name":"Blue","route_long_name":"ACT Blue","route_type":3,"route_color":"#1F77B4","route_text_color":"#FFFFFF"}],"agency_name":"Alhambra Community Transit (ACT)"},"geometry":{"type":"Point","coordinates":[-118.123085,34.075519]}},{"type":"Feature","properties":{"stop_id":"208738","stop_name":"Garfield Ave / Park St","wheelchair_boarding":0,"routes":[{"route_id":"8576","agency_id":"7057","route_short_name":"Blue","route_long_name":"ACT Blue","route_type":3,"route_color":"#1F77B4","route_text_color":"#FFFFFF"}],"agency_name":"Alhambra Community Transit (ACT)"},"geometry":{"type":"Point","coordinates":[-118.122984,34.088977]}},{"type":"Feature","properties":{"stop_id":"208753","stop_name":"Garfield Ave / Park St","wheelchair_boarding":0,"routes":[{"route_id":"8576","agency_id":"7057","route_short_name":"Blue","route_long_name":"ACT Blue","route_type":3,"route_color":"#1F77B4","route_text_color":"#FFFFFF"}],"agency_name":"Alhambra Community Transit (ACT)"},"geometry":{"type":"Point","coordinates":[-118.12319,34.088635]}},{"type":"Feature","properties":{"stop_id":"208736","stop_name":"Garfield Ave / San Marino Ave","wheelchair_boarding":0,"routes":[{"route_id":"8576","agency_id":"7057","route_short_name":"Blue","route_long_name":"ACT Blue","route_type":3,"route_color":"#1F77B4","route_text_color":"#FFFFFF"}],"agency_name":"Alhambra Community Transit (ACT)"},"geometry":{"type":"Point","coordinates":[-118.122988,34.083135]}},{"type":"Feature","properties":{"stop_id":"208755","stop_name":"Garfield Ave / San Marino Ave","wheelchair_boarding":0,"routes":[{"route_id":"8576","agency_id":"7057","route_short_name":"Blue","route_long_name":"ACT Blue","route_type":3,"route_color":"#1F77B4","route_text_color":"#FFFFFF"}],"agency_name":"Alhambra Community Transit (ACT)"},"geometry":{"type":"Point","coordinates":[-118.123184,34.082494]}},{"type":"Feature","properties":{"stop_id":"208735","stop_name":"Garfield Ave / Shorb St","wheelchair_boarding":0,"routes":[{"route_id":"8576","agency_id":"7057","route_short_name":"Blue","route_long_name":"ACT Blue","route_type":3,"route_color":"#1F77B4","route_text_color":"#FFFFFF"}],"agency_name":"Alhambra Community Transit (ACT)"},"geometry":{"type":"Point","coordinates":[-118.122965,34.080949]}},{"type":"Feature","properties":{"stop_id":"208756","stop_name":"Garfield Ave / Shorb St","wheelchair_boarding":0,"routes":[{"route_id":"8576","agency_id":"7057","route_short_name":"Blue","route_long_name":"ACT Blue","route_type":3,"route_color":"#1F77B4","route_text_color":"#FFFFFF"}],"agency_name":"Alhambra Community Transit (ACT)"},"geometry":{"type":"Point","coordinates":[-118.123166,34.080487]}},{"type":"Feature","properties":{"stop_id":"208734","stop_name":"Garfield Ave / Valley Blvd","wheelchair_boarding":0,"routes":[{"route_id":"8576","agency_id":"7057","route_short_name":"Blue","route_long_name":"ACT Blue","route_type":3,"route_color":"#1F77B4","route_text_color":"#FFFFFF"}],"agency_name":"Alhambra Community Transit (ACT)"},"geometry":{"type":"Point","coordinates":[-118.122906449,34.078900171]}},{"type":"Feature","properties":{"stop_id":"208757","stop_name":"Garfield Ave / Valley Blvd","wheelchair_boarding":0,"routes":[{"route_id":"8576","agency_id":"7057","route_short_name":"Blue","route_long_name":"ACT Blue","route_type":3,"route_color":"#1F77B4","route_text_color":"#FFFFFF"}],"agency_name":"Alhambra Community Transit (ACT)"},"geometry":{"type":"Point","coordinates":[-118.123149,34.078795]}},{"type":"Feature","properties":{"stop_id":"208760","stop_name":"Glendon Way / Fifth St","wheelchair_boarding":0,"routes":[{"route_id":"8576","agency_id":"7057","route_short_name":"Blue","route_long_name":"ACT Blue","route_type":3,"route_color":"#1F77B4","route_text_color":"#FFFFFF"}],"agency_name":"Alhambra Community Transit (ACT)"},"geometry":{"type":"Point","coordinates":[-118.1284202,34.07406904]}},{"type":"Feature","properties":{"stop_id":"220515","stop_name":"Granada Ave / Mission Rd (CCW)","wheelchair_boarding":0,"routes":[{"route_id":"8579","agency_id":"7057","route_short_name":"Green","route_long_name":"ACT Counterclockwise","route_type":3,"route_color":"#31A354","route_text_color":"#FFFFFF"}],"agency_name":"Alhambra Community Transit (ACT)"},"geometry":{"type":"Point","coordinates":[-118.1138606,34.09394427]}},{"type":"Feature","properties":{"stop_id":"220519","stop_name":"Granada Ave / Mission Rd (CW)","wheelchair_boarding":0,"routes":[{"route_id":"8575","agency_id":"7057","route_short_name":"Green","route_long_name":"ACT Green Clockwise","route_type":3,"route_color":"#2CA02C","route_text_color":"#FFFFFF"}],"agency_name":"Alhambra Community Transit (ACT)"},"geometry":{"type":"Point","coordinates":[-118.1141601,34.09410037]}},{"type":"Feature","properties":{"stop_id":"209262","stop_name":"Granada Park","wheelchair_boarding":0,"routes":[{"route_id":"8576","agency_id":"7057","route_short_name":"Blue","route_long_name":"ACT Blue","route_type":3,"route_color":"#1F77B4","route_text_color":"#FFFFFF"}],"agency_name":"Alhambra Community Transit (ACT)"},"geometry":{"type":"Point","coordinates":[-118.145771021,34.069616748]}},{"type":"Feature","properties":{"stop_id":"208730","stop_name":"Hellman Ave / Atlantic Blvd (EB)","wheelchair_boarding":0,"routes":[{"route_id":"8576","agency_id":"7057","route_short_name":"Blue","route_long_name":"ACT Blue","route_type":3,"route_color":"#1F77B4","route_text_color":"#FFFFFF"}],"agency_name":"Alhambra Community Transit (ACT)"},"geometry":{"type":"Point","coordinates":[-118.133948,34.069703]}},{"type":"Feature","properties":{"stop_id":"208762","stop_name":"Hellman Ave / Atlantic Blvd (WB)","wheelchair_boarding":0,"routes":[{"route_id":"8576","agency_id":"7057","route_short_name":"Blue","route_long_name":"ACT Blue","route_type":3,"route_color":"#1F77B4","route_text_color":"#FFFFFF"}],"agency_name":"Alhambra Community Transit (ACT)"},"geometry":{"type":"Point","coordinates":[-118.134833,34.069813]}},{"type":"Feature","properties":{"stop_id":"208731","stop_name":"Hellman Ave / Baltimore Ave","wheelchair_boarding":0,"routes":[{"route_id":"8576","agency_id":"7057","route_short_name":"Blue","route_long_name":"ACT Blue","route_type":3,"route_color":"#1F77B4","route_text_color":"#FFFFFF"}],"agency_name":"Alhambra Community Transit (ACT)"},"geometry":{"type":"Point","coordinates":[-118.124672,34.069721]}},{"type":"Feature","properties":{"stop_id":"208764","stop_name":"Hellman Ave / Campbell Ave","wheelchair_boarding":0,"routes":[{"route_id":"8576","agency_id":"7057","route_short_name":"Blue","route_long_name":"ACT Blue","route_type":3,"route_color":"#1F77B4","route_text_color":"#FFFFFF"}],"agency_name":"Alhambra Community Transit (ACT)"},"geometry":{"type":"Point","coordinates":[-118.143421,34.069736]}},{"type":"Feature","properties":{"stop_id":"208726","stop_name":"Hellman Ave / Fremont Ave","wheelchair_boarding":0,"routes":[{"route_id":"8576","agency_id":"7057","route_short_name":"Blue","route_long_name":"ACT Blue","route_type":3,"route_color":"#1F77B4","route_text_color":"#FFFFFF"}],"agency_name":"Alhambra Community Transit (ACT)"},"geometry":{"type":"Point","coordinates":[-118.152315,34.069541]}},{"type":"Feature","properties":{"stop_id":"208729","stop_name":"Hellman Ave / Marguerita Ave","wheelchair_boarding":0,"routes":[{"route_id":"8576","agency_id":"7057","route_short_name":"Blue","route_long_name":"ACT Blue","route_type":3,"route_color":"#1F77B4","route_text_color":"#FFFFFF"}],"agency_name":"Alhambra Community Transit (ACT)"},"geometry":{"type":"Point","coordinates":[-118.137843,34.069669]}},{"type":"Feature","properties":{"stop_id":"208763","stop_name":"Hellman Ave / Marguerita Ave","wheelchair_boarding":0,"routes":[{"route_id":"8576","agency_id":"7057","route_short_name":"Blue","route_long_name":"ACT Blue","route_type":3,"route_color":"#1F77B4","route_text_color":"#FFFFFF"}],"agency_name":"Alhambra Community Transit (ACT)"},"geometry":{"type":"Point","coordinates":[-118.138385,34.069781]}},{"type":"Feature","properties":{"stop_id":"208765","stop_name":"Hellman Ave / Ramona Rd","wheelchair_boarding":0,"routes":[{"route_id":"8576","agency_id":"7057","route_short_name":"Blue","route_long_name":"ACT Blue","route_type":3,"route_color":"#1F77B4","route_text_color":"#FFFFFF"}],"agency_name":"Alhambra Community Transit (ACT)"},"geometry":{"type":"Point","coordinates":[-118.147441,34.069729]}},{"type":"Feature","properties":{"stop_id":"208761","stop_name":"Hellman Ave / Seventh St","wheelchair_boarding":0,"routes":[{"route_id":"8576","agency_id":"7057","route_short_name":"Blue","route_long_name":"ACT Blue","route_type":3,"route_color":"#1F77B4","route_text_color":"#FFFFFF"}],"agency_name":"Alhambra Community Transit (ACT)"},"geometry":{"type":"Point","coordinates":[-118.1303303,34.06982176]}},{"type":"Feature","properties":{"stop_id":"208725","stop_code":"3004","stop_name":"Hellman Ave / Westboro Ave (EB)","wheelchair_boarding":0,"routes":[{"route_id":"8576","agency_id":"7057","route_short_name":"Blue","route_long_name":"ACT Blue","route_type":3,"route_color":"#1F77B4","route_text_color":"#FFFFFF"}],"agency_name":"Alhambra Community Transit (ACT)"},"geometry":{"type":"Point","coordinates":[-118.158034,34.06957]}},{"type":"Feature","properties":{"stop_id":"209798","stop_code":"4033","stop_name":"Hellman Ave / Westboro Ave (WB)","wheelchair_boarding":0,"routes":[{"route_id":"8576","agency_id":"7057","route_short_name":"Blue","route_long_name":"ACT Blue","route_type":3,"route_color":"#1F77B4","route_text_color":"#FFFFFF"}],"agency_name":"Alhambra Community Transit (ACT)"},"geometry":{"type":"Point","coordinates":[-118.157785,34.069727]}},{"type":"Feature","properties":{"stop_id":"208748","stop_name":"Main St / Almansor St (CCW)","wheelchair_boarding":0,"routes":[{"route_id":"8579","agency_id":"7057","route_short_name":"Green","route_long_name":"ACT Counterclockwise","route_type":3,"route_color":"#31A354","route_text_color":"#FFFFFF"}],"agency_name":"Alhambra Community Transit (ACT)"},"geometry":{"type":"Point","coordinates":[-118.121417,34.097844]}},{"type":"Feature","properties":{"stop_id":"223234","stop_name":"Main St / Almansor St (CW)","wheelchair_boarding":0,"routes":[{"route_id":"8575","agency_id":"7057","route_short_name":"Green","route_long_name":"ACT Green Clockwise","route_type":3,"route_color":"#2CA02C","route_text_color":"#FFFFFF"}],"agency_name":"Alhambra Community Transit (ACT)"},"geometry":{"type":"Point","coordinates":[-118.1207728,34.09789288]}},{"type":"Feature","properties":{"stop_id":"208701","stop_code":"1010","stop_name":"Main St / Atlantic Blvd (CCW)","wheelchair_boarding":0,"routes":[{"route_id":"8579","agency_id":"7057","route_short_name":"Green","route_long_name":"ACT Counterclockwise","route_type":3,"route_color":"#31A354","route_text_color":"#FFFFFF"}],"agency_name":"Alhambra Community Transit (ACT)"},"geometry":{"type":"Point","coordinates":[-118.134314,34.091804]}},{"type":"Feature","properties":{"stop_id":"211410","stop_code":"2048","stop_name":"Main St / Atlantic Blvd (CW)","wheelchair_boarding":0,"routes":[{"route_id":"8575","agency_id":"7057","route_short_name":"Green","route_long_name":"ACT Green Clockwise","route_type":3,"route_color":"#2CA02C","route_text_color":"#FFFFFF"}],"agency_name":"Alhambra Community Transit (ACT)"},"geometry":{"type":"Point","coordinates":[-118.13485,34.09151]}},{"type":"Feature","properties":{"stop_id":"208697","stop_code":"1005","stop_name":"Main St / Chapel Ave (CCW)","wheelchair_boarding":0,"routes":[{"route_id":"8579","agency_id":"7057","route_short_name":"Green","route_long_name":"ACT Counterclockwise","route_type":3,"route_color":"#31A354","route_text_color":"#FFFFFF"}],"agency_name":"Alhambra Community Transit (ACT)"},"geometry":{"type":"Point","coordinates":[-118.124045,34.096584]}},{"type":"Feature","properties":{"stop_id":"211392","stop_code":"2052","stop_name":"Main St / Chapel Ave (CW)","wheelchair_boarding":0,"routes":[{"route_id":"8575","agency_id":"7057","route_short_name":"Green","route_long_name":"ACT Green Clockwise","route_type":3,"route_color":"#2CA02C","route_text_color":"#FFFFFF"}],"agency_name":"Alhambra Community Transit (ACT)"},"geometry":{"type":"Point","coordinates":[-118.12341,34.09663]}},{"type":"Feature","properties":{"stop_id":"220520","stop_name":"Main St / Cordova St","wheelchair_boarding":0,"routes":[{"route_id":"8575","agency_id":"7057","route_short_name":"Green","route_long_name":"ACT Green Clockwise","route_type":3,"route_color":"#2CA02C","route_text_color":"#FFFFFF"}],"agency_name":"Alhambra Community Transit (ACT)"},"geometry":{"type":"Point","coordinates":[-118.1185974,34.09892299]}},{"type":"Feature","properties":{"stop_id":"208702","stop_code":"1011","stop_name":"Main St / Electric Ave (CCW)","wheelchair_boarding":0,"routes":[{"route_id":"8579","agency_id":"7057","route_short_name":"Green","route_long_name":"ACT Counterclockwise","route_type":3,"route_color":"#31A354","route_text_color":"#FFFFFF"}],"agency_name":"Alhambra Community Transit (ACT)"},"geometry":{"type":"Point","coordinates":[-118.139895,34.091658]}},{"type":"Feature","properties":{"stop_id":"211409","stop_code":"2047","stop_name":"Main St / Electric Ave (CW)","wheelchair_boarding":0,"routes":[{"route_id":"8575","agency_id":"7057","route_short_name":"Green","route_long_name":"ACT Green Clockwise","route_type":3,"route_color":"#2CA02C","route_text_color":"#FFFFFF"}],"agency_name":"Alhambra Community Transit (ACT)"},"geometry":{"type":"Point","coordinates":[-118.13933,34.09153]}},{"type":"Feature","properties":{"stop_id":"208700","stop_code":"1009","stop_name":"Main St / Fifth St (CCW)","wheelchair_boarding":0,"routes":[{"route_id":"8579","agency_id":"7057","route_short_name":"Green","route_long_name":"ACT Counterclockwise","route_type":3,"route_color":"#31A354","route_text_color":"#FFFFFF"}],"agency_name":"Alhambra Community Transit (ACT)"},"geometry":{"type":"Point","coordinates":[-118.132459,34.092658]}},{"type":"Feature","properties":{"stop_id":"208698","stop_code":"1007","stop_name":"Main St / Garfield Ave (CCW)","wheelchair_boarding":0,"routes":[{"route_id":"8579","agency_id":"7057","route_short_name":"Green","route_long_name":"ACT Counterclockwise","route_type":3,"route_color":"#31A354","route_text_color":"#FFFFFF"}],"agency_name":"Alhambra Community Transit (ACT)"},"geometry":{"type":"Point","coordinates":[-118.12657,34.09534]}},{"type":"Feature","properties":{"stop_id":"208741","stop_code":"2051","stop_name":"Main St / Garfield Ave (CW)","wheelchair_boarding":0,"routes":[{"route_id":"8575","agency_id":"7057","route_short_name":"Green","route_long_name":"ACT Green Clockwise","route_type":3,"route_color":"#2CA02C","route_text_color":"#FFFFFF"}],"agency_name":"Alhambra Community Transit (ACT)"},"geometry":{"type":"Point","coordinates":[-118.126356,34.095283]}},{"type":"Feature","properties":{"stop_id":"220516","stop_name":"Main St / Granada Ave (CCW)","wheelchair_boarding":0,"routes":[{"route_id":"8579","agency_id":"7057","route_short_name":"Green","route_long_name":"ACT Counterclockwise","route_type":3,"route_color":"#31A354","route_text_color":"#FFFFFF"}],"agency_name":"Alhambra Community Transit (ACT)"},"geometry":{"type":"Point","coordinates":[-118.1183521,34.09932004]}},{"type":"Feature","properties":{"stop_id":"220517","stop_name":"Main St / Hidalgo Ave","wheelchair_boarding":0,"routes":[{"route_id":"8579","agency_id":"7057","route_short_name":"Green","route_long_name":"ACT Counterclockwise","route_type":3,"route_color":"#31A354","route_text_color":"#FFFFFF"}],"agency_name":"Alhambra Community Transit (ACT)"},"geometry":{"type":"Point","coordinates":[-118.1198067,34.09863728]}},{"type":"Feature","properties":{"stop_id":"208703","stop_code":"1012","stop_name":"Main St / Marengo Ave (CCW)","wheelchair_boarding":0,"routes":[{"route_id":"8579","agency_id":"7057","route_short_name":"Green","route_long_name":"ACT Counterclockwise","route_type":3,"route_color":"#31A354","route_text_color":"#FFFFFF"}],"agency_name":"Alhambra Community Transit (ACT)"},"geometry":{"type":"Point","coordinates":[-118.141868,34.091625]}},{"type":"Feature","properties":{"stop_id":"211408","stop_code":"2046","stop_name":"Main St / Marengo Ave (CW)","wheelchair_boarding":0,"routes":[{"route_id":"8575","agency_id":"7057","route_short_name":"Green","route_long_name":"ACT Green Clockwise","route_type":3,"route_color":"#2CA02C","route_text_color":"#FFFFFF"}],"agency_name":"Alhambra Community Transit (ACT)"},"geometry":{"type":"Point","coordinates":[-118.141766,34.091415]}},{"type":"Feature","properties":{"stop_id":"211407","stop_code":"2045","stop_name":"Main St / Raymond Ave","wheelchair_boarding":0,"routes":[{"route_id":"8575","agency_id":"7057","route_short_name":"Green","route_long_name":"ACT Green Clockwise","route_type":3,"route_color":"#2CA02C","route_text_color":"#FFFFFF"}],"agency_name":"Alhambra Community Transit (ACT)"},"geometry":{"type":"Point","coordinates":[-118.144721,34.091394]}},{"type":"Feature","properties":{"stop_id":"208699","stop_code":"1009","stop_name":"Main St / Second St (CCW)","wheelchair_boarding":0,"routes":[{"route_id":"8579","agency_id":"7057","route_short_name":"Green","route_long_name":"ACT Counterclockwise","route_type":3,"route_color":"#31A354","route_text_color":"#FFFFFF"}],"agency_name":"Alhambra Community Transit (ACT)"},"geometry":{"type":"Point","coordinates":[-118.129249,34.094163]}},{"type":"Feature","properties":{"stop_id":"211393","stop_code":"2050","stop_name":"Main St / Second St (CW)","wheelchair_boarding":0,"routes":[{"route_id":"8575","agency_id":"7057","route_short_name":"Green","route_long_name":"ACT Green Clockwise","route_type":3,"route_color":"#2CA02C","route_text_color":"#FFFFFF"}],"agency_name":"Alhambra Community Transit (ACT)"},"geometry":{"type":"Point","coordinates":[-118.12859,34.09428]}},{"type":"Feature","properties":{"stop_id":"211411","stop_code":"2049","stop_name":"Main St / Third St (CW)","wheelchair_boarding":0,"routes":[{"route_id":"8575","agency_id":"7057","route_short_name":"Green","route_long_name":"ACT Green Clockwise","route_type":3,"route_color":"#2CA02C","route_text_color":"#FFFFFF"}],"agency_name":"Alhambra Community Transit (ACT)"},"geometry":{"type":"Point","coordinates":[-118.1304,34.09348]}},{"type":"Feature","properties":{"stop_id":"208705","stop_code":"1014","stop_name":"Palm Ave / Commonwealth Ave (CCW)","wheelchair_boarding":0,"routes":[{"route_id":"8579","agency_id":"7057","route_short_name":"Green","route_long_name":"ACT Counterclockwise","route_type":3,"route_color":"#31A354","route_text_color":"#FFFFFF"}],"agency_name":"Alhambra Community Transit (ACT)"},"geometry":{"type":"Point","coordinates":[-118.146728,34.088147]}},{"type":"Feature","properties":{"stop_id":"208704","stop_code":"1013","stop_name":"Palm Ave / Main St (CCW)","wheelchair_boarding":0,"routes":[{"route_id":"8579","agency_id":"7057","route_short_name":"Green","route_long_name":"ACT Counterclockwise","route_type":3,"route_color":"#31A354","route_text_color":"#FFFFFF"}],"agency_name":"Alhambra Community Transit (ACT)"},"geometry":{"type":"Point","coordinates":[-118.145958,34.091093]}},{"type":"Feature","properties":{"stop_id":"209795","stop_code":"4034","stop_name":"Paseo Rancho Castilla / Mariondale Ave (WB)","wheelchair_boarding":0,"routes":[{"route_id":"8576","agency_id":"7057","route_short_name":"Blue","route_long_name":"ACT Blue","route_type":3,"route_color":"#1F77B4","route_text_color":"#FFFFFF"}],"agency_name":"Alhambra Community Transit (ACT)"},"geometry":{"type":"Point","coordinates":[-118.164791,34.071109]}},{"type":"Feature","properties":{"stop_id":"208721","stop_name":"Poplar Blvd / Main St","wheelchair_boarding":0,"routes":[{"route_id":"8575","agency_id":"7057","route_short_name":"Green","route_long_name":"ACT Green Clockwise","route_type":3,"route_color":"#2CA02C","route_text_color":"#FFFFFF"}],"agency_name":"Alhambra Community Transit (ACT)"},"geometry":{"type":"Point","coordinates":[-118.147677,34.091843]}},{"type":"Feature","properties":{"stop_id":"209803","stop_code":"4035","stop_name":"Rancho Castilla Student Union Cal State LA (WB)","wheelchair_boarding":0,"routes":[{"route_id":"8576","agency_id":"7057","route_short_name":"Blue","route_long_name":"ACT Blue","route_type":3,"route_color":"#1F77B4","route_text_color":"#FFFFFF"}],"agency_name":"Alhambra Community Transit (ACT)"},"geometry":{"type":"Point","coordinates":[-118.169639,34.06794]}},{"type":"Feature","properties":{"stop_id":"211387","stop_name":"Shorb St / Granada Ave (CCW)","wheelchair_boarding":0,"routes":[{"route_id":"8579","agency_id":"7057","route_short_name":"Green","route_long_name":"ACT Counterclockwise","route_type":3,"route_color":"#31A354","route_text_color":"#FFFFFF"}],"agency_name":"Alhambra Community Transit (ACT)"},"geometry":{"type":"Point","coordinates":[-118.1139549,34.0809858]}},{"type":"Feature","properties":{"stop_id":"208693","stop_code":"1002","stop_name":"Shorb St / Granada Ave (CW)","wheelchair_boarding":0,"routes":[{"route_id":"8575","agency_id":"7057","route_short_name":"Green","route_long_name":"ACT Green Clockwise","route_type":3,"route_color":"#2CA02C","route_text_color":"#FFFFFF"}],"agency_name":"Alhambra Community Transit (ACT)"},"geometry":{"type":"Point","coordinates":[-118.113955,34.080817]}},{"type":"Feature","properties":{"stop_id":"208718","stop_code":"1027","stop_name":"Valley Blvd / Almansor St (CCW)","wheelchair_boarding":0,"routes":[{"route_id":"8579","agency_id":"7057","route_short_name":"Green","route_long_name":"ACT Counterclockwise","route_type":3,"route_color":"#31A354","route_text_color":"#FFFFFF"}],"agency_name":"Alhambra Community Transit (ACT)"},"geometry":{"type":"Point","coordinates":[-118.11658,34.07885]}},{"type":"Feature","properties":{"stop_id":"211396","stop_code":"2031","stop_name":"Valley Blvd / Almansor St (CW)","wheelchair_boarding":0,"routes":[{"route_id":"8575","agency_id":"7057","route_short_name":"Green","route_long_name":"ACT Green Clockwise","route_type":3,"route_color":"#2CA02C","route_text_color":"#FFFFFF"}],"agency_name":"Alhambra Community Transit (ACT)"},"geometry":{"type":"Point","coordinates":[-118.11745,34.07897]}},{"type":"Feature","properties":{"stop_id":"211400","stop_code":"1023","stop_name":"Valley Blvd / Atlantic Blvd (CCW)","wheelchair_boarding":0,"routes":[{"route_id":"8579","agency_id":"7057","route_short_name":"Green","route_long_name":"ACT Counterclockwise","route_type":3,"route_color":"#31A354","route_text_color":"#FFFFFF"}],"agency_name":"Alhambra Community Transit (ACT)"},"geometry":{"type":"Point","coordinates":[-118.134074,34.077818]}},{"type":"Feature","properties":{"stop_id":"208714","stop_code":"2035","stop_name":"Valley Blvd / Atlantic Blvd (CW)","wheelchair_boarding":0,"routes":[{"route_id":"8575","agency_id":"7057","route_short_name":"Green","route_long_name":"ACT Green Clockwise","route_type":3,"route_color":"#2CA02C","route_text_color":"#FFFFFF"}],"agency_name":"Alhambra Community Transit (ACT)"},"geometry":{"type":"Point","coordinates":[-118.134984,34.078017]}},{"type":"Feature","properties":{"stop_id":"208710","stop_code":"1019","stop_name":"Valley Blvd / Edgewood Dr (CCW)","wheelchair_boarding":0,"routes":[{"route_id":"8579","agency_id":"7057","route_short_name":"Green","route_long_name":"ACT Counterclockwise","route_type":3,"route_color":"#31A354","route_text_color":"#FFFFFF"}],"agency_name":"Alhambra Community Transit (ACT)"},"geometry":{"type":"Point","coordinates":[-118.148346,34.076995]}},{"type":"Feature","properties":{"stop_id":"211404","stop_code":"2039","stop_name":"Valley Blvd / Edgewood Dr (CW)","wheelchair_boarding":0,"routes":[{"route_id":"8575","agency_id":"7057","route_short_name":"Green","route_long_name":"ACT Green Clockwise","route_type":3,"route_color":"#2CA02C","route_text_color":"#FFFFFF"}],"agency_name":"Alhambra Community Transit (ACT)"},"geometry":{"type":"Point","coordinates":[-118.149047,34.077177]}},{"type":"Feature","properties":{"stop_id":"208716","stop_code":"1025","stop_name":"Valley Blvd / Fourth St (CCW)","wheelchair_boarding":0,"routes":[{"route_id":"8579","agency_id":"7057","route_short_name":"Green","route_long_name":"ACT Counterclockwise","route_type":3,"route_color":"#31A354","route_text_color":"#FFFFFF"}],"agency_name":"Alhambra Community Transit (ACT)"},"geometry":{"type":"Point","coordinates":[-118.126376,34.078253]}},{"type":"Feature","properties":{"stop_id":"211398","stop_code":"2033","stop_name":"Valley Blvd / Fourth St (CW)","wheelchair_boarding":0,"routes":[{"route_id":"8575","agency_id":"7057","route_short_name":"Green","route_long_name":"ACT Green Clockwise","route_type":3,"route_color":"#2CA02C","route_text_color":"#FFFFFF"}],"agency_name":"Alhambra Community Transit (ACT)"},"geometry":{"type":"Point","coordinates":[-118.127068,34.078461]}},{"type":"Feature","properties":{"stop_id":"208709","stop_code":"1018","stop_name":"Valley Blvd / Fremont Ave (CCW)","wheelchair_boarding":0,"routes":[{"route_id":"8579","agency_id":"7057","route_short_name":"Green","route_long_name":"ACT Counterclockwise","route_type":3,"route_color":"#31A354","route_text_color":"#FFFFFF"}],"agency_name":"Alhambra Community Transit (ACT)"},"geometry":{"type":"Point","coordinates":[-118.15106,34.076832]}},{"type":"Feature","properties":{"stop_id":"208717","stop_code":"1026","stop_name":"Valley Blvd / Garfield Ave (CCW)","wheelchair_boarding":0,"routes":[{"route_id":"8579","agency_id":"7057","route_short_name":"Green","route_long_name":"ACT Counterclockwise","route_type":3,"route_color":"#31A354","route_text_color":"#FFFFFF"}],"agency_name":"Alhambra Community Transit (ACT)"},"geometry":{"type":"Point","coordinates":[-118.122754,34.078464]}},{"type":"Feature","properties":{"stop_id":"211397","stop_code":"2032","stop_name":"Valley Blvd / Garfield Ave (CW)","wheelchair_boarding":0,"routes":[{"route_id":"8575","agency_id":"7057","route_short_name":"Green","route_long_name":"ACT Green Clockwise","route_type":3,"route_color":"#2CA02C","route_text_color":"#FFFFFF"}],"agency_name":"Alhambra Community Transit (ACT)"},"geometry":{"type":"Point","coordinates":[-118.123285,34.078688]}},{"type":"Feature","properties":{"stop_id":"208719","stop_code":"1028","stop_name":"Valley Blvd / Granada Ave (CCW)","wheelchair_boarding":0,"routes":[{"route_id":"8579","agency_id":"7057","route_short_name":"Green","route_long_name":"ACT Counterclockwise","route_type":3,"route_color":"#31A354","route_text_color":"#FFFFFF"}],"agency_name":"Alhambra Community Transit (ACT)"},"geometry":{"type":"Point","coordinates":[-118.113723,34.07902018]}},{"type":"Feature","properties":{"stop_id":"211395","stop_code":"2030","stop_name":"Valley Blvd / Granada Ave (CW)","wheelchair_boarding":0,"routes":[{"route_id":"8575","agency_id":"7057","route_short_name":"Green","route_long_name":"ACT Green Clockwise","route_type":3,"route_color":"#2CA02C","route_text_color":"#FFFFFF"}],"agency_name":"Alhambra Community Transit (ACT)"},"geometry":{"type":"Point","coordinates":[-118.11402,34.07914]}},{"type":"Feature","properties":{"stop_id":"208712","stop_code":"1021","stop_name":"Valley Blvd / Marengo Ave (CCW)","wheelchair_boarding":0,"routes":[{"route_id":"8579","agency_id":"7057","route_short_name":"Green","route_long_name":"ACT Counterclockwise","route_type":3,"route_color":"#31A354","route_text_color":"#FFFFFF"}],"agency_name":"Alhambra Community Transit (ACT)"},"geometry":{"type":"Point","coordinates":[-118.141541,34.077374]}},{"type":"Feature","properties":{"stop_id":"211394","stop_code":"2037","stop_name":"Valley Blvd / Marengo Ave (CW)","wheelchair_boarding":0,"routes":[{"route_id":"8575","agency_id":"7057","route_short_name":"Green","route_long_name":"ACT Green Clockwise","route_type":3,"route_color":"#2CA02C","route_text_color":"#FFFFFF"}],"agency_name":"Alhambra Community Transit (ACT)"},"geometry":{"type":"Point","coordinates":[-118.142105,34.0776]}},{"type":"Feature","properties":{"stop_id":"208713","stop_code":"1022","stop_name":"Valley Blvd / Marguerita Ave (CCW)","wheelchair_boarding":0,"routes":[{"route_id":"8579","agency_id":"7057","route_short_name":"Green","route_long_name":"ACT Counterclockwise","route_type":3,"route_color":"#31A354","route_text_color":"#FFFFFF"}],"agency_name":"Alhambra Community Transit (ACT)"},"geometry":{"type":"Point","coordinates":[-118.137902,34.0776]}},{"type":"Feature","properties":{"stop_id":"211401","stop_code":"2036","stop_name":"Valley Blvd / Marguerita Ave (CW)","wheelchair_boarding":0,"routes":[{"route_id":"8575","agency_id":"7057","route_short_name":"Green","route_long_name":"ACT Green Clockwise","route_type":3,"route_color":"#2CA02C","route_text_color":"#FFFFFF"}],"agency_name":"Alhambra Community Transit (ACT)"},"geometry":{"type":"Point","coordinates":[-118.138421,34.077809]}},{"type":"Feature","properties":{"stop_id":"208711","stop_code":"1020","stop_name":"Valley Blvd / Raymond Ave (CCW)","wheelchair_boarding":0,"routes":[{"route_id":"8579","agency_id":"7057","route_short_name":"Green","route_long_name":"ACT Counterclockwise","route_type":3,"route_color":"#31A354","route_text_color":"#FFFFFF"}],"agency_name":"Alhambra Community Transit (ACT)"},"geometry":{"type":"Point","coordinates":[-118.145152,34.077181]}},{"type":"Feature","properties":{"stop_id":"211403","stop_code":"2038","stop_name":"Valley Blvd / Raymond Ave (CW)","wheelchair_boarding":0,"routes":[{"route_id":"8575","agency_id":"7057","route_short_name":"Green","route_long_name":"ACT Green Clockwise","route_type":3,"route_color":"#2CA02C","route_text_color":"#FFFFFF"}],"agency_name":"Alhambra Community Transit (ACT)"},"geometry":{"type":"Point","coordinates":[-118.145759,34.077373]}},{"type":"Feature","properties":{"stop_id":"208715","stop_code":"1024","stop_name":"Valley Blvd / Sixth St (CCW)","wheelchair_boarding":0,"routes":[{"route_id":"8579","agency_id":"7057","route_short_name":"Green","route_long_name":"ACT Counterclockwise","route_type":3,"route_color":"#31A354","route_text_color":"#FFFFFF"}],"agency_name":"Alhambra Community Transit (ACT)"},"geometry":{"type":"Point","coordinates":[-118.129072,34.078116]}},{"type":"Feature","properties":{"stop_id":"211399","stop_code":"2034","stop_name":"Valley Blvd / Sixth St (CW)","wheelchair_boarding":0,"routes":[{"route_id":"8575","agency_id":"7057","route_short_name":"Green","route_long_name":"ACT Green Clockwise","route_type":3,"route_color":"#2CA02C","route_text_color":"#FFFFFF"}],"agency_name":"Alhambra Community Transit (ACT)"},"geometry":{"type":"Point","coordinates":[-118.129674,34.078316]}},{"type":"Feature","properties":{"stop_id":"211388","stop_code":"2029","stop_name":"Valley Blvd / Vega St (CW)","wheelchair_boarding":0,"routes":[{"route_id":"8575","agency_id":"7057","route_short_name":"Green","route_long_name":"ACT Green Clockwise","route_type":3,"route_color":"#2CA02C","route_text_color":"#FFFFFF"}],"agency_name":"Alhambra Community Transit (ACT)"},"geometry":{"type":"Point","coordinates":[-118.1116,34.07925]}},{"type":"Feature","properties":{"stop_id":"208692","stop_code":"1001","stop_name":"Vega St / Valley Blvd","wheelchair_boarding":0,"routes":[{"route_id":"8579","agency_id":"7057","route_short_name":"Green","route_long_name":"ACT Counterclockwise","route_type":3,"route_color":"#31A354","route_text_color":"#FFFFFF"}],"agency_name":"Alhambra Community Transit (ACT)"},"geometry":{"type":"Point","coordinates":[-118.11131,34.07941]}},{"type":"Feature","properties":{"stop_id":"209786","stop_code":"3017","stop_name":"Woodward Ave / Garfield Ave (EB)","wheelchair_boarding":0,"routes":[{"route_id":"8576","agency_id":"7057","route_short_name":"Blue","route_long_name":"ACT Blue","route_type":3,"route_color":"#1F77B4","route_text_color":"#FFFFFF"}],"agency_name":"Alhambra Community Transit (ACT)"},"geometry":{"type":"Point","coordinates":[-118.1283,34.09776]}}]}