{"type":"FeatureCollection","features":[{"type":"Feature","properties":{"stop_id":"133454","stop_name":"Arboretum (parking/main entrance)","wheelchair_boarding":0,"routes":[{"route_id":"4404","agency_id":"3304","route_long_name":"Green Route","route_type":3,"route_color":"#016C38","route_text_color":"#FFFFFF"}],"agency_name":"City of Arcadia"},"geometry":{"type":"Point","coordinates":[-118.05129,34.1437]}},{"type":"Feature","properties":{"stop_id":"133451","stop_name":"City Hall","wheelchair_boarding":0,"routes":[{"route_id":"4404","agency_id":"3304","route_long_name":"Green Route","route_type":3,"route_color":"#016C38","route_text_color":"#FFFFFF"}],"agency_name":"City of Arcadia"},"geometry":{"type":"Point","coordinates":[-118.03881,34.13796]}},{"type":"Feature","properties":{"stop_id":"133441","stop_name":"Dana Middle School (@ Altern) SB","wheelchair_boarding":0,"routes":[{"route_id":"4403","agency_id":"3304","route_long_name":"Red Route","route_type":3,"route_color":"#C01F25","route_text_color":"#FFFFFF"}],"agency_name":"City of Arcadia"},"geometry":{"type":"Point","coordinates":[-118.028087419,34.124440389]}},{"type":"Feature","properties":{"stop_id":"133383","stop_name":"Duarte & El Monte (West of El Monte) EB","wheelchair_boarding":0,"routes":[{"route_id":"4402","agency_id":"3304","route_long_name":"Blue Route","route_type":3,"route_color":"#1F3763","route_text_color":"#FFFFFF"}],"agency_name":"City of Arcadia"},"geometry":{"type":"Point","coordinates":[-118.03894,34.12834]}},{"type":"Feature","properties":{"stop_id":"133382","stop_name":"Duarte & Holly EB","wheelchair_boarding":0,"routes":[{"route_id":"4402","agency_id":"3304","route_long_name":"Blue Route","route_type":3,"route_color":"#1F3763","route_text_color":"#FFFFFF"}],"agency_name":"City of Arcadia"},"geometry":{"type":"Point","coordinates":[-118.04557,34.12738]}},{"type":"Feature","properties":{"stop_id":"133399","stop_name":"Duarte & Holly WB","wheelchair_boarding":0,"routes":[{"route_id":"4402","agency_id":"3304","route_long_name":"Blue Route","route_type":3,"route_color":"#1F3763","route_text_color":"#FFFFFF"}],"agency_name":"City of Arcadia"},"geometry":{"type":"Point","coordinates":[-118.04611,34.1274]}},{"type":"Feature","properties":{"stop_id":"133400","stop_name":"Duarte & La Cadena WB","wheelchair_boarding":0,"routes":[{"route_id":"4402","agency_id":"3304","route_long_name":"Blue Route","route_type":3,"route_color":"#1F3763","route_text_color":"#FFFFFF"}],"agency_name":"City of Arcadia"},"geometry":{"type":"Point","coordinates":[-118.04976,34.12688]}},{"type":"Feature","properties":{"stop_id":"133381","stop_name":"Duarte & Lovell EB","wheelchair_boarding":0,"routes":[{"route_id":"4402","agency_id":"3304","route_long_name":"Blue Route","route_type":3,"route_color":"#1F3763","route_text_color":"#FFFFFF"}],"agency_name":"City of Arcadia"},"geometry":{"type":"Point","coordinates":[-118.05147,34.12651]}},{"type":"Feature","properties":{"stop_id":"133401","stop_name":"Duarte & Lovell WB","wheelchair_boarding":0,"routes":[{"route_id":"4402","agency_id":"3304","route_long_name":"Blue Route","route_type":3,"route_color":"#1F3763","route_text_color":"#FFFFFF"}],"agency_name":"City of Arcadia"},"geometry":{"type":"Point","coordinates":[-118.05179,34.12659]}},{"type":"Feature","properties":{"stop_id":"133402","stop_name":"E/O Baldwin WB","wheelchair_boarding":0,"routes":[{"route_id":"4402","agency_id":"3304","route_long_name":"Blue Route","route_type":3,"route_color":"#1F3763","route_text_color":"#FFFFFF"}],"agency_name":"City of Arcadia"},"geometry":{"type":"Point","coordinates":[-118.054623394,34.126197831]}},{"type":"Feature","properties":{"stop_id":"133432","stop_name":"E/O Sycamore near the wash EB","wheelchair_boarding":0,"routes":[{"route_id":"4403","agency_id":"3304","route_long_name":"Red Route","route_type":3,"route_color":"#C01F25","route_text_color":"#FFFFFF"}],"agency_name":"City of Arcadia"},"geometry":{"type":"Point","coordinates":[-118.02834,34.15279]}},{"type":"Feature","properties":{"stop_id":"133442","stop_name":"East of 1st Ave (south side of Camino Real) EB","wheelchair_boarding":0,"routes":[{"route_id":"4403","agency_id":"3304","route_long_name":"Red Route","route_type":3,"route_color":"#C01F25","route_text_color":"#FFFFFF"}],"agency_name":"City of Arcadia"},"geometry":{"type":"Point","coordinates":[-118.027694888,34.121795463]}},{"type":"Feature","properties":{"stop_id":"133423","stop_name":"East of 1st Ave WB","wheelchair_boarding":0,"routes":[{"route_id":"4403","agency_id":"3304","route_long_name":"Red Route","route_type":3,"route_color":"#C01F25","route_text_color":"#FFFFFF"}],"agency_name":"City of Arcadia"},"geometry":{"type":"Point","coordinates":[-118.027637,34.12191]}},{"type":"Feature","properties":{"stop_id":"133411","stop_name":"East of El Monte EB","wheelchair_boarding":0,"routes":[{"route_id":"4402","agency_id":"3304","route_long_name":"Blue Route","route_type":3,"route_color":"#1F3763","route_text_color":"#FFFFFF"}],"agency_name":"City of Arcadia"},"geometry":{"type":"Point","coordinates":[-118.0379,34.10761]}},{"type":"Feature","properties":{"stop_id":"133398","stop_name":"East of El Monte WB","wheelchair_boarding":0,"routes":[{"route_id":"4402","agency_id":"3304","route_long_name":"Blue Route","route_type":3,"route_color":"#1F3763","route_text_color":"#FFFFFF"}],"agency_name":"City of Arcadia"},"geometry":{"type":"Point","coordinates":[-118.03844,34.12851]}},{"type":"Feature","properties":{"stop_id":"133409","stop_name":"East of Holly EB","wheelchair_boarding":0,"routes":[{"route_id":"4402","agency_id":"3304","route_long_name":"Blue Route","route_type":3,"route_color":"#1F3763","route_text_color":"#FFFFFF"}],"agency_name":"City of Arcadia"},"geometry":{"type":"Point","coordinates":[-118.04513,34.10752]}},{"type":"Feature","properties":{"stop_id":"133410","stop_name":"East of Warren EB","wheelchair_boarding":0,"routes":[{"route_id":"4402","agency_id":"3304","route_long_name":"Blue Route","route_type":3,"route_color":"#1F3763","route_text_color":"#FFFFFF"}],"agency_name":"City of Arcadia"},"geometry":{"type":"Point","coordinates":[-118.04241,34.10757]}},{"type":"Feature","properties":{"stop_id":"133371","stop_name":"East of Warren WB","wheelchair_boarding":0,"routes":[{"route_id":"4402","agency_id":"3304","route_long_name":"Blue Route","route_type":3,"route_color":"#1F3763","route_text_color":"#FFFFFF"}],"agency_name":"City of Arcadia"},"geometry":{"type":"Point","coordinates":[-118.04239,34.10775]}},{"type":"Feature","properties":{"stop_id":"133421","stop_name":"EB Camino Real @ 2nd","wheelchair_boarding":0,"routes":[{"route_id":"4403","agency_id":"3304","route_long_name":"Red Route","route_type":3,"route_color":"#C01F25","route_text_color":"#FFFFFF"}],"agency_name":"City of Arcadia"},"geometry":{"type":"Point","coordinates":[-118.01864,34.12174]}},{"type":"Feature","properties":{"stop_id":"133412","stop_name":"EB Live Oak @ Santa Anita","wheelchair_boarding":0,"routes":[{"route_id":"4402","agency_id":"3304","route_long_name":"Blue Route","route_type":3,"route_color":"#1F3763","route_text_color":"#FFFFFF"},{"route_id":"4403","agency_id":"3304","route_long_name":"Red Route","route_type":3,"route_color":"#C01F25","route_text_color":"#FFFFFF"}],"agency_name":"City of Arcadia"},"geometry":{"type":"Point","coordinates":[-118.03035,34.1073]}},{"type":"Feature","properties":{"stop_id":"133438","stop_name":"First Ave Middle School/ S/O California SB","wheelchair_boarding":0,"routes":[{"route_id":"4403","agency_id":"3304","route_long_name":"Red Route","route_type":3,"route_color":"#C01F25","route_text_color":"#FFFFFF"}],"agency_name":"City of Arcadia"},"geometry":{"type":"Point","coordinates":[-118.028176223,34.128514758]}},{"type":"Feature","properties":{"stop_id":"133426","stop_name":"First Ave Middle School/N of Diamond NB","wheelchair_boarding":0,"routes":[{"route_id":"4403","agency_id":"3304","route_long_name":"Red Route","route_type":3,"route_color":"#C01F25","route_text_color":"#FFFFFF"}],"agency_name":"City of Arcadia"},"geometry":{"type":"Point","coordinates":[-118.028231925,34.135859455]}},{"type":"Feature","properties":{"stop_id":"133457","stop_name":"Hospital @ Police","wheelchair_boarding":0,"routes":[{"route_id":"4404","agency_id":"3304","route_long_name":"Green Route","route_type":3,"route_color":"#016C38","route_text_color":"#FFFFFF"}],"agency_name":"City of Arcadia"},"geometry":{"type":"Point","coordinates":[-118.041039884,34.133922342]}},{"type":"Feature","properties":{"stop_id":"133455","stop_name":"Huntington @ Baldwin","wheelchair_boarding":0,"routes":[{"route_id":"4404","agency_id":"3304","route_long_name":"Green Route","route_type":3,"route_color":"#016C38","route_text_color":"#FFFFFF"}],"agency_name":"City of Arcadia"},"geometry":{"type":"Point","coordinates":[-118.054479361,34.134230864]}},{"type":"Feature","properties":{"stop_id":"133388","stop_name":"Huntington & Santa Anita EB","wheelchair_boarding":0,"routes":[{"route_id":"4402","agency_id":"3304","route_long_name":"Blue Route","route_type":3,"route_color":"#1F3763","route_text_color":"#FFFFFF"}],"agency_name":"City of Arcadia"},"geometry":{"type":"Point","coordinates":[-118.03102,34.13993]}},{"type":"Feature","properties":{"stop_id":"133456","stop_name":"Huntington D @ E of Holly Ave (Community Center)","wheelchair_boarding":0,"routes":[{"route_id":"4404","agency_id":"3304","route_long_name":"Green Route","route_type":3,"route_color":"#016C38","route_text_color":"#FFFFFF"}],"agency_name":"City of Arcadia"},"geometry":{"type":"Point","coordinates":[-118.04397,34.13181]}},{"type":"Feature","properties":{"stop_id":"133458","stop_name":"Huntington Dr @ Police","wheelchair_boarding":0,"routes":[{"route_id":"4404","agency_id":"3304","route_long_name":"Green Route","route_type":3,"route_color":"#016C38","route_text_color":"#FFFFFF"}],"agency_name":"City of Arcadia"},"geometry":{"type":"Point","coordinates":[-118.039260443,34.135850583]}},{"type":"Feature","properties":{"stop_id":"133520","stop_name":"Huntington Dr @ W of Holly Ave","wheelchair_boarding":0,"routes":[{"route_id":"4404","agency_id":"3304","route_long_name":"Green Route","route_type":3,"route_color":"#016C38","route_text_color":"#FFFFFF"}],"agency_name":"City of Arcadia"},"geometry":{"type":"Point","coordinates":[-118.04652,34.13183]}},{"type":"Feature","properties":{"stop_id":"133369","stop_name":"Las Tunas West of Live Oak WB","wheelchair_boarding":0,"routes":[{"route_id":"4402","agency_id":"3304","route_long_name":"Blue Route","route_type":3,"route_color":"#1F3763","route_text_color":"#FFFFFF"}],"agency_name":"City of Arcadia"},"geometry":{"type":"Point","coordinates":[-118.032301193,34.107475688]}},{"type":"Feature","properties":{"stop_id":"133448","stop_name":"Live Oak & 2nd Ave WB","wheelchair_boarding":0,"routes":[{"route_id":"4403","agency_id":"3304","route_long_name":"Red Route","route_type":3,"route_color":"#C01F25","route_text_color":"#FFFFFF"}],"agency_name":"City of Arcadia"},"geometry":{"type":"Point","coordinates":[-118.02430551,34.108359008]}},{"type":"Feature","properties":{"stop_id":"133447","stop_name":"Live Oak & 4th Ave WB","wheelchair_boarding":0,"routes":[{"route_id":"4403","agency_id":"3304","route_long_name":"Red Route","route_type":3,"route_color":"#C01F25","route_text_color":"#FFFFFF"}],"agency_name":"City of Arcadia"},"geometry":{"type":"Point","coordinates":[-118.021477644,34.108770745]}},{"type":"Feature","properties":{"stop_id":"133416","stop_name":"Live Oak & Farna EB","wheelchair_boarding":0,"routes":[{"route_id":"4403","agency_id":"3304","route_long_name":"Red Route","route_type":3,"route_color":"#C01F25","route_text_color":"#FFFFFF"}],"agency_name":"City of Arcadia"},"geometry":{"type":"Point","coordinates":[-118.02182,34.10852]}},{"type":"Feature","properties":{"stop_id":"133449","stop_name":"Live Oak & Greenfield WB","wheelchair_boarding":0,"routes":[{"route_id":"4403","agency_id":"3304","route_long_name":"Red Route","route_type":3,"route_color":"#C01F25","route_text_color":"#FFFFFF"}],"agency_name":"City of Arcadia"},"geometry":{"type":"Point","coordinates":[-118.026907034,34.107996146]}},{"type":"Feature","properties":{"stop_id":"133414","stop_name":"Live Oak & Myrtus EB","wheelchair_boarding":0,"routes":[{"route_id":"4403","agency_id":"3304","route_long_name":"Red Route","route_type":3,"route_color":"#C01F25","route_text_color":"#FFFFFF"}],"agency_name":"City of Arcadia"},"geometry":{"type":"Point","coordinates":[-118.02764,34.10769]}},{"type":"Feature","properties":{"stop_id":"133415","stop_name":"Live Oak & Tyler EB","wheelchair_boarding":0,"routes":[{"route_id":"4403","agency_id":"3304","route_long_name":"Red Route","route_type":3,"route_color":"#C01F25","route_text_color":"#FFFFFF"}],"agency_name":"City of Arcadia"},"geometry":{"type":"Point","coordinates":[-118.024890103,34.108100376]}},{"type":"Feature","properties":{"stop_id":"133452","stop_name":"Mall Promenade","wheelchair_boarding":0,"routes":[{"route_id":"4404","agency_id":"3304","route_long_name":"Green Route","route_type":3,"route_color":"#016C38","route_text_color":"#FFFFFF"}],"agency_name":"City of Arcadia"},"geometry":{"type":"Point","coordinates":[-118.054146767,34.134361852]}},{"type":"Feature","properties":{"stop_id":"133450","stop_name":"Metro Rail Station (Gold Line)","wheelchair_boarding":0,"routes":[{"route_id":"4404","agency_id":"3304","route_long_name":"Green Route","route_type":3,"route_color":"#016C38","route_text_color":"#FFFFFF"}],"agency_name":"City of Arcadia"},"geometry":{"type":"Point","coordinates":[-118.0293,34.14231]}},{"type":"Feature","properties":{"stop_id":"133427","stop_name":"Metro Rail Station North","wheelchair_boarding":0,"routes":[{"route_id":"4403","agency_id":"3304","route_long_name":"Red Route","route_type":3,"route_color":"#C01F25","route_text_color":"#FFFFFF"}],"agency_name":"City of Arcadia"},"geometry":{"type":"Point","coordinates":[-118.02834915,34.14268725]}},{"type":"Feature","properties":{"stop_id":"133437","stop_name":"Metro Rail Station South","wheelchair_boarding":0,"routes":[{"route_id":"4402","agency_id":"3304","route_long_name":"Blue Route","route_type":3,"route_color":"#1F3763","route_text_color":"#FFFFFF"},{"route_id":"4403","agency_id":"3304","route_long_name":"Red Route","route_type":3,"route_color":"#C01F25","route_text_color":"#FFFFFF"}],"agency_name":"City of Arcadia"},"geometry":{"type":"Point","coordinates":[-118.02847066,34.142874867]}},{"type":"Feature","properties":{"stop_id":"133378","stop_name":"NB Sunset @ Duarte","wheelchair_boarding":0,"routes":[{"route_id":"4402","agency_id":"3304","route_long_name":"Blue Route","route_type":3,"route_color":"#1F3763","route_text_color":"#FFFFFF"}],"agency_name":"City of Arcadia"},"geometry":{"type":"Point","coordinates":[-118.064370926,34.124527738]}},{"type":"Feature","properties":{"stop_id":"133429","stop_name":"North of Colorado NB","wheelchair_boarding":0,"routes":[{"route_id":"4403","agency_id":"3304","route_long_name":"Red Route","route_type":3,"route_color":"#C01F25","route_text_color":"#FFFFFF"}],"agency_name":"City of Arcadia"},"geometry":{"type":"Point","coordinates":[-118.028392095,34.145732201]}},{"type":"Feature","properties":{"stop_id":"133436","stop_name":"North of Colorado SB","wheelchair_boarding":0,"routes":[{"route_id":"4403","agency_id":"3304","route_long_name":"Red Route","route_type":3,"route_color":"#C01F25","route_text_color":"#FFFFFF"}],"agency_name":"City of Arcadia"},"geometry":{"type":"Point","coordinates":[-118.028279022,34.13243922]}},{"type":"Feature","properties":{"stop_id":"133424","stop_name":"North of Duarte and 1st NB","wheelchair_boarding":0,"routes":[{"route_id":"4403","agency_id":"3304","route_long_name":"Red Route","route_type":3,"route_color":"#C01F25","route_text_color":"#FFFFFF"}],"agency_name":"City of Arcadia"},"geometry":{"type":"Point","coordinates":[-118.028121766,34.130198737]}},{"type":"Feature","properties":{"stop_id":"133384","stop_name":"North of Duarte NB","wheelchair_boarding":0,"routes":[{"route_id":"4402","agency_id":"3304","route_long_name":"Blue Route","route_type":3,"route_color":"#1F3763","route_text_color":"#FFFFFF"}],"agency_name":"City of Arcadia"},"geometry":{"type":"Point","coordinates":[-118.03111,34.12988]}},{"type":"Feature","properties":{"stop_id":"133431","stop_name":"North of Foothill NB","wheelchair_boarding":0,"routes":[{"route_id":"4403","agency_id":"3304","route_long_name":"Red Route","route_type":3,"route_color":"#C01F25","route_text_color":"#FFFFFF"}],"agency_name":"City of Arcadia"},"geometry":{"type":"Point","coordinates":[-118.02851694,34.151229158]}},{"type":"Feature","properties":{"stop_id":"133372","stop_name":"North of Las Tunas NB","wheelchair_boarding":0,"routes":[{"route_id":"4402","agency_id":"3304","route_long_name":"Blue Route","route_type":3,"route_color":"#1F3763","route_text_color":"#FFFFFF"}],"agency_name":"City of Arcadia"},"geometry":{"type":"Point","coordinates":[-118.045458159,34.107985296]}},{"type":"Feature","properties":{"stop_id":"133374","stop_name":"North of Lemon NB","wheelchair_boarding":0,"routes":[{"route_id":"4402","agency_id":"3304","route_long_name":"Blue Route","route_type":3,"route_color":"#1F3763","route_text_color":"#FFFFFF"}],"agency_name":"City of Arcadia"},"geometry":{"type":"Point","coordinates":[-118.04565,34.11852]}},{"type":"Feature","properties":{"stop_id":"133417","stop_name":"North of Live Oak NB","wheelchair_boarding":0,"routes":[{"route_id":"4403","agency_id":"3304","route_long_name":"Red Route","route_type":3,"route_color":"#C01F25","route_text_color":"#FFFFFF"}],"agency_name":"City of Arcadia"},"geometry":{"type":"Point","coordinates":[-118.01837,34.10939]}},{"type":"Feature","properties":{"stop_id":"133418","stop_name":"North of Longden and 6th St NB","wheelchair_boarding":0,"routes":[{"route_id":"4403","agency_id":"3304","route_long_name":"Red Route","route_type":3,"route_color":"#C01F25","route_text_color":"#FFFFFF"}],"agency_name":"City of Arcadia"},"geometry":{"type":"Point","coordinates":[-118.01846,34.11459]}},{"type":"Feature","properties":{"stop_id":"133373","stop_name":"North of Longden NB","wheelchair_boarding":0,"routes":[{"route_id":"4402","agency_id":"3304","route_long_name":"Blue Route","route_type":3,"route_color":"#1F3763","route_text_color":"#FFFFFF"}],"agency_name":"City of Arcadia"},"geometry":{"type":"Point","coordinates":[-118.04555,34.11539]}},{"type":"Feature","properties":{"stop_id":"133408","stop_name":"North of Longden SB","wheelchair_boarding":0,"routes":[{"route_id":"4402","agency_id":"3304","route_long_name":"Blue Route","route_type":3,"route_color":"#1F3763","route_text_color":"#FFFFFF"}],"agency_name":"City of Arcadia"},"geometry":{"type":"Point","coordinates":[-118.04571,34.11533]}},{"type":"Feature","properties":{"stop_id":"133519","stop_name":"Race Track","wheelchair_boarding":0,"routes":[{"route_id":"4404","agency_id":"3304","route_long_name":"Green Route","route_type":3,"route_color":"#016C38","route_text_color":"#FFFFFF"}],"agency_name":"City of Arcadia"},"geometry":{"type":"Point","coordinates":[-118.04119,34.13638]}},{"type":"Feature","properties":{"stop_id":"133380","stop_name":"S/O Baldwin Ave EB","wheelchair_boarding":0,"routes":[{"route_id":"4402","agency_id":"3304","route_long_name":"Blue Route","route_type":3,"route_color":"#1F3763","route_text_color":"#FFFFFF"}],"agency_name":"City of Arcadia"},"geometry":{"type":"Point","coordinates":[-118.054609983,34.126071271]}},{"type":"Feature","properties":{"stop_id":"133404","stop_name":"S/O Duarte SB","wheelchair_boarding":0,"routes":[{"route_id":"4402","agency_id":"3304","route_long_name":"Blue Route","route_type":3,"route_color":"#1F3763","route_text_color":"#FFFFFF"}],"agency_name":"City of Arcadia"},"geometry":{"type":"Point","coordinates":[-118.064558681,34.12455438]}},{"type":"Feature","properties":{"stop_id":"133425","stop_name":"S/O Fano NB","wheelchair_boarding":0,"routes":[{"route_id":"4403","agency_id":"3304","route_long_name":"Red Route","route_type":3,"route_color":"#C01F25","route_text_color":"#FFFFFF"}],"agency_name":"City of Arcadia"},"geometry":{"type":"Point","coordinates":[-118.028198223,34.133381447]}},{"type":"Feature","properties":{"stop_id":"133516","stop_name":"S/O Fano SB","wheelchair_boarding":0,"routes":[{"route_id":"4403","agency_id":"3304","route_long_name":"Red Route","route_type":3,"route_color":"#C01F25","route_text_color":"#FFFFFF"}],"agency_name":"City of Arcadia"},"geometry":{"type":"Point","coordinates":[-118.028255404,34.133488185]}},{"type":"Feature","properties":{"stop_id":"133379","stop_name":"S/O Golden Ave EB","wheelchair_boarding":0,"routes":[{"route_id":"4402","agency_id":"3304","route_long_name":"Blue Route","route_type":3,"route_color":"#1F3763","route_text_color":"#FFFFFF"}],"agency_name":"City of Arcadia"},"geometry":{"type":"Point","coordinates":[-118.060274917,34.125233599]}},{"type":"Feature","properties":{"stop_id":"133419","stop_name":"S/O Lemon Ave NB","wheelchair_boarding":0,"routes":[{"route_id":"4403","agency_id":"3304","route_long_name":"Red Route","route_type":3,"route_color":"#C01F25","route_text_color":"#FFFFFF"}],"agency_name":"City of Arcadia"},"geometry":{"type":"Point","coordinates":[-118.018530136,34.119250898]}},{"type":"Feature","properties":{"stop_id":"133444","stop_name":"S/O Lemon Ave SB","wheelchair_boarding":0,"routes":[{"route_id":"4403","agency_id":"3304","route_long_name":"Red Route","route_type":3,"route_color":"#C01F25","route_text_color":"#FFFFFF"}],"agency_name":"City of Arcadia"},"geometry":{"type":"Point","coordinates":[-118.018659618,34.119224481]}},{"type":"Feature","properties":{"stop_id":"133387","stop_name":"Santa Anita & Diamond NB","wheelchair_boarding":0,"routes":[{"route_id":"4402","agency_id":"3304","route_long_name":"Blue Route","route_type":3,"route_color":"#1F3763","route_text_color":"#FFFFFF"}],"agency_name":"City of Arcadia"},"geometry":{"type":"Point","coordinates":[-118.031245777,34.135781994]}},{"type":"Feature","properties":{"stop_id":"133395","stop_name":"Santa Anita & Diamond SB","wheelchair_boarding":0,"routes":[{"route_id":"4402","agency_id":"3304","route_long_name":"Blue Route","route_type":3,"route_color":"#1F3763","route_text_color":"#FFFFFF"}],"agency_name":"City of Arcadia"},"geometry":{"type":"Point","coordinates":[-118.03146,34.1354]}},{"type":"Feature","properties":{"stop_id":"133385","stop_name":"Santa Anita & Genoa NB","wheelchair_boarding":0,"routes":[{"route_id":"4402","agency_id":"3304","route_long_name":"Blue Route","route_type":3,"route_color":"#1F3763","route_text_color":"#FFFFFF"}],"agency_name":"City of Arcadia"},"geometry":{"type":"Point","coordinates":[-118.03115,34.13216]}},{"type":"Feature","properties":{"stop_id":"133396","stop_name":"Santa Anita & Genoa SB","wheelchair_boarding":0,"routes":[{"route_id":"4402","agency_id":"3304","route_long_name":"Blue Route","route_type":3,"route_color":"#1F3763","route_text_color":"#FFFFFF"}],"agency_name":"City of Arcadia"},"geometry":{"type":"Point","coordinates":[-118.03141,34.13246]}},{"type":"Feature","properties":{"stop_id":"133376","stop_name":"South of Camino Real NB","wheelchair_boarding":0,"routes":[{"route_id":"4402","agency_id":"3304","route_long_name":"Blue Route","route_type":3,"route_color":"#1F3763","route_text_color":"#FFFFFF"}],"agency_name":"City of Arcadia"},"geometry":{"type":"Point","coordinates":[-118.04571,34.12221]}},{"type":"Feature","properties":{"stop_id":"133406","stop_name":"South of Camino Real SB","wheelchair_boarding":0,"routes":[{"route_id":"4402","agency_id":"3304","route_long_name":"Blue Route","route_type":3,"route_color":"#1F3763","route_text_color":"#FFFFFF"}],"agency_name":"City of Arcadia"},"geometry":{"type":"Point","coordinates":[-118.04585,34.12228]}},{"type":"Feature","properties":{"stop_id":"133440","stop_name":"South of Duarte SB","wheelchair_boarding":0,"routes":[{"route_id":"4403","agency_id":"3304","route_long_name":"Red Route","route_type":3,"route_color":"#C01F25","route_text_color":"#FFFFFF"}],"agency_name":"City of Arcadia"},"geometry":{"type":"Point","coordinates":[-118.028118496,34.129650001]}},{"type":"Feature","properties":{"stop_id":"133407","stop_name":"South of Lemon SB","wheelchair_boarding":0,"routes":[{"route_id":"4402","agency_id":"3304","route_long_name":"Blue Route","route_type":3,"route_color":"#1F3763","route_text_color":"#FFFFFF"}],"agency_name":"City of Arcadia"},"geometry":{"type":"Point","coordinates":[-118.04575,34.11803]}},{"type":"Feature","properties":{"stop_id":"133445","stop_name":"South of Longden SB","wheelchair_boarding":0,"routes":[{"route_id":"4403","agency_id":"3304","route_long_name":"Red Route","route_type":3,"route_color":"#C01F25","route_text_color":"#FFFFFF"}],"agency_name":"City of Arcadia"},"geometry":{"type":"Point","coordinates":[-118.018552772,34.1140003]}},{"type":"Feature","properties":{"stop_id":"133433","stop_name":"Sycamore @ 2nd","wheelchair_boarding":0,"routes":[{"route_id":"4403","agency_id":"3304","route_long_name":"Red Route","route_type":3,"route_color":"#C01F25","route_text_color":"#FFFFFF"}],"agency_name":"City of Arcadia"},"geometry":{"type":"Point","coordinates":[-118.02572,34.15283]}},{"type":"Feature","properties":{"stop_id":"133405","stop_name":"W/O Baldwin Ave EB","wheelchair_boarding":0,"routes":[{"route_id":"4402","agency_id":"3304","route_long_name":"Blue Route","route_type":3,"route_color":"#1F3763","route_text_color":"#FFFFFF"}],"agency_name":"City of Arcadia"},"geometry":{"type":"Point","coordinates":[-118.055474189,34.122087842]}},{"type":"Feature","properties":{"stop_id":"133422","stop_name":"WB Camino Real @ 2nd","wheelchair_boarding":0,"routes":[{"route_id":"4403","agency_id":"3304","route_long_name":"Red Route","route_type":3,"route_color":"#C01F25","route_text_color":"#FFFFFF"}],"agency_name":"City of Arcadia"},"geometry":{"type":"Point","coordinates":[-118.0251,34.12191]}},{"type":"Feature","properties":{"stop_id":"133397","stop_name":"WB Duarte & Santa Anita WB","wheelchair_boarding":0,"routes":[{"route_id":"4402","agency_id":"3304","route_long_name":"Blue Route","route_type":3,"route_color":"#1F3763","route_text_color":"#FFFFFF"}],"agency_name":"City of Arcadia"},"geometry":{"type":"Point","coordinates":[-118.03166,34.12951]}},{"type":"Feature","properties":{"stop_id":"133413","stop_name":"WB Live Oak @ Santa Anita","wheelchair_boarding":0,"routes":[{"route_id":"4402","agency_id":"3304","route_long_name":"Blue Route","route_type":3,"route_color":"#1F3763","route_text_color":"#FFFFFF"},{"route_id":"4403","agency_id":"3304","route_long_name":"Red Route","route_type":3,"route_color":"#C01F25","route_text_color":"#FFFFFF"}],"agency_name":"City of Arcadia"},"geometry":{"type":"Point","coordinates":[-118.030380194,34.10749048]}},{"type":"Feature","properties":{"stop_id":"133394","stop_name":"WB on Huntington (@ 1st Ave.)","wheelchair_boarding":0,"routes":[{"route_id":"4402","agency_id":"3304","route_long_name":"Blue Route","route_type":3,"route_color":"#1F3763","route_text_color":"#FFFFFF"}],"agency_name":"City of Arcadia"},"geometry":{"type":"Point","coordinates":[-118.02901,34.14016]}},{"type":"Feature","properties":{"stop_id":"133377","stop_name":"West of Baldwin WB","wheelchair_boarding":0,"routes":[{"route_id":"4402","agency_id":"3304","route_long_name":"Blue Route","route_type":3,"route_color":"#1F3763","route_text_color":"#FFFFFF"}],"agency_name":"City of Arcadia"},"geometry":{"type":"Point","coordinates":[-118.055484507,34.122196835]}},{"type":"Feature","properties":{"stop_id":"133370","stop_name":"West of El Monte WB","wheelchair_boarding":0,"routes":[{"route_id":"4402","agency_id":"3304","route_long_name":"Blue Route","route_type":3,"route_color":"#1F3763","route_text_color":"#FFFFFF"}],"agency_name":"City of Arcadia"},"geometry":{"type":"Point","coordinates":[-118.038451309,34.107807761]}}]}