{"type":"FeatureCollection","features":[{"type":"Feature","properties":{"agency_name":"Pasadena Transit","route_id":"10","agency_id":"1","route_short_name":"10","route_long_name":"Old Pasadena - PCC - Allen Station","route_type":3,"route_color":"#C5003E","route_text_color":"#FFFFFF"},"geometry":{"type":"MultiLineString","coordinates":[[[-118.113268,34.151484],[-118.113267,34.151461],[-118.113257,34.151092],[-118.113187,34.151012],[-118.113176,34.150743],[-118.113184,34.1501],[-118.11318,34.14956],[-118.113199,34.14935],[-118.113179,34.149191],[-118.11317,34.14663],[-118.11317,34.14641],[-118.11316,34.14602],[-118.11316,34.14565],[-118.11315,34.14406],[-118.11315,34.14398],[-118.11315,34.14327],[-118.113148,34.1431],[-118.11314,34.14263],[-118.11314,34.14227],[-118.11314,34.14196],[-118.11364,34.14196],[-118.11444,34.14196],[-118.1156,34.14193],[-118.11718,34.1419],[-118.11783,34.14192],[-118.11843,34.14193],[-118.11916,34.14193],[-118.11976,34.14192],[-118.12067,34.14191],[-118.12094,34.1419],[-118.12105,34.14189],[-118.12116,34.14187],[-118.12132,34.14183],[-118.12186,34.14171],[-118.12212,34.14165],[-118.12282,34.14148],[-118.12363,34.14124],[-118.1238,34.14118],[-118.12405,34.1411],[-118.12419,34.14106],[-118.12446,34.141],[-118.12465,34.14098],[-118.12505,34.14096],[-118.12523,34.14095],[-118.12529,34.14095],[-118.12561,34.14095],[-118.12594,34.14097],[-118.12801,34.14097],[-118.128737,34.140964],[-118.12937,34.14096],[-118.13081,34.14093],[-118.13112,34.14092],[-118.13149,34.14087],[-118.13227,34.14096],[-118.132271,34.141746],[-118.13227,34.14184],[-118.13227,34.14199],[-118.13227,34.14209],[-118.13224,34.14253],[-118.13226,34.14325],[-118.13226,34.14347],[-118.13229,34.14456],[-118.13229,34.14531],[-118.13229,34.1457],[-118.13233,34.145851],[-118.13234,34.14589],[-118.13296,34.14589],[-118.13325,34.14589],[-118.13389,34.14589],[-118.13523,34.14589],[-118.13688,34.14589],[-118.13774,34.14587],[-118.13837,34.14585],[-118.13841,34.14585],[-118.138806,34.14585],[-118.1397,34.14585],[-118.13976,34.14585],[-118.14018,34.14585],[-118.14068,34.14585],[-118.14096,34.14585],[-118.14144,34.14586],[-118.14191,34.14586],[-118.14212,34.14586],[-118.14236,34.14586],[-118.14245,34.14586],[-118.14292,34.14586],[-118.1434,34.14584],[-118.14381,34.14583],[-118.14427,34.14582],[-118.14544,34.14582],[-118.14598,34.14582],[-118.14669,34.14581],[-118.14753,34.1458],[-118.14799,34.1458],[-118.1489,34.1458],[-118.14997,34.14579],[-118.15048,34.14578],[-118.15096,34.14577],[-118.15106,34.14577],[-118.15113,34.14577],[-118.15168,34.14576],[-118.15175,34.14576],[-118.15224,34.14577],[-118.15262,34.14577],[-118.15416,34.14575],[-118.15457,34.14575],[-118.15471,34.14575],[-118.15485,34.14576],[-118.15509,34.14575],[-118.15526,34.14575],[-118.15535,34.14575],[-118.15551,34.14576],[-118.15594,34.14575],[-118.15669,34.14574],[-118.157397,34.14574],[-118.158418,34.14574],[-118.158424,34.145743],[-118.159386,34.145739],[-118.160216,34.145739],[-118.160374,34.145739],[-118.160667,34.145735],[-118.160605,34.145577],[-118.160327,34.14489],[-118.160313,34.144856],[-118.160258,34.144719],[-118.160102,34.144718],[-118.159603,34.144688],[-118.159516,34.144687],[-118.158788,34.144682],[-118.158335,34.144678],[-118.157611,34.144673],[-118.157259,34.14467],[-118.157193,34.14467]],[[-118.157518,34.144672],[-118.157259,34.14467],[-118.156054,34.144663],[-118.155957,34.144662],[-118.15593,34.14465],[-118.15531,34.1446],[-118.15482,34.14455],[-118.15462,34.14453],[-118.15411,34.14449],[-118.15411,34.14489],[-118.15416,34.14575],[-118.15224,34.14577],[-118.15048,34.14578],[-118.1489,34.1458],[-118.14753,34.1458],[-118.14544,34.14582]],[[-118.14427,34.14582],[-118.14292,34.14586],[-118.14144,34.14586],[-118.1397,34.14585],[-118.13837,34.14585],[-118.13688,34.14589],[-118.13389,34.14589],[-118.13234,34.14589],[-118.13241,34.14571],[-118.1324,34.14456],[-118.1324,34.14352],[-118.132401,34.143476],[-118.1324,34.14324],[-118.1324,34.14254],[-118.13237,34.14199],[-118.13237,34.14189],[-118.13237,34.14185],[-118.13236,34.14111],[-118.13236,34.14096],[-118.13236,34.14069],[-118.13231,34.1407],[-118.13227,34.14071],[-118.13184,34.1408],[-118.13149,34.14087]],[[-118.12937,34.14096],[-118.12801,34.14097]],[[-118.11314,34.14263],[-118.11315,34.14327]],[[-118.11317,34.14663],[-118.11318,34.14956]],[[-118.113187,34.151012],[-118.113115,34.151111],[-118.113104,34.151446],[-118.113094,34.151839],[-118.113075,34.15243],[-118.113122,34.152992],[-118.113309,34.152989],[-118.117272,34.152897],[-118.117404,34.152894],[-118.117403,34.152476],[-118.117394,34.151872],[-118.117392,34.151788],[-118.11725,34.151789],[-118.11667,34.15179],[-118.11588,34.151792],[-118.113804,34.151798],[-118.113287,34.151828],[-118.113267,34.151461],[-118.11326,34.151204]],[[-118.15168,34.14576],[-118.15224,34.14577],[-118.152606,34.14577]]]}},{"type":"Feature","properties":{"agency_name":"Pasadena Transit","route_id":"20cc","agency_id":"1","route_short_name":"20cc","route_long_name":"Counterclockwise Fair Oaks - Lake","route_type":3,"route_color":"#002855","route_text_color":"#FFFFFF"},"geometry":{"type":"MultiLineString","coordinates":[[[-118.15082,34.182994],[-118.15082,34.18242],[-118.15082,34.18203],[-118.15081,34.18152],[-118.1508,34.18129],[-118.15079,34.18089],[-118.150787,34.180595],[-118.15076,34.17826],[-118.15077,34.17794],[-118.15074,34.17602],[-118.150737,34.17547],[-118.15073,34.1745],[-118.15072,34.1725],[-118.150706,34.171092],[-118.1507,34.17062],[-118.15069,34.16965],[-118.15069,34.1696],[-118.15069,34.1693],[-118.15069,34.16915],[-118.15069,34.16883],[-118.15068,34.16828],[-118.15067,34.16787],[-118.15065,34.16696],[-118.15064,34.16667],[-118.150649,34.165468],[-118.15065,34.16523],[-118.15065,34.16513],[-118.15064,34.16434],[-118.15062,34.16355],[-118.15062,34.16333],[-118.15062,34.16298],[-118.15062,34.16229],[-118.15062,34.16193],[-118.15061,34.16146],[-118.15061,34.161],[-118.15061,34.16064],[-118.150605,34.160392],[-118.1506,34.16019],[-118.15058,34.15966],[-118.15058,34.15828],[-118.15058,34.15779],[-118.15003,34.1578],[-118.149865,34.1578],[-118.14977,34.1578],[-118.14952,34.15781],[-118.14902,34.15782],[-118.14859,34.15783],[-118.14782,34.15784],[-118.14758,34.15785],[-118.14692,34.15784],[-118.14602,34.15785],[-118.14603,34.15672],[-118.146,34.15414],[-118.146,34.15248],[-118.146,34.15222],[-118.14599,34.15201],[-118.14599,34.15176],[-118.14599,34.1517],[-118.14599,34.15155],[-118.145999,34.15126],[-118.14599,34.15126],[-118.14598,34.14953],[-118.14698,34.14952],[-118.14791,34.1495],[-118.147928,34.149499],[-118.14834,34.14949],[-118.14892,34.14948],[-118.14892,34.14914],[-118.14892,34.14901],[-118.14892,34.1488],[-118.14892,34.14874],[-118.14892,34.1483],[-118.14891,34.14765],[-118.1489,34.14677],[-118.14889,34.14624],[-118.148898,34.145921],[-118.1489,34.1458],[-118.14889,34.14534],[-118.14889,34.1445],[-118.14889,34.14353],[-118.14887,34.14244],[-118.14886,34.141818],[-118.14886,34.1418],[-118.14883,34.14057],[-118.14961,34.14057],[-118.14997,34.14058],[-118.15004,34.14058],[-118.15043,34.14062],[-118.15043,34.14015],[-118.15042,34.13962],[-118.150414,34.138783],[-118.15041,34.13833],[-118.1504,34.13736],[-118.15039,34.13612],[-118.15039,34.13579],[-118.15039,34.13534],[-118.15039,34.13475],[-118.15036,34.13406],[-118.15037,34.13294],[-118.15036,34.13159],[-118.15035,34.13104],[-118.15034,34.1299],[-118.15033,34.12853],[-118.15032,34.12795],[-118.15031,34.12753],[-118.15012,34.12753],[-118.14984,34.12753],[-118.14952,34.12754],[-118.14874,34.12753],[-118.14847,34.12752],[-118.14806,34.12752],[-118.14771,34.12752],[-118.14733,34.12752],[-118.14719,34.12752],[-118.1472,34.12866],[-118.14719,34.12944],[-118.147196,34.129577],[-118.14723,34.13038],[-118.14723,34.13146],[-118.14723,34.13235],[-118.14725,34.13296],[-118.14725,34.1345],[-118.14726,34.13478],[-118.14727,34.13523],[-118.14727,34.13532],[-118.14729,34.1358],[-118.147048,34.1358],[-118.14664,34.1358],[-118.14649,34.1358],[-118.14586,34.13581],[-118.14439,34.13582],[-118.14285,34.13584],[-118.14182,34.13584],[-118.14133,34.13584],[-118.1397,34.13584],[-118.13831,34.13586],[-118.13683,34.13587],[-118.13576,34.13587],[-118.13566,34.13587],[-118.13514,34.13586],[-118.13377,34.13588],[-118.13317,34.13588],[-118.13308,34.13588],[-118.13275,34.13588],[-118.13228,34.13588],[-118.13228,34.13641],[-118.13229,34.13703],[-118.1323,34.13766],[-118.1323,34.13782],[-118.13225,34.13797],[-118.132251,34.138092],[-118.13225,34.13812],[-118.13225,34.13869],[-118.13225,34.13901],[-118.13226,34.1401],[-118.13226,34.1403],[-118.13226,34.14037],[-118.13226,34.14045],[-118.13227,34.14071],[-118.13227,34.14096],[-118.13227,34.141222],[-118.13227,34.14174],[-118.13227,34.14184],[-118.13227,34.14199],[-118.13227,34.14209],[-118.13224,34.14253],[-118.13226,34.14325],[-118.13226,34.14347],[-118.13229,34.14456],[-118.13229,34.145124],[-118.13229,34.14531],[-118.13229,34.1457],[-118.13234,34.14589],[-118.13235,34.14649],[-118.13236,34.14701],[-118.13236,34.14722],[-118.13239,34.14776],[-118.13238,34.14957],[-118.13238,34.1505],[-118.13238,34.15074],[-118.13237,34.15107],[-118.13237,34.15127],[-118.13237,34.15168],[-118.132294,34.152009],[-118.132268,34.152129],[-118.13236,34.15233],[-118.13231,34.15244],[-118.13228,34.15253],[-118.13229,34.15261],[-118.1323,34.1528],[-118.132314,34.152965],[-118.13235,34.1534],[-118.13236,34.15373],[-118.13237,34.15394],[-118.13243,34.15427],[-118.13245,34.15557],[-118.13246,34.15675],[-118.13246,34.1572],[-118.13245,34.15777],[-118.13246,34.15838],[-118.13246,34.15871],[-118.13248,34.15981],[-118.13249,34.16069],[-118.132495,34.161102],[-118.1325,34.16157],[-118.13249,34.16337],[-118.13245,34.16419],[-118.13235,34.16691],[-118.132304,34.167932],[-118.13228,34.16845],[-118.13225,34.16898],[-118.13223,34.16955],[-118.132217,34.169826],[-118.13218,34.17061],[-118.13214,34.17142],[-118.13211,34.17202],[-118.1321,34.17226],[-118.13206,34.17329],[-118.13204,34.17357],[-118.132,34.17455],[-118.13195,34.17585],[-118.13193,34.17624],[-118.13192,34.17649],[-118.1319,34.17694],[-118.13226,34.1771],[-118.13385,34.17782],[-118.13469,34.17818],[-118.13684,34.17915],[-118.1381,34.17974],[-118.139185,34.180216],[-118.14026,34.18069],[-118.14038,34.18078],[-118.14062,34.1809],[-118.14103,34.1811],[-118.14137,34.18126],[-118.14165,34.18138],[-118.14222,34.18164],[-118.14278,34.18191],[-118.14386,34.18241],[-118.14487,34.18286],[-118.14571,34.18319],[-118.14605,34.18328],[-118.14632,34.18333],[-118.14662,34.18336],[-118.1471,34.18337],[-118.14776,34.18333],[-118.1487,34.1833],[-118.14921,34.18328],[-118.14979,34.18327],[-118.15083,34.18324],[-118.15082,34.18313],[-118.15082,34.182796]],[[-118.132345,34.146197],[-118.13235,34.14649]],[[-118.13239,34.14776],[-118.132388,34.14822],[-118.13238,34.14957]],[[-118.13237,34.15168],[-118.132301,34.152003],[-118.132275,34.152106],[-118.13236,34.15233]],[[-118.1323,34.1528],[-118.13235,34.1534]],[[-118.13245,34.15557],[-118.132456,34.156218],[-118.13246,34.15675]],[[-118.13249,34.16069],[-118.1325,34.16157]],[[-118.13245,34.16419],[-118.132427,34.164819],[-118.13235,34.16691],[-118.13228,34.16845]],[[-118.13223,34.16955],[-118.13218,34.17061]],[[-118.13204,34.17357],[-118.132007,34.174402],[-118.132,34.17455]],[[-118.1381,34.17974],[-118.14026,34.18069]],[[-118.14103,34.1811],[-118.141108,34.181136],[-118.14137,34.18126]],[[-118.15083,34.18324],[-118.150825,34.183184],[-118.15082,34.18313]]]}},{"type":"Feature","properties":{"agency_name":"Pasadena Transit","route_id":"20cw","agency_id":"1","route_short_name":"20cw","route_long_name":"Clockwise Lake - Fair Oaks","route_type":3,"route_color":"#002855","route_text_color":"#FFFFFF"},"geometry":{"type":"MultiLineString","coordinates":[[[-118.148912,34.147736],[-118.14892,34.1483],[-118.14892,34.14874],[-118.14892,34.1488],[-118.14892,34.14901],[-118.14892,34.14914],[-118.14892,34.14948],[-118.14883,34.149481],[-118.14834,34.14949],[-118.14791,34.1495],[-118.14698,34.14952],[-118.14598,34.14953],[-118.14599,34.15126],[-118.14599,34.15155],[-118.14599,34.1517],[-118.14599,34.15176],[-118.14599,34.15201],[-118.146,34.15222],[-118.146,34.15248],[-118.146,34.154021],[-118.146,34.15414],[-118.14603,34.15672],[-118.14602,34.15785],[-118.14692,34.15784],[-118.14758,34.15785],[-118.14782,34.15784],[-118.14859,34.15783],[-118.14902,34.15782],[-118.14952,34.15781],[-118.14977,34.1578],[-118.15003,34.1578],[-118.150497,34.157791],[-118.150581,34.15779],[-118.150581,34.157925],[-118.15058,34.15828],[-118.15058,34.15966],[-118.1506,34.16019],[-118.15061,34.16064],[-118.15061,34.161],[-118.15061,34.16146],[-118.15062,34.16193],[-118.15062,34.16229],[-118.15062,34.16298],[-118.15062,34.16333],[-118.15062,34.16355],[-118.15064,34.16434],[-118.15065,34.16513],[-118.15065,34.16523],[-118.150646,34.165888],[-118.15064,34.16667],[-118.15065,34.16696],[-118.15067,34.16787],[-118.15068,34.16828],[-118.15069,34.16883],[-118.15069,34.16915],[-118.15069,34.1693],[-118.15069,34.1696],[-118.15069,34.16965],[-118.1507,34.17062],[-118.15072,34.1725],[-118.15073,34.1745],[-118.15074,34.17602],[-118.150742,34.176115],[-118.15077,34.17794],[-118.15076,34.17826],[-118.15079,34.18089],[-118.1508,34.18129],[-118.15081,34.18152],[-118.15082,34.18203],[-118.15082,34.18242],[-118.15082,34.182893]],[[-118.13241,34.145576],[-118.13241,34.14536],[-118.132401,34.144576],[-118.1324,34.14456],[-118.1324,34.14352],[-118.1324,34.14324],[-118.1324,34.14254],[-118.13237,34.14199],[-118.13237,34.14189],[-118.13237,34.14185],[-118.13236,34.14111],[-118.13236,34.14096],[-118.13236,34.14069],[-118.13235,34.14038],[-118.13236,34.13932],[-118.132352,34.138535],[-118.13235,34.13843],[-118.13235,34.13814],[-118.13235,34.13799],[-118.1323,34.13782],[-118.1323,34.13766],[-118.13229,34.13703],[-118.13228,34.13641],[-118.13228,34.13588],[-118.13275,34.13588],[-118.13308,34.13588],[-118.13317,34.13588],[-118.13377,34.13588],[-118.13514,34.13586],[-118.13566,34.13587],[-118.13576,34.13587],[-118.13683,34.13587],[-118.13831,34.13586],[-118.1397,34.13584],[-118.14133,34.13584],[-118.14182,34.13584],[-118.14285,34.13584],[-118.14439,34.13582],[-118.14586,34.13581],[-118.14649,34.1358],[-118.14664,34.1358],[-118.1472,34.1358],[-118.14729,34.1358],[-118.14743,34.1358],[-118.14742,34.13532],[-118.14741,34.13477],[-118.14741,34.13438],[-118.14739,34.13365],[-118.14739,34.13333],[-118.14739,34.13296],[-118.14733,34.12752],[-118.147439,34.12752],[-118.14771,34.12752],[-118.14806,34.12752],[-118.14847,34.12752],[-118.14874,34.12753],[-118.14952,34.12754],[-118.14984,34.12753],[-118.15012,34.12753],[-118.15031,34.12753],[-118.150311,34.12753],[-118.150314,34.127666],[-118.15032,34.12795],[-118.15033,34.12853],[-118.15034,34.1299],[-118.15035,34.13104],[-118.15036,34.13159],[-118.150365,34.132242],[-118.15037,34.13294],[-118.15036,34.13406],[-118.15039,34.13475],[-118.15039,34.13534],[-118.150391,34.135761],[-118.15039,34.13579],[-118.15039,34.13612],[-118.1504,34.13736],[-118.15041,34.13833],[-118.150414,34.138745],[-118.15042,34.13962],[-118.15043,34.14015],[-118.15043,34.14062],[-118.15004,34.14058],[-118.14997,34.14058],[-118.14961,34.14057],[-118.149574,34.14057],[-118.14883,34.14057],[-118.14886,34.1418],[-118.14887,34.14244],[-118.148885,34.143236],[-118.14889,34.14353],[-118.14889,34.1445],[-118.14889,34.14534],[-118.1489,34.1458],[-118.14889,34.14624],[-118.1489,34.14677],[-118.14891,34.147604],[-118.14892,34.1483]],[[-118.14602,34.15785],[-118.146021,34.157867],[-118.14692,34.15784]],[[-118.15082,34.18242],[-118.15082,34.182892]],[[-118.15082,34.182694],[-118.15082,34.18313],[-118.1498,34.18314],[-118.14921,34.18315],[-118.149027,34.183158],[-118.1488,34.18317],[-118.14867,34.18318],[-118.14775,34.18322],[-118.14719,34.18324],[-118.14669,34.18325],[-118.14642,34.18323],[-118.14606,34.18316],[-118.14577,34.18309],[-118.14544,34.18298],[-118.14515,34.18285],[-118.14491,34.18275],[-118.14391,34.1823],[-118.14354,34.18215],[-118.14283,34.18181],[-118.14254,34.18167],[-118.14246,34.18163],[-118.14228,34.18155],[-118.14218,34.181501],[-118.1417,34.18127],[-118.14136,34.18113],[-118.14126,34.18108],[-118.14107,34.181],[-118.14066,34.18083],[-118.14041,34.18073],[-118.14026,34.18069],[-118.1381,34.17974],[-118.13684,34.17915],[-118.13469,34.17818],[-118.13385,34.17782],[-118.13226,34.1771],[-118.131938,34.176956],[-118.1319,34.17694],[-118.13192,34.17649],[-118.13193,34.17624],[-118.13195,34.17585],[-118.13197,34.175345],[-118.132,34.17455],[-118.13204,34.17357],[-118.13206,34.17329],[-118.1321,34.17226],[-118.13211,34.17202],[-118.13214,34.17142],[-118.13218,34.17061],[-118.13223,34.16955],[-118.132241,34.16924],[-118.13225,34.16898],[-118.13228,34.16845],[-118.13235,34.16691],[-118.132395,34.165696],[-118.13245,34.16419],[-118.13249,34.16337],[-118.1325,34.16157],[-118.13249,34.16069],[-118.13248,34.15981],[-118.132479,34.159734],[-118.13246,34.15871],[-118.13246,34.15838],[-118.13245,34.15777],[-118.13246,34.1572],[-118.13246,34.15675],[-118.13245,34.15557],[-118.132433,34.15444],[-118.13243,34.15427],[-118.13249,34.15395],[-118.132491,34.153802],[-118.13249,34.15369],[-118.13247,34.153],[-118.13247,34.15281],[-118.13247,34.15266],[-118.13247,34.15253],[-118.13242,34.15242],[-118.13236,34.15233],[-118.13236,34.15199],[-118.13237,34.15168],[-118.13237,34.15127],[-118.132371,34.151215],[-118.13237,34.15107],[-118.13238,34.15074],[-118.13238,34.1505],[-118.13238,34.14957],[-118.13239,34.14776],[-118.13236,34.14722],[-118.13236,34.14701],[-118.13235,34.14649],[-118.13234,34.14589],[-118.13241,34.14571],[-118.13241,34.145521],[-118.13241,34.14536]],[[-118.147427,34.135668],[-118.14742,34.13532]],[[-118.14741,34.13438],[-118.147408,34.134279],[-118.14739,34.13365],[-118.14739,34.13296],[-118.14738,34.13146],[-118.14737,34.13076],[-118.14737,34.12952],[-118.14736,34.12844],[-118.14733,34.12752],[-118.14771,34.12752]],[[-118.15031,34.12753],[-118.15032,34.12795]],[[-118.15033,34.12853],[-118.150333,34.128837],[-118.15034,34.1299]],[[-118.15036,34.13159],[-118.15037,34.13294]],[[-118.15039,34.13534],[-118.15039,34.13579]],[[-118.15041,34.13833],[-118.15042,34.13962]],[[-118.15043,34.14015],[-118.150431,34.140594],[-118.15043,34.14062]],[[-118.14961,34.14057],[-118.14883,34.14057],[-118.148859,34.141734],[-118.14886,34.1418]],[[-118.14887,34.14244],[-118.14889,34.14353]],[[-118.14889,34.1445],[-118.148891,34.14461],[-118.14889,34.14534]],[[-118.1489,34.14677],[-118.14891,34.14765],[-118.148913,34.147791],[-118.14892,34.1483]],[[-118.14892,34.14948],[-118.14834,34.14949]],[[-118.14791,34.1495],[-118.147527,34.149508],[-118.14698,34.14952]],[[-118.14599,34.15201],[-118.145999,34.152181],[-118.146,34.15222]],[[-118.146,34.15248],[-118.146,34.15414],[-118.146011,34.15501],[-118.14603,34.15672]],[[-118.14602,34.15785],[-118.146021,34.157859]],[[-118.15003,34.1578],[-118.15058,34.15779],[-118.15058,34.15828],[-118.15058,34.159437],[-118.15058,34.15966]],[[-118.15061,34.161],[-118.150611,34.161356],[-118.15061,34.16146]],[[-118.15062,34.16298],[-118.150621,34.163335],[-118.15062,34.16355]],[[-118.15065,34.16523],[-118.150645,34.165974],[-118.15064,34.16667]],[[-118.15067,34.16787],[-118.150684,34.168484],[-118.15069,34.16883]],[[-118.1507,34.17062],[-118.150707,34.171191],[-118.15072,34.1725],[-118.150722,34.172768],[-118.15073,34.1745],[-118.150737,34.175562],[-118.15074,34.17602],[-118.15077,34.17794]],[[-118.15076,34.17826],[-118.150786,34.18052],[-118.15079,34.18089]],[[-118.15082,34.18242],[-118.15082,34.182838],[-118.15082,34.18291]]]}},{"type":"Feature","properties":{"agency_name":"Pasadena Transit","route_id":"31","agency_id":"1","route_short_name":"31","route_long_name":"NW Pasadena - Foothill Blvd - SMV Station","route_type":3,"route_color":"#215732","route_text_color":"#FFFFFF"},"geometry":{"type":"MultiLineString","coordinates":[[[-118.150819,34.182977],[-118.15069,34.16883],[-118.120937,34.169072],[-118.11302,34.16914],[-118.0983,34.16913],[-118.098563,34.154379],[-118.09863,34.15416],[-118.098636,34.151034],[-118.09857,34.15077],[-118.098625,34.14982],[-118.07964,34.150072],[-118.079613,34.148663],[-118.081178,34.14864],[-118.081509,34.148636]],[[-118.079632,34.148662],[-118.08155,34.148635],[-118.081673,34.148645],[-118.081894,34.148711],[-118.082048,34.148722],[-118.082149,34.148721],[-118.082246,34.148696],[-118.08236,34.14895],[-118.0825,34.14918],[-118.08254,34.14956],[-118.08254,34.14971],[-118.08249,34.15008],[-118.0986,34.14982],[-118.098585,34.15084],[-118.0985,34.15097],[-118.09841,34.15312],[-118.09847,34.15398],[-118.09855,34.15442],[-118.098301,34.169104],[-118.11302,34.16914],[-118.15069,34.16883],[-118.15122,34.16883],[-118.15219,34.16882],[-118.1537,34.16881],[-118.15475,34.16882],[-118.15533,34.16888],[-118.15589,34.16904],[-118.15653,34.16932],[-118.15686,34.16943],[-118.15726,34.16948],[-118.15769,34.16953],[-118.15795,34.16956],[-118.15846,34.16962],[-118.1591,34.16973],[-118.15958,34.16982],[-118.15959,34.17039],[-118.15959,34.17074],[-118.15959,34.17132],[-118.15961,34.17224],[-118.15961,34.1729],[-118.15962,34.17358],[-118.15963,34.17381],[-118.15963,34.17404],[-118.15965,34.17441],[-118.15965,34.17504],[-118.15963,34.17588],[-118.15964,34.17645],[-118.15964,34.17694],[-118.15966,34.17895],[-118.15967,34.17988],[-118.15967,34.18084],[-118.15968,34.18145],[-118.15968,34.18162],[-118.15968,34.18179],[-118.15969,34.18215],[-118.159698,34.182724],[-118.1597,34.1829],[-118.15934,34.1828],[-118.15903,34.18275],[-118.15872,34.18273],[-118.15825,34.18273],[-118.15759,34.18272],[-118.15697,34.18272],[-118.15634,34.18272],[-118.15589,34.18274],[-118.15559,34.18277],[-118.15523,34.18282],[-118.155,34.18287],[-118.15456,34.18296],[-118.15425,34.183],[-118.15402,34.18303],[-118.15375,34.18304],[-118.15346,34.18304],[-118.15223,34.18305],[-118.15182,34.18306],[-118.15136,34.1831],[-118.15082,34.18313],[-118.15082,34.182821],[-118.15082,34.182796]]]}},{"type":"Feature","properties":{"agency_name":"Pasadena Transit","route_id":"32","agency_id":"1","route_short_name":"32","route_long_name":"NW Pasadena - New York - SMV Station","route_type":3,"route_color":"#009639","route_text_color":"#FFFFFF"},"geometry":{"type":"MultiLineString","coordinates":[[[-118.15082,34.182994],[-118.15082,34.18242],[-118.15082,34.18203],[-118.15081,34.18152],[-118.1508,34.18129],[-118.15079,34.18089],[-118.15076,34.17826],[-118.15077,34.17794],[-118.15074,34.17602],[-118.15073,34.1745],[-118.15072,34.1725],[-118.1507,34.17062],[-118.15069,34.16965],[-118.15069,34.1696],[-118.15069,34.1693],[-118.15069,34.16915],[-118.15069,34.16883],[-118.14908,34.16883],[-118.1485,34.16884],[-118.14769,34.16885],[-118.14735,34.16886],[-118.147128,34.168863],[-118.14618,34.16888],[-118.1439,34.1689],[-118.14281,34.1689],[-118.14209,34.16892],[-118.14164,34.16893],[-118.14105,34.16893],[-118.14056,34.16893],[-118.13939,34.16894],[-118.13843,34.16895],[-118.13711,34.16896],[-118.13589,34.16897],[-118.13521,34.16896],[-118.13396,34.16897],[-118.13288,34.16899],[-118.13266,34.16899],[-118.13225,34.16898],[-118.13183,34.16898],[-118.13159,34.16898],[-118.1312,34.16899],[-118.13098,34.16899],[-118.13005,34.169],[-118.1296,34.169],[-118.12827,34.16901],[-118.12724,34.16902],[-118.12688,34.16902],[-118.12613,34.16904],[-118.12563,34.16905],[-118.12446,34.16905],[-118.12309,34.16905],[-118.12192,34.16907],[-118.12153,34.16907],[-118.12117,34.16907],[-118.12034,34.16908],[-118.11909,34.16909],[-118.11873,34.16909],[-118.1178,34.1691],[-118.11642,34.16911],[-118.11543,34.16912],[-118.11426,34.16913],[-118.11302,34.16914],[-118.11263,34.16914],[-118.11123,34.16915],[-118.10956,34.16914],[-118.10809,34.16914],[-118.10562,34.16914],[-118.10513,34.16914],[-118.10396,34.16914],[-118.10282,34.16913],[-118.10172,34.16913],[-118.10058,34.16913],[-118.09946,34.16913],[-118.099,34.16913],[-118.0983,34.16913],[-118.09827,34.17124],[-118.09827,34.17135],[-118.09827,34.171374],[-118.09825,34.17295],[-118.0982,34.17411],[-118.09818,34.17458],[-118.09773,34.17456],[-118.09709,34.17452],[-118.0968,34.1745],[-118.09663,34.17449],[-118.09642,34.17446],[-118.09621,34.17442],[-118.0959,34.17434],[-118.09569,34.17428],[-118.09567,34.17427],[-118.0955,34.1742],[-118.0953,34.1741],[-118.09507,34.17397],[-118.09484,34.17382],[-118.09468,34.1737],[-118.09449,34.17355],[-118.0941,34.17324],[-118.09398,34.173146],[-118.09379,34.173],[-118.09354,34.17283],[-118.09315,34.17263],[-118.09299,34.17256],[-118.09263,34.17242],[-118.09212,34.17224],[-118.09172,34.1721],[-118.09156,34.17204],[-118.0913,34.17193],[-118.09101,34.17179],[-118.09086,34.1717],[-118.09065,34.17155],[-118.09043,34.1714],[-118.09008,34.17115],[-118.08985,34.17096],[-118.08968,34.17081],[-118.08954,34.17067],[-118.08939,34.17049],[-118.08917,34.1702],[-118.089,34.16993],[-118.08884,34.16967],[-118.08865,34.16931],[-118.08837,34.16878],[-118.08824,34.16856],[-118.08813,34.16841],[-118.08799,34.16824],[-118.0878,34.16806],[-118.08746,34.16777],[-118.08705,34.16744],[-118.08592,34.16654],[-118.08506,34.16584],[-118.08449,34.16537],[-118.08363,34.16465],[-118.08335,34.16441],[-118.08322,34.16429],[-118.08303,34.16409],[-118.08262,34.16364],[-118.08202,34.16298],[-118.08187,34.16282],[-118.08149,34.1624],[-118.08138,34.16226],[-118.08133,34.16219],[-118.08129,34.16211],[-118.08125,34.16203],[-118.08123,34.16195],[-118.08121,34.16177],[-118.0812,34.16149],[-118.08119,34.16106],[-118.0812,34.16087],[-118.08123,34.16045],[-118.08134,34.15951],[-118.08145,34.15873],[-118.08149,34.1584],[-118.08156,34.15789],[-118.08169,34.15703],[-118.081758,34.15646],[-118.08179,34.15618],[-118.08188,34.15542],[-118.08204,34.15411],[-118.08214,34.1534],[-118.08223,34.15256],[-118.0823,34.15173],[-118.0824,34.1509],[-118.08244,34.15049],[-118.08249,34.15008],[-118.08177,34.15009],[-118.07964,34.15012],[-118.079613,34.148663],[-118.081178,34.148642],[-118.081508,34.148636]],[[-118.079632,34.148661],[-118.080592,34.148648],[-118.080936,34.148643],[-118.081147,34.14864],[-118.08155,34.148635],[-118.081673,34.148645],[-118.081782,34.148669],[-118.081909,34.148713],[-118.082048,34.148722],[-118.082149,34.148721],[-118.082247,34.1487],[-118.08228,34.14878],[-118.08236,34.14895],[-118.0825,34.14918],[-118.08253,34.14942],[-118.08254,34.14956],[-118.08254,34.14971],[-118.08249,34.15008]],[[-118.08179,34.15618],[-118.08169,34.15703]],[[-118.09379,34.173],[-118.0941,34.17324]],[[-118.09621,34.17442],[-118.096388,34.174453],[-118.09642,34.17446]],[[-118.09825,34.17295],[-118.09827,34.17135]],[[-118.14618,34.16888],[-118.14735,34.16886]],[[-118.14908,34.16883],[-118.150369,34.16883],[-118.15069,34.16883],[-118.15122,34.16883],[-118.15219,34.16882],[-118.1537,34.16881],[-118.15475,34.16882],[-118.15533,34.16888],[-118.15589,34.16904],[-118.15653,34.16932],[-118.15686,34.16943],[-118.15726,34.16948],[-118.15769,34.16953],[-118.15795,34.16956],[-118.15846,34.16962],[-118.1591,34.16973],[-118.15958,34.16982],[-118.15959,34.17039],[-118.15959,34.17074],[-118.159591,34.170966],[-118.15959,34.17132],[-118.15961,34.17224],[-118.15961,34.1729],[-118.15962,34.17358],[-118.15963,34.17381],[-118.15963,34.17404],[-118.15965,34.17441],[-118.15965,34.17504],[-118.15963,34.17588],[-118.15964,34.17645],[-118.15964,34.17694],[-118.15966,34.17895],[-118.15967,34.17988],[-118.15967,34.18084],[-118.15968,34.18145],[-118.15968,34.18162],[-118.15968,34.18179],[-118.15969,34.18215],[-118.1597,34.1829],[-118.159681,34.182894],[-118.15934,34.1828],[-118.15903,34.18275],[-118.15872,34.18273],[-118.15825,34.18273],[-118.15759,34.18272],[-118.15697,34.18272],[-118.15634,34.18272],[-118.15589,34.18274],[-118.15559,34.18277],[-118.15523,34.18282],[-118.155,34.18287],[-118.15456,34.18296],[-118.15425,34.183],[-118.15402,34.18303],[-118.15375,34.18304],[-118.15346,34.18304],[-118.15223,34.18305],[-118.15182,34.18306],[-118.15136,34.1831],[-118.15082,34.18313],[-118.15082,34.182796]]]}},{"type":"Feature","properties":{"agency_name":"Pasadena Transit","route_id":"33","agency_id":"1","route_short_name":"33","route_long_name":"Highland Park - SMV Station","route_type":3,"route_color":"#6B6F2A","route_text_color":"#FFFFFF"},"geometry":{"type":"MultiLineString","coordinates":[[[-118.193283,34.110202],[-118.193513,34.11052],[-118.193629,34.110677],[-118.194421,34.111777],[-118.193402,34.112282],[-118.192528,34.112711],[-118.192385,34.112781],[-118.191359,34.113288],[-118.190174,34.113869],[-118.190003,34.113952],[-118.189409,34.11311],[-118.188717,34.112122],[-118.188442,34.111732],[-118.188306,34.111812],[-118.188204,34.111883],[-118.188052,34.112004],[-118.187957,34.11209],[-118.187847,34.112189],[-118.187766,34.112263],[-118.186678,34.113207],[-118.186549,34.113312],[-118.186447,34.113403],[-118.186336,34.113512],[-118.186229,34.113618],[-118.186064,34.113774],[-118.185745,34.114088],[-118.185415,34.114402],[-118.184911,34.114908],[-118.184337,34.115495],[-118.184198,34.115429],[-118.18403,34.115361],[-118.183679,34.115218],[-118.183484,34.115141],[-118.182604,34.114832],[-118.181454,34.114416],[-118.181311,34.114664],[-118.180878,34.115415],[-118.180361,34.116306],[-118.179913,34.117073],[-118.179841,34.117197],[-118.179301,34.118124],[-118.17885,34.118899],[-118.178425,34.119631],[-118.178327,34.119809],[-118.178181,34.120056],[-118.178142,34.120123],[-118.177741,34.120827],[-118.177286,34.121622],[-118.177201,34.121795],[-118.1771,34.122057],[-118.177083,34.1221],[-118.177037,34.122273],[-118.177024,34.12237],[-118.177011,34.122603],[-118.176956,34.122952],[-118.176933,34.123153],[-118.176731,34.124799],[-118.176683,34.125203],[-118.176661,34.125378],[-118.176465,34.126987],[-118.176459,34.127094],[-118.176453,34.127317],[-118.176454,34.127369],[-118.176456,34.127523],[-118.1765,34.127712],[-118.176556,34.127883],[-118.176838,34.12833],[-118.177176,34.12889],[-118.177223,34.128978],[-118.177243,34.129027],[-118.177273,34.12911],[-118.177296,34.129176],[-118.177323,34.129297],[-118.177333,34.129379],[-118.177333,34.129461],[-118.177317,34.129571],[-118.177218,34.129989],[-118.177169,34.130129],[-118.177008,34.130874],[-118.176979,34.131009],[-118.176904,34.131366],[-118.176639,34.132526],[-118.176488,34.133159],[-118.176262,34.134093],[-118.176236,34.134222],[-118.176138,34.135003],[-118.176129,34.135209],[-118.176136,34.135454],[-118.17619,34.135783],[-118.17623,34.135959],[-118.176253,34.136025],[-118.176316,34.136151],[-118.176505,34.136442],[-118.176687,34.136673],[-118.176727,34.13673],[-118.176923,34.137096],[-118.176956,34.137173],[-118.176993,34.137307],[-118.177013,34.137414],[-118.177036,34.137634],[-118.177043,34.137799],[-118.177067,34.137947],[-118.177103,34.138098],[-118.177143,34.138203],[-118.177216,34.13834],[-118.177442,34.138722],[-118.177521,34.138842],[-118.177614,34.138958],[-118.177982,34.13935],[-118.178041,34.139432],[-118.178078,34.139496],[-118.178108,34.1396],[-118.178125,34.13982],[-118.178109,34.13993],[-118.178053,34.140119],[-118.17799,34.140295],[-118.177951,34.14037],[-118.177806,34.140603],[-118.177645,34.140922],[-118.17743,34.140917],[-118.177417,34.140917],[-118.177199,34.140926],[-118.176617,34.140971],[-118.176412,34.140996],[-118.176267,34.141023],[-118.175804,34.141134],[-118.17551,34.141225],[-118.175408,34.141264],[-118.175074,34.141385],[-118.174315,34.141672],[-118.174118,34.141744],[-118.17376,34.141876],[-118.17338,34.142025],[-118.172888,34.142204],[-118.17275,34.142248],[-118.172059,34.142447],[-118.171917,34.142483],[-118.17129,34.142597],[-118.170863,34.142652],[-118.170663,34.142692],[-118.170639,34.142697],[-118.170401,34.142757],[-118.170196,34.142829],[-118.170127,34.142854],[-118.169925,34.14295],[-118.169846,34.142997],[-118.169523,34.143215],[-118.169117,34.143496],[-118.16886,34.143705],[-118.168761,34.143779],[-118.168421,34.144002],[-118.168133,34.144206],[-118.167853,34.14439],[-118.167827,34.144415],[-118.167685,34.144487],[-118.167595,34.144517],[-118.167549,34.144539],[-118.167457,34.144564],[-118.167358,34.144581],[-118.167225,34.144589],[-118.167143,34.144589],[-118.165966,34.144525],[-118.16589,34.144514],[-118.165507,34.144501],[-118.165173,34.144496],[-118.16506,34.144496],[-118.164862,34.144507],[-118.164713,34.144521],[-118.164535,34.144549],[-118.16436,34.144588],[-118.164201,34.144629],[-118.164063,34.144673],[-118.163838,34.144764],[-118.163637,34.144855],[-118.163382,34.144987],[-118.163151,34.145142],[-118.162831,34.145414],[-118.162712,34.145453],[-118.162627,34.145494],[-118.162538,34.145555],[-118.162481,34.145582],[-118.162402,34.145607],[-118.162293,34.145632],[-118.162049,34.145668],[-118.161447,34.145704],[-118.161394,34.145707],[-118.161236,34.145699],[-118.161054,34.145697],[-118.160922,34.145702],[-118.160684,34.145733],[-118.160386,34.145734],[-118.157647,34.145742],[-118.157432,34.145743],[-118.155974,34.14575],[-118.155839,34.14575],[-118.155518,34.145751],[-118.155257,34.145751],[-118.155174,34.145751],[-118.15496,34.145749],[-118.154913,34.145749],[-118.15453,34.145749],[-118.154216,34.14575],[-118.154137,34.14575],[-118.152233,34.145766],[-118.152018,34.145767],[-118.151717,34.145769],[-118.151162,34.145775],[-118.15107,34.145775],[-118.150455,34.145782],[-118.150207,34.145783],[-118.148878,34.145792],[-118.148883,34.146256],[-118.148886,34.146644],[-118.148887,34.146781],[-118.148892,34.14765],[-118.148895,34.147924],[-118.148904,34.148856],[-118.148907,34.149029],[-118.148912,34.149496],[-118.148581,34.1495],[-118.1471,34.149518],[-118.146928,34.149518],[-118.146856,34.149518],[-118.14678,34.149521],[-118.145983,34.149516],[-118.146002,34.15106],[-118.145986,34.151247],[-118.145993,34.151371],[-118.145993,34.151506],[-118.145994,34.151662],[-118.145991,34.152017],[-118.145991,34.152223],[-118.145991,34.152335],[-118.145988,34.152423],[-118.145992,34.15252],[-118.146014,34.154152],[-118.146019,34.154564],[-118.14603,34.155443],[-118.146039,34.156729],[-118.146051,34.157837],[-118.146546,34.157834],[-118.14692,34.157833],[-118.147551,34.157821],[-118.147822,34.157821],[-118.148394,34.157812],[-118.148533,34.157823],[-118.148989,34.1578],[-118.149759,34.157791],[-118.149842,34.157793],[-118.150576,34.157776],[-118.150879,34.157784],[-118.151126,34.15776],[-118.151296,34.15769],[-118.151412,34.157643],[-118.151544,34.157583],[-118.151673,34.157497],[-118.152089,34.157258],[-118.15437,34.155944],[-118.154615,34.155798],[-118.154714,34.155732],[-118.154902,34.155958],[-118.155568,34.156756],[-118.156344,34.157684],[-118.157308,34.158847],[-118.157495,34.159074],[-118.157887,34.159547],[-118.158302,34.16005],[-118.158464,34.160242],[-118.158683,34.160508],[-118.158951,34.160826],[-118.159577,34.16159],[-118.159928,34.162017],[-118.160021,34.16213],[-118.160462,34.162668],[-118.160475,34.162784],[-118.160475,34.16288],[-118.160453,34.162987],[-118.160397,34.163116],[-118.160324,34.163226],[-118.160041,34.163719],[-118.159632,34.16442],[-118.15956,34.16456],[-118.159533,34.164637],[-118.159521,34.164967],[-118.159521,34.165132],[-118.159532,34.165426],[-118.159533,34.166135],[-118.159534,34.166409],[-118.159538,34.167253],[-118.159543,34.167869],[-118.15955,34.168388],[-118.159553,34.169808],[-118.159227,34.169765],[-118.159166,34.169757],[-118.157933,34.169574],[-118.157675,34.169536],[-118.157258,34.169476],[-118.157023,34.169449],[-118.156779,34.169403],[-118.15659,34.169348],[-118.156388,34.169258],[-118.156066,34.169122],[-118.155919,34.16906],[-118.155753,34.168992],[-118.155535,34.168929],[-118.155389,34.168893],[-118.155115,34.168853],[-118.154761,34.168823],[-118.154454,34.168815],[-118.153703,34.168821],[-118.153373,34.168824],[-118.152166,34.168834],[-118.150913,34.168841],[-118.150665,34.168842],[-118.149088,34.168849],[-118.1485,34.168853],[-118.147653,34.168859],[-118.147313,34.168857],[-118.146149,34.168864],[-118.145819,34.168867],[-118.143868,34.168883],[-118.142906,34.16889],[-118.142787,34.168898],[-118.141617,34.168902],[-118.141286,34.168905],[-118.138304,34.168936],[-118.137091,34.168943],[-118.136761,34.168946],[-118.135878,34.168953],[-118.1352,34.168959],[-118.13397,34.16896],[-118.13364,34.168962],[-118.132903,34.168967],[-118.132255,34.168973],[-118.131924,34.168976],[-118.131508,34.168979],[-118.130982,34.168983],[-118.129613,34.168995],[-118.129283,34.168998],[-118.128308,34.169005],[-118.127217,34.169014],[-118.126906,34.16902],[-118.126575,34.169023],[-118.12566,34.169032],[-118.124479,34.169045],[-118.124149,34.169048],[-118.123107,34.16906],[-118.121722,34.169075],[-118.121521,34.169078],[-118.120321,34.169073],[-118.119273,34.169084],[-118.119107,34.169086],[-118.118684,34.169089],[-118.117821,34.169098],[-118.116433,34.16911],[-118.115444,34.169119],[-118.115114,34.169122],[-118.114268,34.169129],[-118.113028,34.169141],[-118.112697,34.16914],[-118.111239,34.169137],[-118.109762,34.169141],[-118.109596,34.169141],[-118.108086,34.169135],[-118.105808,34.169129],[-118.105642,34.169128],[-118.103973,34.169127],[-118.102856,34.169123],[-118.101735,34.169124],[-118.100763,34.169122],[-118.100598,34.169122],[-118.09948,34.169123],[-118.098905,34.169123],[-118.098293,34.169121],[-118.098301,34.168656],[-118.098303,34.168582],[-118.098312,34.168057],[-118.098324,34.167054],[-118.09833,34.166714],[-118.098337,34.166131],[-118.098339,34.165994],[-118.098355,34.165103],[-118.098358,34.164919],[-118.098364,34.164246],[-118.098379,34.163359],[-118.09838,34.16324],[-118.098382,34.162966],[-118.098391,34.162487],[-118.098403,34.161545],[-118.098419,34.160564],[-118.098438,34.159457],[-118.098441,34.159319],[-118.098459,34.158294],[-118.098129,34.158302],[-118.094436,34.158383],[-118.094189,34.158388],[-118.093858,34.158397],[-118.090407,34.158479],[-118.0893,34.158494],[-118.089105,34.158498],[-118.087769,34.158528],[-118.087594,34.158525],[-118.087046,34.158503],[-118.086884,34.15849],[-118.086768,34.158471],[-118.086527,34.158424],[-118.085657,34.158208],[-118.08489,34.158024],[-118.084572,34.157958],[-118.084444,34.157937],[-118.084199,34.157906],[-118.083901,34.15789],[-118.083336,34.157882],[-118.082923,34.15788],[-118.081865,34.157889],[-118.081766,34.157887],[-118.081551,34.157884],[-118.081402,34.157875],[-118.0813,34.157862],[-118.081141,34.157826],[-118.081082,34.157804],[-118.080953,34.157727],[-118.080877,34.157672],[-118.080711,34.157532],[-118.080645,34.157486],[-118.080397,34.157211],[-118.079881,34.156656],[-118.079497,34.156225],[-118.079113,34.155778],[-118.078898,34.155503],[-118.078736,34.155278],[-118.078547,34.155009],[-118.078464,34.15489],[-118.078825,34.154728],[-118.078894,34.154662],[-118.079284,34.154318],[-118.079402,34.154189],[-118.079465,34.154112],[-118.079548,34.153977],[-118.079591,34.153887],[-118.079657,34.153714],[-118.079683,34.153604],[-118.079716,34.153387],[-118.079725,34.153211],[-118.079728,34.15284],[-118.079701,34.152191],[-118.079694,34.151724],[-118.07965,34.150111],[-118.079639,34.149137],[-118.079633,34.148795]],[[-118.079633,34.148655],[-118.079846,34.148654],[-118.081435,34.148645],[-118.081541,34.148645],[-118.081698,34.148674],[-118.081931,34.148742],[-118.082068,34.148766],[-118.08218,34.148765],[-118.082291,34.148784],[-118.082339,34.148948],[-118.082365,34.149058],[-118.082388,34.149143],[-118.082437,34.149435],[-118.082447,34.149583],[-118.082441,34.149907],[-118.082519,34.150073],[-118.082188,34.150078],[-118.07965,34.150111],[-118.079661,34.150523],[-118.079694,34.151724]],[[-118.078464,34.15489],[-118.078631,34.155128],[-118.078736,34.155278]],[[-118.081551,34.157884],[-118.081865,34.157889],[-118.081882,34.157889],[-118.082923,34.15788]],[[-118.087769,34.158528],[-118.089135,34.158497],[-118.0893,34.158494]],[[-118.094189,34.158388],[-118.094519,34.158381],[-118.098244,34.158299],[-118.098459,34.158294]],[[-118.098441,34.159319],[-118.098436,34.159594],[-118.098419,34.160564]],[[-118.098382,34.162966],[-118.09838,34.163221],[-118.098379,34.163359]],[[-118.098339,34.165994],[-118.098339,34.166008],[-118.09833,34.166714]],[[-118.098303,34.168582],[-118.098293,34.169121],[-118.098624,34.169122],[-118.098905,34.169123]],[[-118.100598,34.169122],[-118.100928,34.169122],[-118.101735,34.169124]],[[-118.105642,34.169128],[-118.105679,34.169128],[-118.108086,34.169135],[-118.109431,34.169141],[-118.109596,34.169141],[-118.111239,34.169137],[-118.113028,34.169141],[-118.113358,34.169138],[-118.114268,34.169129],[-118.115279,34.169121],[-118.115444,34.169119]],[[-118.117821,34.169098],[-118.118519,34.169091],[-118.118684,34.169089]],[[-118.119107,34.169086],[-118.120321,34.169073]],[[-118.121521,34.169078],[-118.121765,34.169075],[-118.123107,34.16906],[-118.124479,34.169045],[-118.12481,34.169041],[-118.12566,34.169032],[-118.126906,34.16902]],[[-118.127217,34.169014],[-118.127547,34.169011],[-118.128308,34.169005],[-118.129613,34.168995],[-118.129944,34.168992],[-118.130982,34.168983]],[[-118.131508,34.168979],[-118.132089,34.168974],[-118.132255,34.168973]],[[-118.132903,34.168967],[-118.133805,34.168961],[-118.13397,34.16896]],[[-118.135878,34.168953],[-118.136926,34.168944],[-118.137091,34.168943]],[[-118.138304,34.168936],[-118.141617,34.168902],[-118.141948,34.168901],[-118.142787,34.168898]],[[-118.143868,34.168883],[-118.146149,34.168864],[-118.14648,34.168862],[-118.147313,34.168857]],[[-118.150665,34.168842],[-118.150992,34.16884],[-118.152166,34.168834],[-118.153703,34.168821],[-118.154034,34.168818],[-118.154454,34.168815]],[[-118.155919,34.16906],[-118.156214,34.169184],[-118.156388,34.169258]],[[-118.159166,34.169757],[-118.159553,34.169808],[-118.159553,34.169534],[-118.15955,34.168388]],[[-118.159538,34.167253],[-118.159533,34.166135],[-118.159532,34.16586],[-118.159532,34.165426]],[[-118.160021,34.16213],[-118.159835,34.161904],[-118.159577,34.16159]],[[-118.157887,34.159547],[-118.157308,34.158847],[-118.15712,34.158621],[-118.156344,34.157684]],[[-118.155568,34.156756],[-118.154714,34.155732]],[[-118.15437,34.155944],[-118.154314,34.155976],[-118.152089,34.157258]],[[-118.151296,34.15769],[-118.151217,34.157715],[-118.151114,34.157737],[-118.150989,34.157759],[-118.150893,34.157767],[-118.150576,34.157776],[-118.15008,34.157788],[-118.149842,34.157793]],[[-118.14692,34.157833],[-118.146051,34.157837],[-118.146046,34.157424],[-118.146039,34.156729]],[[-118.14603,34.155443],[-118.146014,34.154152],[-118.146009,34.15374],[-118.145992,34.15252]],[[-118.145983,34.149516],[-118.146314,34.149518],[-118.14678,34.149521]],[[-118.1471,34.149518],[-118.148912,34.149496]],[[-118.148887,34.146781],[-118.148885,34.146575],[-118.148883,34.146256]],[[-118.148878,34.145792],[-118.150455,34.145782],[-118.150703,34.145779],[-118.15107,34.145775]],[[-118.151717,34.145769],[-118.152233,34.145766],[-118.152448,34.145764],[-118.154137,34.14575]],[[-118.155974,34.14575],[-118.157647,34.145742],[-118.157779,34.145742],[-118.160519,34.145733],[-118.160684,34.145733],[-118.161213,34.145834],[-118.161441,34.145853],[-118.161748,34.145905],[-118.161881,34.145913],[-118.162016,34.14591],[-118.162287,34.145846],[-118.16232,34.145835],[-118.162393,34.145794],[-118.162478,34.145739],[-118.162627,34.145623],[-118.162762,34.14548],[-118.162831,34.145414]],[[-118.169925,34.14295],[-118.170032,34.142899],[-118.170127,34.142854]],[[-118.170639,34.142697],[-118.170863,34.142652]],[[-118.17376,34.141876],[-118.174315,34.141672],[-118.174321,34.14167],[-118.175074,34.141385]],[[-118.177417,34.140917],[-118.177645,34.140922],[-118.177798,34.140618],[-118.177806,34.140603]],[[-118.176979,34.131009],[-118.177037,34.130739],[-118.177169,34.130129]],[[-118.176456,34.127523],[-118.176453,34.127317]],[[-118.176459,34.127094],[-118.176462,34.127039],[-118.176465,34.126987],[-118.176683,34.125203],[-118.176715,34.124936],[-118.176731,34.124799]],[[-118.177083,34.1221],[-118.17715,34.121926],[-118.177201,34.121795]],[[-118.178142,34.120123],[-118.178287,34.119876],[-118.178327,34.119809]],[[-118.179301,34.118124],[-118.179769,34.11732],[-118.179841,34.117197],[-118.180361,34.116306]],[[-118.180878,34.115415],[-118.181454,34.114416],[-118.181726,34.114515],[-118.182604,34.114832]],[[-118.183679,34.115218],[-118.184198,34.115429]],[[-118.184911,34.114908],[-118.185107,34.114712],[-118.185415,34.114402]],[[-118.186229,34.113618],[-118.186447,34.113403]],[[-118.187766,34.112263],[-118.187957,34.11209]],[[-118.188442,34.111732],[-118.18893,34.111489],[-118.189069,34.11142],[-118.189778,34.11107],[-118.190798,34.110571],[-118.190989,34.110478],[-118.191834,34.110061],[-118.192006,34.109979],[-118.192633,34.10967],[-118.192689,34.109641],[-118.192831,34.109571],[-118.19323,34.110069],[-118.193424,34.110351],[-118.193459,34.1104]]]}},{"type":"Feature","properties":{"agency_name":"Pasadena Transit","route_id":"40","agency_id":"1","route_short_name":"40","route_long_name":"Old Pasadena - SMV Station","route_type":3,"route_color":"#DC4405","route_text_color":"#FFFFFF"},"geometry":{"type":"MultiLineString","coordinates":[[[-118.148109,34.1445],[-118.14719,34.1445],[-118.147047,34.1445],[-118.1462,34.1445],[-118.14596,34.1445],[-118.14597,34.14505],[-118.14597,34.14524],[-118.145976,34.145542],[-118.14598,34.14582],[-118.14598,34.14636],[-118.14598,34.14678],[-118.14594,34.14764],[-118.14596,34.14837],[-118.14598,34.14953],[-118.14515,34.14951],[-118.145107,34.14951],[-118.14427,34.14951],[-118.14296,34.1495],[-118.14148,34.14953],[-118.141417,34.149705],[-118.14147,34.14999],[-118.141469,34.150104],[-118.14146,34.1507],[-118.14146,34.15087],[-118.14145,34.15124],[-118.14146,34.15166],[-118.14146,34.15176],[-118.14147,34.15196],[-118.14147,34.15201],[-118.14147,34.15216],[-118.14148,34.15236],[-118.14148,34.15293],[-118.14149,34.15385],[-118.1415,34.1542],[-118.141481,34.1542],[-118.13999,34.15422],[-118.13844,34.15422],[-118.13697,34.15424],[-118.13591,34.15425],[-118.13243,34.15427],[-118.13095,34.1543],[-118.12949,34.15429],[-118.12817,34.15432],[-118.12747,34.15432],[-118.12677,34.15432],[-118.125575,34.154329],[-118.12552,34.15433],[-118.12435,34.15434],[-118.12297,34.15434],[-118.12143,34.15433],[-118.12004,34.15434],[-118.11772,34.15436],[-118.11733,34.15436],[-118.117322,34.153634],[-118.11732,34.15351],[-118.11732,34.15286],[-118.11732,34.15266],[-118.11732,34.15253],[-118.11731,34.15222],[-118.11731,34.15208],[-118.1173,34.15181],[-118.114021,34.151838],[-118.1138,34.15184],[-118.11317,34.15186],[-118.11318,34.15229],[-118.11319,34.15261],[-118.11321,34.15295],[-118.11321,34.15325],[-118.113075,34.153393],[-118.11321,34.15354],[-118.11321,34.15387],[-118.11321,34.154145],[-118.11321,34.15437],[-118.11321,34.15491],[-118.11321,34.15546],[-118.11321,34.15601],[-118.11321,34.15656],[-118.1132,34.15711],[-118.11319,34.1575],[-118.11318,34.15789],[-118.11249,34.1579],[-118.110791,34.157926],[-118.11054,34.15793],[-118.10904,34.15793],[-118.1087,34.15794],[-118.10852,34.15795],[-118.10837,34.15797],[-118.10816,34.158],[-118.10781,34.1581],[-118.10749,34.15819],[-118.10736,34.15822],[-118.10726,34.15824],[-118.10719,34.15825],[-118.10712,34.15825],[-118.10687,34.15825],[-118.10628,34.15825],[-118.10307,34.15826],[-118.102322,34.158265],[-118.10047,34.15828],[-118.09949,34.15828],[-118.09896,34.15828],[-118.09847,34.15828],[-118.09784,34.15829],[-118.09687,34.1583],[-118.09512,34.15832],[-118.09416,34.1584],[-118.09388,34.15842],[-118.09347,34.15844],[-118.09322,34.15844],[-118.09222,34.15845],[-118.09164,34.15846],[-118.09041,34.15848],[-118.08927,34.15849],[-118.08883,34.1585],[-118.08847,34.15851],[-118.08781,34.15853],[-118.08772,34.15853],[-118.08734,34.15853],[-118.087155,34.158516],[-118.08707,34.15851],[-118.08676,34.15847],[-118.08597,34.15829],[-118.08552,34.15818],[-118.08489,34.15802],[-118.08431,34.15793],[-118.08398,34.15789],[-118.08363,34.15787],[-118.08303,34.15786],[-118.08237,34.15787],[-118.08216,34.15788],[-118.08156,34.15789],[-118.08142,34.15789],[-118.08133,34.15788],[-118.08126,34.15787],[-118.08115,34.15784],[-118.08106,34.1578],[-118.08094,34.15772],[-118.08058,34.15741],[-118.08043,34.15728],[-118.08012,34.157],[-118.07985,34.15673],[-118.07968,34.15653],[-118.07937,34.15613],[-118.07872,34.15526],[-118.07846,34.15489],[-118.0781,34.15441],[-118.0776,34.1537],[-118.07735,34.15334],[-118.07717,34.15312],[-118.07706,34.153],[-118.07694,34.15289],[-118.076715,34.152718],[-118.07669,34.1527],[-118.07638,34.15252],[-118.07614,34.1524],[-118.07598,34.15233],[-118.07584,34.15228],[-118.07559,34.15221],[-118.07495,34.15208],[-118.0748,34.15205],[-118.07466,34.15201],[-118.07454,34.15197],[-118.07441,34.15191],[-118.07423,34.15181],[-118.07412,34.15173],[-118.07395,34.1516],[-118.07378,34.15142],[-118.07368,34.15127],[-118.07363,34.15118],[-118.07358,34.15107],[-118.07353,34.15097],[-118.07347,34.15081],[-118.07344,34.15066],[-118.07342,34.15045],[-118.07341,34.15022],[-118.07462,34.1502],[-118.07625,34.15017],[-118.077481,34.150151],[-118.07964,34.15012],[-118.079613,34.148663],[-118.081198,34.14864],[-118.081509,34.148636]],[[-118.079632,34.148661],[-118.080937,34.148643],[-118.08155,34.148635],[-118.081673,34.148645],[-118.081782,34.148669],[-118.081909,34.148713],[-118.082048,34.148722],[-118.082149,34.148721],[-118.082247,34.1487],[-118.08228,34.14878],[-118.08236,34.14895],[-118.0825,34.14918],[-118.08253,34.14942],[-118.08254,34.14956],[-118.08254,34.14971],[-118.08249,34.15008],[-118.08177,34.15009],[-118.07964,34.15012],[-118.07625,34.15017]],[[-118.07559,34.15221],[-118.075811,34.152271],[-118.07584,34.15228]],[[-118.07669,34.1527],[-118.07694,34.15289]],[[-118.08431,34.15793],[-118.084479,34.157956],[-118.08489,34.15802]],[[-118.08707,34.15851],[-118.08734,34.15853]],[[-118.09896,34.15828],[-118.099396,34.15828],[-118.09949,34.15828]],[[-118.10047,34.15828],[-118.10307,34.15826]],[[-118.10904,34.15793],[-118.10993,34.15793],[-118.11054,34.15793],[-118.11249,34.1579]],[[-118.11319,34.1575],[-118.113193,34.157414],[-118.1132,34.15711]],[[-118.11321,34.15437],[-118.115051,34.154362],[-118.11551,34.15436],[-118.11733,34.15436]],[[-118.12552,34.15433],[-118.12677,34.15432],[-118.127069,34.15432],[-118.12747,34.15432]],[[-118.13999,34.15422],[-118.1415,34.1542]],[[-118.14148,34.15293],[-118.141481,34.152374],[-118.14148,34.15236]],[[-118.14146,34.1507],[-118.14147,34.14999],[-118.14148,34.14953]],[[-118.14296,34.1495],[-118.144204,34.149509],[-118.14427,34.14951],[-118.14515,34.14951]],[[-118.14598,34.14953],[-118.14698,34.14952],[-118.14791,34.1495],[-118.14834,34.14949],[-118.14892,34.14948],[-118.14892,34.14914],[-118.14892,34.14901],[-118.14892,34.1488],[-118.14892,34.14874],[-118.14892,34.1483],[-118.148912,34.147737],[-118.14891,34.14765],[-118.1489,34.14677],[-118.14889,34.14624],[-118.1489,34.1458],[-118.14889,34.14534],[-118.14889,34.1445],[-118.147916,34.1445],[-118.147845,34.1445]]]}},{"type":"Feature","properties":{"agency_name":"Pasadena Transit","route_id":"51","agency_id":"1","route_short_name":"51","route_long_name":"So. Raymond - Linda Vista - Art Center","route_type":3,"route_color":"#005EB8","route_text_color":"#FFFFFF"},"geometry":{"type":"MultiLineString","coordinates":[[[-118.14743,34.135668],[-118.147413,34.134782],[-118.147411,34.134511],[-118.147409,34.134286],[-118.147407,34.134042],[-118.147404,34.133672],[-118.147404,34.13363],[-118.147401,34.133223],[-118.147399,34.132982],[-118.147384,34.131507],[-118.147365,34.129833],[-118.147353,34.128436],[-118.147346,34.127537],[-118.147556,34.127533],[-118.147607,34.127532],[-118.147704,34.127532],[-118.147888,34.12753],[-118.147927,34.12753],[-118.148027,34.127531],[-118.148072,34.127532],[-118.148728,34.127538],[-118.148741,34.127632],[-118.14878,34.13295],[-118.148799,34.134591],[-118.1488,34.13476],[-118.14881,34.1358],[-118.14881,34.13835],[-118.14883,34.14057],[-118.14886,34.1418],[-118.14887,34.14244],[-118.14889,34.14353],[-118.14889,34.1445],[-118.14889,34.14534],[-118.1489,34.1458],[-118.14889,34.14624],[-118.1489,34.14677],[-118.14891,34.14765],[-118.148914,34.147858],[-118.14892,34.1483],[-118.14892,34.14874],[-118.14892,34.1488],[-118.14892,34.14901],[-118.14892,34.14914],[-118.14892,34.14948],[-118.1497,34.1495],[-118.14992,34.1495],[-118.15052,34.1496],[-118.150514,34.149892],[-118.15051,34.15008],[-118.1505,34.15043],[-118.1505,34.15098],[-118.1505,34.15124],[-118.1505,34.15147],[-118.1505,34.15161],[-118.1505,34.15173],[-118.1505,34.15186],[-118.1505,34.15194],[-118.1505,34.15215],[-118.15049,34.15243],[-118.15049,34.15248],[-118.15049,34.15308],[-118.15054,34.15411],[-118.15056,34.1555],[-118.15056,34.15632],[-118.15057,34.15666],[-118.15058,34.15729],[-118.15058,34.15779],[-118.15058,34.15828],[-118.15058,34.15966],[-118.1506,34.16019],[-118.15061,34.16064],[-118.150611,34.160833],[-118.15061,34.161],[-118.15061,34.16146],[-118.15115,34.16147],[-118.15156,34.16148],[-118.1521,34.16149],[-118.153,34.16142],[-118.15366,34.16133],[-118.15398,34.16126],[-118.15456,34.16116],[-118.15485,34.16118],[-118.15511,34.16126],[-118.15531,34.16135],[-118.15565,34.16153],[-118.15583,34.16163],[-118.15596,34.1617],[-118.15627,34.16188],[-118.15654,34.16198],[-118.15673,34.16204],[-118.15697,34.16208],[-118.15793,34.16215],[-118.15831,34.16217],[-118.15862,34.16218],[-118.15898,34.1622],[-118.15932,34.16221],[-118.1596,34.16222],[-118.15977,34.1622],[-118.15992,34.16217],[-118.16005,34.16213],[-118.16017,34.16207],[-118.16034,34.16195],[-118.16044,34.16182],[-118.16053,34.16168],[-118.16056,34.16162],[-118.16075,34.1612],[-118.16116,34.1604],[-118.1612,34.16031],[-118.16126,34.16019],[-118.16141,34.15989],[-118.16153,34.15966],[-118.16167,34.1594],[-118.16182,34.15922],[-118.162184,34.158914],[-118.16226,34.15885],[-118.16242,34.15872],[-118.16289,34.15834],[-118.16335,34.15798],[-118.16351,34.15788],[-118.16386,34.15774],[-118.16409,34.15772],[-118.16417,34.15769],[-118.16436,34.15759],[-118.16462,34.15744],[-118.16488,34.15728],[-118.16544,34.15694],[-118.1658,34.15674],[-118.16605,34.15664],[-118.16632,34.15655],[-118.16646,34.156516],[-118.16657,34.15649],[-118.16685,34.15642],[-118.167,34.15639],[-118.16721,34.15634],[-118.16746,34.15623],[-118.16812,34.15609],[-118.16829,34.156],[-118.16842,34.15592],[-118.16854,34.15582],[-118.16862,34.15571],[-118.16866,34.15559],[-118.168689,34.155445],[-118.16871,34.1553],[-118.16819,34.15461],[-118.16807,34.15444],[-118.168,34.15433],[-118.16794,34.15419],[-118.1679,34.15395],[-118.16788,34.15378],[-118.16788,34.15363],[-118.16797,34.15344],[-118.168,34.15336],[-118.16807,34.15327],[-118.16815,34.15322],[-118.16834,34.15317],[-118.16957,34.15404],[-118.16988,34.15427],[-118.17017,34.15446],[-118.17044,34.15462],[-118.17087,34.15486],[-118.17107,34.155],[-118.1712,34.15514],[-118.1713,34.15527],[-118.17139,34.15541],[-118.17152,34.15565],[-118.17159,34.15581],[-118.17165,34.15592],[-118.1719,34.15642],[-118.17206,34.15676],[-118.17215,34.15702],[-118.17218,34.15725],[-118.1722,34.15737],[-118.17225,34.15766],[-118.17233,34.15791],[-118.17234,34.15793],[-118.17246,34.15821],[-118.17264,34.15854],[-118.17282,34.15884],[-118.173,34.15914],[-118.17314,34.15936],[-118.17324,34.15952],[-118.17339,34.15979],[-118.17354,34.16006],[-118.17364,34.16029],[-118.17375,34.16059],[-118.17394,34.16103],[-118.17425,34.16172],[-118.17488,34.16317],[-118.17508,34.16362],[-118.1752,34.16391],[-118.17547,34.16454],[-118.17555,34.1647],[-118.17584,34.16539],[-118.1759,34.16552],[-118.17648,34.16686],[-118.17663,34.16719],[-118.17669,34.16742],[-118.1767,34.16768],[-118.1767,34.16803],[-118.17671,34.16846],[-118.17673,34.16917],[-118.17674,34.16983],[-118.17675,34.17031],[-118.17675,34.17076],[-118.17675,34.17146],[-118.17813,34.17146],[-118.17882,34.17145],[-118.1795,34.17145],[-118.18056,34.17142],[-118.18085,34.17141],[-118.18136,34.1714],[-118.18186,34.1714],[-118.18199,34.1714],[-118.18213,34.17143],[-118.18235,34.1715],[-118.18254,34.17158],[-118.182569,34.171596],[-118.18326,34.17199],[-118.18464,34.17285],[-118.18495,34.17301],[-118.18513,34.17308],[-118.18534,34.17314],[-118.1855,34.17316],[-118.18582,34.17313],[-118.18607,34.17306],[-118.18631,34.17297],[-118.18731,34.17256],[-118.18756,34.17246],[-118.18766,34.17239],[-118.18776,34.17231],[-118.18786,34.17215],[-118.18788,34.17199],[-118.18785,34.17185],[-118.1878,34.17176],[-118.18774,34.17168],[-118.18765,34.17157],[-118.18747,34.17141],[-118.18723,34.17121],[-118.18692,34.17085],[-118.18678,34.17094],[-118.18666,34.17097],[-118.18636,34.17099],[-118.1855,34.17089],[-118.18533,34.17083],[-118.18525,34.17079],[-118.18511,34.17066],[-118.18506,34.17059],[-118.1849,34.17015],[-118.18481,34.16997],[-118.18468,34.16983],[-118.18457,34.16974],[-118.18451,34.16966],[-118.1845,34.16953],[-118.18451,34.16948],[-118.18457,34.16938],[-118.18466,34.16931],[-118.18547,34.16913],[-118.18558,34.16905],[-118.18563,34.16896],[-118.18564,34.16886],[-118.18562,34.16877],[-118.1854,34.16841],[-118.1853,34.16823],[-118.18516,34.16783],[-118.18512,34.16766],[-118.18511,34.16735],[-118.185087,34.167264],[-118.185026,34.167183],[-118.184845,34.167226],[-118.184751,34.166766],[-118.184756,34.166606],[-118.184775,34.165925],[-118.184481,34.165966],[-118.184049,34.165957],[-118.184005,34.166033],[-118.183997,34.166291],[-118.183979,34.166794],[-118.184074,34.16742],[-118.184331,34.167367],[-118.184405,34.167382],[-118.184576,34.167342],[-118.184584,34.167328],[-118.184611,34.167282],[-118.184831,34.167229]],[[-118.184322,34.167365],[-118.184405,34.167382]],[[-118.184576,34.167342],[-118.184611,34.167282],[-118.184845,34.167226]],[[-118.18326,34.17199],[-118.183083,34.171888],[-118.18254,34.17158]],[[-118.17675,34.17076],[-118.176751,34.170372],[-118.17675,34.17031]],[[-118.1713,34.15527],[-118.17124,34.155191],[-118.1712,34.15514]],[[-118.16834,34.15317],[-118.16811,34.153],[-118.16793,34.15328],[-118.1679,34.15336],[-118.16788,34.15363]],[[-118.16871,34.1553],[-118.16869,34.15544],[-118.16866,34.15559]],[[-118.16746,34.15623],[-118.16723,34.15621],[-118.16706,34.15624],[-118.166998,34.15625],[-118.16677,34.15629],[-118.16658,34.15632],[-118.1663,34.15636],[-118.16614,34.15641],[-118.16581,34.15654],[-118.16549,34.15674],[-118.16487,34.15714],[-118.16455,34.15735],[-118.16431,34.1575],[-118.16386,34.15774]],[[-118.16226,34.15885],[-118.16182,34.15922]],[[-118.16005,34.16213],[-118.159936,34.162165],[-118.15992,34.16217]],[[-118.15061,34.161],[-118.15061,34.16064]],[[-118.1506,34.16019],[-118.150597,34.160093],[-118.15058,34.15966]],[[-118.15051,34.15008],[-118.15052,34.1496]],[[-118.14892,34.1483],[-118.148913,34.147787],[-118.148912,34.147694],[-118.14891,34.14765]],[[-118.14889,34.1445],[-118.148891,34.143612],[-118.14889,34.14353]],[[-118.14887,34.14244],[-118.14883,34.14057],[-118.15004,34.14058],[-118.15043,34.14062],[-118.15043,34.14015],[-118.15042,34.13962],[-118.15041,34.13833],[-118.1504,34.13736],[-118.150396,34.1368],[-118.15039,34.13612],[-118.15039,34.13579],[-118.15039,34.13534],[-118.15039,34.13475],[-118.15036,34.13406],[-118.15037,34.13294],[-118.150366,34.132314],[-118.15036,34.13159],[-118.15035,34.13104],[-118.15034,34.1299],[-118.15033,34.12853],[-118.15032,34.12795],[-118.15031,34.12753],[-118.15012,34.12753],[-118.14984,34.12753],[-118.14952,34.12754],[-118.14874,34.12753],[-118.148745,34.128137]],[[-118.148913,34.147736],[-118.14892,34.1483]],[[-118.184611,34.167282],[-118.18483,34.167229]],[[-118.15061,34.16146],[-118.151059,34.161468]]]}},{"type":"Feature","properties":{"agency_name":"Pasadena Transit","route_id":"51s","agency_id":"1","route_short_name":"51s","route_long_name":"Route 51 Saturday & Sunday","route_type":3,"route_color":"#005EB8","route_text_color":"#FFFFFF"},"geometry":{"type":"MultiLineString","coordinates":[[[-118.148913,34.147736],[-118.14892,34.1483],[-118.14892,34.14874],[-118.14892,34.1488],[-118.14892,34.14901],[-118.14892,34.14914],[-118.14892,34.14948],[-118.1497,34.1495],[-118.14992,34.1495],[-118.15052,34.1496],[-118.150514,34.149892],[-118.15051,34.15008],[-118.1505,34.15043],[-118.1505,34.15098],[-118.1505,34.15124],[-118.1505,34.15147],[-118.1505,34.15161],[-118.1505,34.15173],[-118.1505,34.15186],[-118.1505,34.15194],[-118.1505,34.15215],[-118.15049,34.15243],[-118.15049,34.15248],[-118.15049,34.15308],[-118.15054,34.15411],[-118.15056,34.1555],[-118.15056,34.15632],[-118.15057,34.15666],[-118.15058,34.15729],[-118.15058,34.15779],[-118.15058,34.15828],[-118.15058,34.15966],[-118.1506,34.16019],[-118.15061,34.16064],[-118.150611,34.160833],[-118.15061,34.161],[-118.15061,34.16146],[-118.15115,34.16147],[-118.15156,34.16148],[-118.1521,34.16149],[-118.153,34.16142],[-118.15366,34.16133],[-118.15398,34.16126],[-118.15456,34.16116],[-118.15485,34.16118],[-118.15511,34.16126],[-118.15531,34.16135],[-118.15565,34.16153],[-118.15583,34.16163],[-118.15596,34.1617],[-118.15627,34.16188],[-118.15654,34.16198],[-118.15673,34.16204],[-118.15697,34.16208],[-118.15793,34.16215],[-118.15831,34.16217],[-118.15862,34.16218],[-118.15898,34.1622],[-118.15932,34.16221],[-118.1596,34.16222],[-118.15977,34.1622],[-118.15992,34.16217],[-118.16005,34.16213],[-118.16017,34.16207],[-118.16034,34.16195],[-118.16044,34.16182],[-118.16053,34.16168],[-118.16056,34.16162],[-118.16075,34.1612],[-118.16116,34.1604],[-118.1612,34.16031],[-118.16126,34.16019],[-118.16141,34.15989],[-118.16153,34.15966],[-118.16167,34.1594],[-118.16182,34.15922],[-118.162184,34.158914],[-118.16226,34.15885],[-118.16242,34.15872],[-118.16289,34.15834],[-118.16335,34.15798],[-118.16351,34.15788],[-118.16386,34.15774],[-118.16409,34.15772],[-118.16417,34.15769],[-118.16436,34.15759],[-118.16462,34.15744],[-118.16488,34.15728],[-118.16544,34.15694],[-118.1658,34.15674],[-118.16605,34.15664],[-118.16632,34.15655],[-118.16646,34.156516],[-118.16657,34.15649],[-118.16685,34.15642],[-118.167,34.15639],[-118.167192,34.156344],[-118.16721,34.15634],[-118.16746,34.15623],[-118.167463,34.156238]],[[-118.16746,34.15623],[-118.16723,34.15621],[-118.16706,34.15624],[-118.16677,34.15629],[-118.16658,34.15632],[-118.1663,34.15636],[-118.166239,34.156379]],[[-118.166982,34.156253],[-118.166793,34.156286],[-118.16658,34.15632]],[[-118.1663,34.15636],[-118.16614,34.15641],[-118.16581,34.15654],[-118.16549,34.15674],[-118.16487,34.15714],[-118.16455,34.15735],[-118.16431,34.1575],[-118.16386,34.15774]],[[-118.16226,34.15885],[-118.16182,34.15922]],[[-118.16005,34.16213],[-118.159936,34.162165],[-118.15992,34.16217]],[[-118.15061,34.161],[-118.15061,34.16064]],[[-118.1506,34.16019],[-118.150597,34.160093],[-118.15058,34.15966]],[[-118.15051,34.15008],[-118.15052,34.1496],[-118.15053,34.14767],[-118.14978,34.14764],[-118.14965,34.14764],[-118.14891,34.14765],[-118.14892,34.148277]]]}},{"type":"Feature","properties":{"agency_name":"Pasadena Transit","route_id":"52","agency_id":"1","route_short_name":"52","route_long_name":"So. Raymond - Linda Vista - JPL","route_type":3,"route_color":"#418FDE","route_text_color":"#FFFFFF"},"geometry":{"type":"MultiLineString","coordinates":[[[-118.148741,34.127632],[-118.14878,34.13295],[-118.148799,34.134591],[-118.1488,34.13476],[-118.14881,34.1358],[-118.14881,34.13835],[-118.14883,34.14057],[-118.14886,34.1418],[-118.14887,34.14244],[-118.14889,34.14353],[-118.14889,34.1445],[-118.14889,34.14534],[-118.1489,34.1458],[-118.14889,34.14624],[-118.1489,34.14677],[-118.14891,34.14765],[-118.148914,34.147858],[-118.14892,34.1483],[-118.14892,34.14874],[-118.14892,34.1488],[-118.14892,34.14901],[-118.14892,34.14914],[-118.14892,34.14948],[-118.1497,34.1495],[-118.14992,34.1495],[-118.15052,34.1496],[-118.150514,34.149892],[-118.15051,34.15008],[-118.1505,34.15043],[-118.1505,34.15098],[-118.1505,34.15124],[-118.1505,34.15147],[-118.1505,34.15161],[-118.1505,34.15173],[-118.1505,34.15186],[-118.1505,34.15194],[-118.1505,34.15215],[-118.15049,34.15243],[-118.15049,34.15248],[-118.15049,34.15308],[-118.15054,34.15411],[-118.15056,34.1555],[-118.15056,34.15632],[-118.15057,34.15666],[-118.15058,34.15729],[-118.15058,34.15779],[-118.15058,34.15828],[-118.15058,34.15966],[-118.1506,34.16019],[-118.15061,34.16064],[-118.150611,34.160833],[-118.15061,34.161],[-118.15061,34.16146],[-118.15115,34.16147],[-118.15156,34.16148],[-118.1521,34.16149],[-118.153,34.16142],[-118.15366,34.16133],[-118.15398,34.16126],[-118.15456,34.16116],[-118.15485,34.16118],[-118.15511,34.16126],[-118.15531,34.16135],[-118.15565,34.16153],[-118.15583,34.16163],[-118.15596,34.1617],[-118.15627,34.16188],[-118.15654,34.16198],[-118.15673,34.16204],[-118.15697,34.16208],[-118.15793,34.16215],[-118.15831,34.16217],[-118.15862,34.16218],[-118.15898,34.1622],[-118.15932,34.16221],[-118.1596,34.16222],[-118.15977,34.1622],[-118.15992,34.16217],[-118.16005,34.16213],[-118.16017,34.16207],[-118.16034,34.16195],[-118.16044,34.16182],[-118.16053,34.16168],[-118.16056,34.16162],[-118.16075,34.1612],[-118.16116,34.1604],[-118.1612,34.16031],[-118.16126,34.16019],[-118.16141,34.15989],[-118.16153,34.15966],[-118.16167,34.1594],[-118.16182,34.15922],[-118.162184,34.158914],[-118.16226,34.15885],[-118.16242,34.15872],[-118.16289,34.15834],[-118.16335,34.15798],[-118.16351,34.15788],[-118.16386,34.15774],[-118.16409,34.15772],[-118.16417,34.15769],[-118.16436,34.15759],[-118.16462,34.15744],[-118.16488,34.15728],[-118.16544,34.15694],[-118.1658,34.15674],[-118.16605,34.15664],[-118.16632,34.15655],[-118.16646,34.156516],[-118.16657,34.15649],[-118.16685,34.15642],[-118.167,34.15639],[-118.16721,34.15634],[-118.16746,34.15623],[-118.16812,34.15609],[-118.16829,34.156],[-118.16842,34.15592],[-118.16854,34.15582],[-118.16862,34.15571],[-118.16866,34.15559],[-118.168689,34.155445],[-118.16871,34.1553],[-118.16819,34.15461],[-118.16807,34.15444],[-118.168,34.15433],[-118.16794,34.15419],[-118.1679,34.15395],[-118.16788,34.15378],[-118.16788,34.15363],[-118.16797,34.15344],[-118.168,34.15336],[-118.16807,34.15327],[-118.16815,34.15322],[-118.16834,34.15317],[-118.16957,34.15404],[-118.16988,34.15427],[-118.17017,34.15446],[-118.17044,34.15462],[-118.17087,34.15486],[-118.17107,34.155],[-118.1712,34.15514],[-118.1713,34.15527],[-118.17139,34.15541],[-118.17152,34.15565],[-118.17159,34.15581],[-118.17165,34.15592],[-118.1719,34.15642],[-118.17206,34.15676],[-118.17215,34.15702],[-118.17218,34.15725],[-118.1722,34.15737],[-118.17225,34.15766],[-118.17233,34.15791],[-118.17234,34.15793],[-118.17246,34.15821],[-118.17264,34.15854],[-118.17282,34.15884],[-118.173,34.15914],[-118.17314,34.15936],[-118.17324,34.15952],[-118.17339,34.15979],[-118.17354,34.16006],[-118.17364,34.16029],[-118.17375,34.16059],[-118.17394,34.16103],[-118.17425,34.16172],[-118.17488,34.16317],[-118.17508,34.16362],[-118.1752,34.16391],[-118.17547,34.16454],[-118.17555,34.1647],[-118.17584,34.16539],[-118.1759,34.16552],[-118.17648,34.16686],[-118.17663,34.16719],[-118.17669,34.16742],[-118.1767,34.16768],[-118.1767,34.16803],[-118.17671,34.16846],[-118.17673,34.16917],[-118.17674,34.16983],[-118.17675,34.17031],[-118.17675,34.17076],[-118.17675,34.17146],[-118.17676,34.17195],[-118.17676,34.17232],[-118.17676,34.17255],[-118.17678,34.17303],[-118.17677,34.17375],[-118.176782,34.174035],[-118.17679,34.17424],[-118.17678,34.17462],[-118.17679,34.17496],[-118.17681,34.17548],[-118.17681,34.17566],[-118.17678,34.17576],[-118.17667,34.17592],[-118.1766,34.17598],[-118.17646,34.17605],[-118.17603,34.17614],[-118.17565,34.17621],[-118.17549,34.17627],[-118.1754,34.17633],[-118.17519,34.17644],[-118.17505,34.17657],[-118.17491,34.17671],[-118.17471,34.17693],[-118.17451,34.17717],[-118.17412,34.17765],[-118.174,34.17791],[-118.17394,34.17815],[-118.17393,34.17841],[-118.17393,34.17853],[-118.17398,34.1787],[-118.17413,34.17903],[-118.17445,34.17958],[-118.17466,34.17997],[-118.17472,34.18015],[-118.17473,34.18025],[-118.17471,34.18044],[-118.17468,34.18054],[-118.1744,34.18118],[-118.17426,34.18174],[-118.1741,34.18209],[-118.17407,34.18217],[-118.17404,34.18228],[-118.17403,34.18245],[-118.17404,34.1826],[-118.17411,34.18277],[-118.17421,34.18292],[-118.17433,34.18305],[-118.17452,34.18319],[-118.17475,34.1833],[-118.17504,34.18343],[-118.17582,34.18373],[-118.17616,34.18388],[-118.17649,34.18407],[-118.17626,34.1844],[-118.17611,34.1846],[-118.17585,34.18499],[-118.17575,34.18513],[-118.17619,34.18528],[-118.17673,34.18547],[-118.177,34.1856],[-118.17732,34.18577],[-118.17766,34.18598],[-118.17801,34.18626],[-118.17824,34.18646],[-118.17853,34.18679],[-118.17862,34.18693],[-118.17875,34.18715],[-118.17877,34.18721],[-118.17881,34.18733],[-118.17887,34.18761],[-118.178878,34.187814],[-118.17888,34.1879],[-118.17886,34.18812],[-118.1788,34.18834],[-118.17871,34.18855],[-118.17849,34.18896],[-118.1784,34.1892],[-118.17837,34.18929],[-118.17834,34.18945],[-118.17833,34.18963],[-118.17834,34.19003],[-118.17834,34.19034],[-118.17835,34.19072],[-118.17835,34.19108],[-118.17835,34.19142],[-118.17834,34.1926],[-118.17833,34.19278],[-118.17832,34.19285],[-118.1783,34.19302],[-118.17823,34.19325],[-118.17803,34.19372],[-118.17794,34.19389],[-118.177939,34.193893],[-118.17781,34.19413],[-118.17755,34.19469],[-118.17733,34.19502],[-118.17707,34.19538],[-118.17649,34.19606],[-118.17605,34.19654],[-118.17589,34.19679],[-118.175326,34.197875],[-118.175032,34.198127],[-118.17497,34.19818],[-118.17508,34.19819],[-118.17527,34.19824],[-118.17528,34.19809],[-118.175319,34.19789],[-118.17532,34.19788],[-118.17589,34.19679]],[[-118.17781,34.19413],[-118.17803,34.19372]],[[-118.17888,34.1879],[-118.17887,34.18761]],[[-118.17679,34.17424],[-118.17677,34.17375]],[[-118.17678,34.17303],[-118.176773,34.172841],[-118.17676,34.17255]],[[-118.17675,34.17146],[-118.177679,34.17146],[-118.17813,34.17146],[-118.17882,34.17145],[-118.1795,34.17145],[-118.18056,34.17142],[-118.18085,34.17141],[-118.18136,34.1714],[-118.18186,34.1714],[-118.18199,34.1714],[-118.18213,34.17143],[-118.18235,34.1715],[-118.18254,34.17158],[-118.18326,34.17199],[-118.18464,34.17285],[-118.18495,34.17301],[-118.18513,34.17308],[-118.18534,34.17314],[-118.1855,34.17316],[-118.18582,34.17313],[-118.18607,34.17306],[-118.18631,34.17297],[-118.18731,34.17256],[-118.18756,34.17246],[-118.18766,34.17239],[-118.18776,34.17231],[-118.18786,34.17215],[-118.18788,34.17199],[-118.18785,34.17185],[-118.1878,34.17176],[-118.18774,34.17168],[-118.18765,34.17157],[-118.18747,34.17141],[-118.18723,34.17121],[-118.18692,34.17085],[-118.18678,34.17094],[-118.18666,34.17097],[-118.18636,34.17099],[-118.1855,34.17089],[-118.18533,34.17083],[-118.18525,34.17079],[-118.18511,34.17066],[-118.18506,34.17059],[-118.1849,34.17015],[-118.18481,34.16997],[-118.18468,34.16983],[-118.18457,34.16974],[-118.18451,34.16966],[-118.1845,34.16953],[-118.18451,34.16948],[-118.18457,34.16938],[-118.18466,34.16931],[-118.18547,34.16913],[-118.18558,34.16905],[-118.18563,34.16896],[-118.18564,34.16886],[-118.18562,34.16877],[-118.1854,34.16841],[-118.1853,34.16823],[-118.18516,34.16783],[-118.18512,34.16766],[-118.18511,34.16735],[-118.185087,34.167264],[-118.185026,34.167183],[-118.184845,34.167226],[-118.184751,34.166766],[-118.184753,34.166718],[-118.184775,34.165925],[-118.184481,34.165966],[-118.184049,34.165957],[-118.184005,34.166033],[-118.183998,34.16624],[-118.183979,34.166794],[-118.184074,34.16742],[-118.184331,34.167367],[-118.184405,34.167382],[-118.184576,34.167342],[-118.184584,34.167328],[-118.184611,34.167282],[-118.184829,34.167229]],[[-118.148913,34.147736],[-118.14892,34.1483]],[[-118.15793,34.16215],[-118.15797,34.16322],[-118.15794,34.16403],[-118.157927,34.164425],[-118.1579,34.16516],[-118.15788,34.16553],[-118.15792,34.16573],[-118.15798,34.16593],[-118.15796,34.16611],[-118.157952,34.166259],[-118.15795,34.16628],[-118.1579,34.1669],[-118.157849,34.167488],[-118.15772,34.16897],[-118.15769,34.16953],[-118.157691,34.169791],[-118.15769,34.17004],[-118.15775,34.17064],[-118.15785,34.17119],[-118.15793,34.17148],[-118.15801,34.17174],[-118.15805,34.17183],[-118.158049,34.171836]],[[-118.15805,34.17183],[-118.15825,34.17234],[-118.15856,34.17298],[-118.158658,34.173126],[-118.15878,34.17331],[-118.15886,34.17343],[-118.15919,34.17389],[-118.15965,34.17441],[-118.15999,34.17475],[-118.159992,34.174751],[-118.1603,34.17504],[-118.16071,34.17536],[-118.161497,34.175931],[-118.1625,34.17666],[-118.16265,34.17676],[-118.16323,34.17718],[-118.163768,34.177571],[-118.16426,34.17793],[-118.165705,34.178982],[-118.16592,34.17914],[-118.16633,34.17944],[-118.16817,34.18077],[-118.16854,34.18103],[-118.16899,34.18132],[-118.169135,34.181393],[-118.17011,34.18189],[-118.17091,34.18226],[-118.17211,34.18279],[-118.1728,34.1831],[-118.172977,34.183176],[-118.17326,34.1833],[-118.17461,34.1839],[-118.1756,34.18434],[-118.17611,34.1846],[-118.17666,34.18491],[-118.176783,34.184995],[-118.17751,34.1855],[-118.17807,34.18594],[-118.17865,34.18647],[-118.17912,34.18704],[-118.17926,34.18721],[-118.179287,34.187259],[-118.17941,34.18749],[-118.1797,34.188],[-118.17999,34.18864],[-118.180371,34.189819],[-118.18038,34.18985],[-118.17967,34.18967],[-118.1794,34.18956],[-118.17908,34.18942],[-118.17879,34.18932],[-118.1784,34.1892]],[[-118.17835,34.19072],[-118.178351,34.190929],[-118.17835,34.19108]],[[-118.17835,34.19142],[-118.178338,34.192637],[-118.17833,34.19278]],[[-118.17794,34.19389],[-118.17781,34.19413],[-118.17764,34.194498],[-118.17755,34.19469]],[[-118.17605,34.19654],[-118.175913,34.196755],[-118.17589,34.19679]],[[-118.17532,34.19788],[-118.175167,34.198011]]]}},{"type":"Feature","properties":{"agency_name":"Pasadena Transit","route_id":"53","agency_id":"1","route_short_name":"53","route_long_name":"Caltech - JPL","route_type":3,"route_color":"#936DB7","route_text_color":"#FFFFFF"},"geometry":{"type":"MultiLineString","coordinates":[[[-118.175378,34.197801],[-118.175326,34.197885],[-118.175288,34.197925],[-118.175277,34.197937],[-118.175206,34.198015],[-118.175191,34.198018]],[[-118.175206,34.198015],[-118.175192,34.198018],[-118.175139,34.198039],[-118.175097,34.198095],[-118.175094,34.19812],[-118.1751,34.198151],[-118.175142,34.198202],[-118.175215,34.198224],[-118.175254,34.198221],[-118.175328,34.198182],[-118.175341,34.198152],[-118.175347,34.198115],[-118.175337,34.198078],[-118.175436,34.197862],[-118.175495,34.197733],[-118.175861,34.196961],[-118.17587,34.196864],[-118.176083,34.196516],[-118.176297,34.19625],[-118.176456,34.196085],[-118.176811,34.195704],[-118.177085,34.195355],[-118.177237,34.195128],[-118.177373,34.19494],[-118.177458,34.194808],[-118.177513,34.194714],[-118.177574,34.19461],[-118.177801,34.194168],[-118.179082,34.194754],[-118.181829,34.196],[-118.182326,34.196244],[-118.182809,34.196485],[-118.183796,34.196962],[-118.183921,34.19702],[-118.18421,34.197153],[-118.184723,34.197392],[-118.185388,34.197693],[-118.185931,34.197939],[-118.186087,34.198013],[-118.18594,34.197629],[-118.18588,34.1975],[-118.185844,34.197439],[-118.185741,34.197299],[-118.185539,34.197066],[-118.185247,34.196781],[-118.185088,34.196644],[-118.184426,34.196125],[-118.183849,34.195648],[-118.183219,34.194943],[-118.182848,34.19449],[-118.182573,34.194144],[-118.182387,34.1939],[-118.182244,34.193694],[-118.182228,34.193647],[-118.182191,34.193603],[-118.182138,34.193529],[-118.181942,34.193181],[-118.181779,34.192835],[-118.181696,34.19264],[-118.181553,34.192244],[-118.181427,34.191777],[-118.1812,34.190818],[-118.181066,34.190222],[-118.181006,34.190003],[-118.180953,34.189799],[-118.180617,34.188868],[-118.180364,34.188316],[-118.180238,34.188124],[-118.180026,34.187781],[-118.179761,34.1874],[-118.179638,34.187238],[-118.179535,34.187111],[-118.17922,34.18676],[-118.178816,34.186324],[-118.178441,34.185962],[-118.178263,34.1858],[-118.178084,34.185654],[-118.177706,34.185369],[-118.17756,34.18527],[-118.177113,34.184947],[-118.176868,34.184782],[-118.176656,34.184651],[-118.176504,34.184563],[-118.176342,34.184473],[-118.175961,34.184275],[-118.175432,34.18402],[-118.175071,34.183859],[-118.174333,34.183544],[-118.173506,34.183188],[-118.172658,34.182788],[-118.172579,34.182755],[-118.171778,34.182314],[-118.17044,34.18153],[-118.16953,34.181003],[-118.169103,34.180749],[-118.168328,34.180277],[-118.16803,34.180102],[-118.167481,34.179797],[-118.166597,34.179331],[-118.165571,34.17861],[-118.164528,34.17785],[-118.164349,34.177721],[-118.16416,34.177582],[-118.163389,34.177019],[-118.162624,34.176468],[-118.161866,34.175936],[-118.160916,34.17525],[-118.16071,34.175091],[-118.160336,34.174762],[-118.159942,34.174383],[-118.159892,34.174337],[-118.159601,34.174032],[-118.159452,34.173864],[-118.159319,34.173692],[-118.159177,34.173483],[-118.159031,34.173272],[-118.158838,34.172948],[-118.158772,34.172824],[-118.1585,34.172261],[-118.158317,34.171849],[-118.158191,34.171495],[-118.158131,34.17128],[-118.158071,34.171036],[-118.158024,34.170805],[-118.157971,34.170492],[-118.157941,34.170154],[-118.157927,34.16997],[-118.157923,34.169761],[-118.157933,34.169574],[-118.157942,34.169382],[-118.158221,34.166156],[-118.158237,34.165969],[-118.158256,34.165771],[-118.158263,34.165677],[-118.158516,34.164864],[-118.158621,34.16449],[-118.158703,34.164141],[-118.158739,34.163962],[-118.158814,34.163459],[-118.158908,34.16261],[-118.158957,34.162269],[-118.15896,34.162178],[-118.158547,34.162154],[-118.158276,34.162138],[-118.157935,34.162119],[-118.15733,34.162084],[-118.157307,34.162093],[-118.156953,34.162063],[-118.156788,34.162038],[-118.156643,34.162008],[-118.156517,34.161973],[-118.156411,34.161932],[-118.156236,34.161847],[-118.155342,34.161378],[-118.155127,34.161277],[-118.154929,34.161203],[-118.154853,34.161181],[-118.154773,34.161164],[-118.154628,34.161154],[-118.154492,34.161159],[-118.154377,34.161173],[-118.154264,34.161193],[-118.154106,34.161231],[-118.154016,34.161245],[-118.153738,34.161291],[-118.153151,34.161389],[-118.15287,34.16142],[-118.152473,34.161453],[-118.152126,34.161467],[-118.151518,34.161468],[-118.150609,34.161475],[-118.150606,34.161178],[-118.150597,34.160197],[-118.150592,34.159656],[-118.150576,34.157776],[-118.150573,34.157529],[-118.150564,34.156652],[-118.15056,34.156391],[-118.150558,34.155501],[-118.150543,34.154481],[-118.150537,34.154259],[-118.150533,34.154108],[-118.150504,34.153053],[-118.150484,34.152489],[-118.150483,34.152302],[-118.150486,34.152242],[-118.150486,34.152162],[-118.150493,34.15197],[-118.150499,34.151789],[-118.150502,34.151662],[-118.150502,34.151563],[-118.150508,34.151418],[-118.150514,34.151184],[-118.150517,34.15106],[-118.150511,34.150975],[-118.150516,34.150742],[-118.150523,34.150423],[-118.150528,34.149634],[-118.150392,34.149607],[-118.150277,34.149558],[-118.150217,34.149546],[-118.150082,34.149519],[-118.149903,34.149503],[-118.149692,34.149501],[-118.148912,34.149496],[-118.148907,34.149029],[-118.148904,34.148856],[-118.148895,34.147924],[-118.148892,34.14765],[-118.148887,34.146781],[-118.148885,34.146575],[-118.148883,34.146256],[-118.148878,34.145792],[-118.148878,34.145322],[-118.148873,34.144509],[-118.148872,34.144371],[-118.148865,34.143525],[-118.148841,34.141335],[-118.148833,34.140577],[-118.148549,34.140574],[-118.148301,34.140561],[-118.148162,34.140547],[-118.147957,34.140523],[-118.147626,34.140504],[-118.147478,34.140501],[-118.147326,34.140499],[-118.146453,34.140497],[-118.145881,34.140443],[-118.145518,34.140402],[-118.145339,34.140388],[-118.145088,34.140378],[-118.145062,34.140389],[-118.144728,34.140367],[-118.144179,34.140368],[-118.142861,34.140375],[-118.141357,34.140382],[-118.141027,34.140383],[-118.139692,34.14039],[-118.138327,34.140397],[-118.13684,34.140401],[-118.136509,34.140397],[-118.135154,34.140381],[-118.134364,34.140385],[-118.134021,34.140399],[-118.133977,34.140403],[-118.133812,34.140418],[-118.133641,34.140432],[-118.133214,34.14049],[-118.132537,34.140612],[-118.132316,34.140662],[-118.132298,34.137823],[-118.132297,34.137645],[-118.132293,34.137043],[-118.132285,34.135875],[-118.131955,34.135876],[-118.130917,34.135879],[-118.129317,34.135886],[-118.127999,34.135893],[-118.128012,34.137853],[-118.128018,34.139542],[-118.128022,34.139935],[-118.128026,34.140749]],[[-118.128025,34.140546],[-118.128026,34.140927],[-118.129348,34.140923],[-118.130635,34.140919],[-118.130703,34.140919],[-118.130799,34.140911],[-118.131305,34.140872],[-118.13148,34.140852],[-118.131632,34.14083],[-118.13179,34.140797],[-118.132316,34.140662]],[[-118.132537,34.140612],[-118.132636,34.140594],[-118.133214,34.14049]],[[-118.133812,34.140418],[-118.134021,34.140399],[-118.134141,34.140394],[-118.134364,34.140385]],[[-118.135154,34.140381],[-118.13684,34.140401],[-118.13717,34.1404],[-118.138327,34.140397]],[[-118.139692,34.14039],[-118.141026,34.140383],[-118.141357,34.140382]],[[-118.148833,34.140577],[-118.148844,34.141582],[-118.148865,34.143525]],[[-118.148883,34.146256],[-118.148886,34.146644],[-118.148887,34.146781]],[[-118.148912,34.149496],[-118.149242,34.149498],[-118.149692,34.149501]],[[-118.150082,34.149519],[-118.150277,34.149558]],[[-118.150528,34.149634],[-118.150475,34.150414],[-118.150467,34.150706],[-118.150458,34.150989],[-118.150459,34.151085],[-118.150453,34.151731],[-118.150453,34.151768],[-118.15045,34.152335],[-118.150455,34.152475],[-118.150504,34.153053]],[[-118.150533,34.154108],[-118.150541,34.154382],[-118.150543,34.154481]],[[-118.150564,34.156652],[-118.150576,34.157776],[-118.150578,34.158051],[-118.150592,34.159656]],[[-118.150597,34.160197],[-118.150609,34.161475],[-118.151055,34.161471],[-118.151518,34.161468]],[[-118.153151,34.161389],[-118.153887,34.161267],[-118.154016,34.161245]],[[-118.157935,34.162119],[-118.157922,34.162345],[-118.157923,34.162452],[-118.157933,34.162658],[-118.157934,34.163054],[-118.157951,34.16365],[-118.157942,34.163856],[-118.157943,34.164458],[-118.157937,34.164694],[-118.157944,34.164911],[-118.157985,34.165463],[-118.157959,34.165746],[-118.157946,34.165931],[-118.157933,34.166093],[-118.157736,34.168544],[-118.157678,34.169338],[-118.157675,34.169536],[-118.157669,34.169778],[-118.157706,34.17044],[-118.15777,34.170877],[-118.157807,34.17108],[-118.157867,34.171322],[-118.157873,34.17138],[-118.157913,34.171525],[-118.157973,34.171709],[-118.158153,34.172168],[-118.158249,34.172388],[-118.158395,34.172695],[-118.158684,34.173233],[-118.158849,34.173445],[-118.159194,34.173884],[-118.159307,34.174019],[-118.159602,34.174351],[-118.159939,34.174707],[-118.160671,34.175325],[-118.161079,34.175643],[-118.161953,34.176296],[-118.162883,34.176973],[-118.164078,34.177845],[-118.164254,34.177966],[-118.164429,34.17809],[-118.165499,34.178847],[-118.16631,34.179433],[-118.166671,34.179691],[-118.168161,34.18078],[-118.168349,34.180909],[-118.168846,34.181233],[-118.168985,34.181315],[-118.169088,34.181378],[-118.169415,34.181561],[-118.16967,34.18169],[-118.169985,34.181841],[-118.170686,34.182156],[-118.171709,34.182605],[-118.172583,34.183019],[-118.172771,34.183107],[-118.174446,34.183819],[-118.17525,34.184183],[-118.175584,34.184339],[-118.175909,34.184501],[-118.176352,34.184739],[-118.176395,34.184764],[-118.17669,34.184939],[-118.176945,34.185115],[-118.177329,34.185397],[-118.177644,34.185597],[-118.177833,34.185732],[-118.177925,34.185808],[-118.178336,34.186204],[-118.178717,34.186571],[-118.179002,34.186862],[-118.179184,34.187071],[-118.179427,34.187381],[-118.179735,34.18782],[-118.179921,34.188114],[-118.18008,34.188383],[-118.180279,34.188762],[-118.180502,34.18922],[-118.180552,34.189352],[-118.180665,34.189739],[-118.180718,34.189855],[-118.180748,34.189943],[-118.180768,34.190028],[-118.180798,34.190206],[-118.180949,34.19086],[-118.181155,34.191706],[-118.181345,34.192431],[-118.181412,34.192582],[-118.181452,34.192687],[-118.181628,34.193118],[-118.181768,34.193412],[-118.181884,34.193623],[-118.18203,34.19387],[-118.182196,34.194125],[-118.182302,34.194249],[-118.182418,34.194427],[-118.182501,34.194534],[-118.182776,34.194938],[-118.183141,34.195459],[-118.183712,34.196217],[-118.183765,34.196283],[-118.183937,34.196475],[-118.184083,34.196656],[-118.184146,34.196752],[-118.184186,34.196824],[-118.184209,34.196878],[-118.184226,34.196961],[-118.184226,34.197076],[-118.18421,34.197153]],[[-118.177801,34.194168],[-118.177671,34.19442],[-118.177574,34.19461],[-118.177458,34.194808]],[[-118.177237,34.195128],[-118.177086,34.195323],[-118.176677,34.19581],[-118.176456,34.196085],[-118.176241,34.196363],[-118.175842,34.196902],[-118.175622,34.197317],[-118.175454,34.197647],[-118.175348,34.197878],[-118.175206,34.198015],[-118.17519,34.198018],[-118.175187,34.198019]]]}},{"type":"Feature","properties":{"agency_name":"Pasadena Transit","route_id":"60","agency_id":"1","route_short_name":"60","route_long_name":"PCC - SMV Station - Michillinda","route_type":3,"route_color":"#C5299B","route_text_color":"#FFFFFF"},"geometry":{"type":"MultiLineString","coordinates":[[[-118.115701,34.145079],[-118.11573,34.146],[-118.115485,34.146001],[-118.11445,34.14601],[-118.11316,34.14602],[-118.11315,34.14406],[-118.11314,34.14196],[-118.11279,34.14196],[-118.11166,34.14197],[-118.11061,34.14197],[-118.10946,34.14198],[-118.10883,34.14199],[-118.1083,34.14199],[-118.1072,34.142],[-118.10669,34.14199],[-118.10656,34.142],[-118.10646,34.14201],[-118.10618,34.14207],[-118.10594,34.1421],[-118.10569,34.14212],[-118.10537,34.14213],[-118.10493,34.14213],[-118.10483,34.14213],[-118.10385,34.14214],[-118.10325,34.14214],[-118.1028,34.14214],[-118.10213,34.14213],[-118.10171,34.14212],[-118.10153,34.14212],[-118.08156,34.14223],[-118.08161,34.14622],[-118.08161,34.14692],[-118.082247,34.1487],[-118.0825,34.14918],[-118.08253,34.14942],[-118.08254,34.14971],[-118.08249,34.15008],[-118.08177,34.15009],[-118.07964,34.15012],[-118.079613,34.148663],[-118.080287,34.148653],[-118.08155,34.148635],[-118.081595,34.148639]],[[-118.079633,34.148638],[-118.081435,34.148645],[-118.081541,34.148645],[-118.08155,34.148635],[-118.081673,34.148645],[-118.081782,34.148669],[-118.081909,34.148713],[-118.082048,34.148722],[-118.082149,34.148721],[-118.08228,34.14878],[-118.08236,34.14895],[-118.08254,34.14956],[-118.082541,34.149675],[-118.08251,34.150058],[-118.082184,34.150019],[-118.081007,34.15004],[-118.080729,34.150099],[-118.07625,34.15017],[-118.07562,34.150181],[-118.07462,34.1502],[-118.07341,34.15022],[-118.07342,34.15045],[-118.07344,34.15066],[-118.07347,34.15081],[-118.07353,34.15097],[-118.07358,34.15107],[-118.07363,34.15118],[-118.07368,34.15127],[-118.07378,34.15142],[-118.073829,34.151471],[-118.07395,34.1516],[-118.07373,34.15196],[-118.07345,34.15246],[-118.07289,34.15349],[-118.072753,34.153797],[-118.0726,34.15414],[-118.07252,34.1545],[-118.07247,34.15486],[-118.07246,34.15554],[-118.07256,34.15614],[-118.07269,34.15656],[-118.07271,34.15664],[-118.07301,34.15768],[-118.07319,34.15833],[-118.07324,34.15868],[-118.073211,34.158897],[-118.0732,34.15898],[-118.07314,34.15916],[-118.07282,34.15974],[-118.07277,34.15985],[-118.07272,34.16017],[-118.07272,34.1616],[-118.07131,34.16161],[-118.07036,34.16162],[-118.0698,34.16163],[-118.06892,34.16163],[-118.06874,34.16169],[-118.06855,34.16173],[-118.06828,34.16177],[-118.06821,34.16179],[-118.06813,34.16182],[-118.06805,34.16189],[-118.06835,34.16193],[-118.06855,34.16195],[-118.068873,34.161947]],[[-118.082149,34.148721],[-118.082247,34.1487],[-118.08228,34.14878]],[[-118.08236,34.14895],[-118.0825,34.14918]],[[-118.08253,34.14942],[-118.08254,34.14956]],[[-118.082541,34.149675],[-118.08254,34.14971]],[[-118.07964,34.15012],[-118.07625,34.15017]],[[-118.068635,34.161949],[-118.06984,34.16194],[-118.07036,34.16193],[-118.07133,34.16191],[-118.0716,34.16191],[-118.0727,34.16189],[-118.072704,34.16184],[-118.07272,34.1616]],[[-118.0732,34.15898],[-118.07324,34.15868]],[[-118.07301,34.15768],[-118.072962,34.15751],[-118.07271,34.15664]],[[-118.0726,34.15414],[-118.07289,34.15349]],[[-118.07373,34.15196],[-118.073916,34.151656],[-118.07395,34.1516],[-118.07378,34.15142]],[[-118.07462,34.1502],[-118.07625,34.15017],[-118.07657,34.150165],[-118.07964,34.15012]],[[-118.079613,34.148663],[-118.081439,34.148636],[-118.08155,34.148635]],[[-118.08249,34.15008],[-118.0831,34.15007],[-118.083876,34.150059],[-118.08523,34.15004],[-118.08626,34.15002],[-118.08627,34.14904],[-118.08638,34.14885],[-118.08669,34.14859],[-118.08688,34.14833],[-118.08695,34.14806],[-118.08694,34.14621],[-118.0846,34.14622],[-118.08161,34.14622],[-118.0816,34.14521],[-118.08158,34.1442],[-118.08156,34.14325],[-118.08156,34.14223],[-118.08348,34.14221],[-118.08553,34.1422],[-118.08709,34.14218],[-118.08793,34.14218],[-118.08933,34.14217],[-118.09041,34.14216],[-118.09173,34.14216],[-118.09293,34.14215],[-118.09462,34.14213],[-118.09615,34.14213],[-118.09741,34.14212],[-118.0987,34.1421],[-118.10115,34.14212],[-118.10171,34.14212]],[[-118.11314,34.14196],[-118.11364,34.14196],[-118.11444,34.14196],[-118.115331,34.141937],[-118.1156,34.14193],[-118.115709,34.145341]],[[-118.068613,34.161949],[-118.06984,34.16194]],[[-118.08155,34.148635],[-118.081593,34.148646]]]}}]}