{"type":"FeatureCollection","features":[{"type":"Feature","properties":{"stop_id":"216772","stop_name":"Commerce Dr (NB)","wheelchair_boarding":0,"routes":[{"route_id":"8924","agency_id":"7343","route_short_name":"P","route_long_name":"Pumpkin","route_type":3,"route_color":"#E0813F","route_text_color":"#000000"},{"route_id":"8925","agency_id":"7343","route_short_name":"P","route_long_name":"Pumpkin Sat","route_type":3,"route_color":"#E0813F","route_text_color":"#000000"},{"route_id":"8926","agency_id":"7343","route_short_name":"P","route_long_name":"Pumpkin Sun","route_type":3,"route_color":"#E0813F","route_text_color":"#000000"}],"agency_name":"City of Baldwin Park"},"geometry":{"type":"Point","coordinates":[-117.973104,34.10449]}},{"type":"Feature","properties":{"stop_id":"216783","stop_name":"Commerce Dr (SB)","wheelchair_boarding":0,"routes":[{"route_id":"8928","agency_id":"7343","route_short_name":"T","route_long_name":"Teal","route_type":3,"route_color":"#8FE3FD","route_text_color":"#000000"},{"route_id":"8929","agency_id":"7343","route_short_name":"T","route_long_name":"Teal Sat","route_type":3,"route_color":"#8FE3FD","route_text_color":"#000000"},{"route_id":"8930","agency_id":"7343","route_short_name":"T","route_long_name":"Teal Sun","route_type":3,"route_color":"#8FE3FD","route_text_color":"#000000"}],"agency_name":"City of Baldwin Park"},"geometry":{"type":"Point","coordinates":[-117.973342,34.104555]}},{"type":"Feature","properties":{"stop_id":"216768","stop_name":"Francisquito & Paddy Lane (NW) (Sierra Center)","wheelchair_boarding":0,"routes":[{"route_id":"8924","agency_id":"7343","route_short_name":"P","route_long_name":"Pumpkin","route_type":3,"route_color":"#E0813F","route_text_color":"#000000"},{"route_id":"8925","agency_id":"7343","route_short_name":"P","route_long_name":"Pumpkin Sat","route_type":3,"route_color":"#E0813F","route_text_color":"#000000"},{"route_id":"8926","agency_id":"7343","route_short_name":"P","route_long_name":"Pumpkin Sun","route_type":3,"route_color":"#E0813F","route_text_color":"#000000"}],"agency_name":"City of Baldwin Park"},"geometry":{"type":"Point","coordinates":[-117.975601,34.069806]}},{"type":"Feature","properties":{"stop_id":"216786","stop_name":"Francisquito Ave & Paddy Lane (SE) (Sierra Center)","wheelchair_boarding":0,"routes":[{"route_id":"8928","agency_id":"7343","route_short_name":"T","route_long_name":"Teal","route_type":3,"route_color":"#8FE3FD","route_text_color":"#000000"},{"route_id":"8929","agency_id":"7343","route_short_name":"T","route_long_name":"Teal Sat","route_type":3,"route_color":"#8FE3FD","route_text_color":"#000000"},{"route_id":"8930","agency_id":"7343","route_short_name":"T","route_long_name":"Teal Sun","route_type":3,"route_color":"#8FE3FD","route_text_color":"#000000"}],"agency_name":"City of Baldwin Park"},"geometry":{"type":"Point","coordinates":[-117.976048,34.069862]}},{"type":"Feature","properties":{"stop_id":"216769","stop_name":"Kaiser Permanente Main Entrance","wheelchair_boarding":0,"routes":[{"route_id":"8924","agency_id":"7343","route_short_name":"P","route_long_name":"Pumpkin","route_type":3,"route_color":"#E0813F","route_text_color":"#000000"},{"route_id":"8925","agency_id":"7343","route_short_name":"P","route_long_name":"Pumpkin Sat","route_type":3,"route_color":"#E0813F","route_text_color":"#000000"},{"route_id":"8926","agency_id":"7343","route_short_name":"P","route_long_name":"Pumpkin Sun","route_type":3,"route_color":"#E0813F","route_text_color":"#000000"},{"route_id":"8928","agency_id":"7343","route_short_name":"T","route_long_name":"Teal","route_type":3,"route_color":"#8FE3FD","route_text_color":"#000000"},{"route_id":"8929","agency_id":"7343","route_short_name":"T","route_long_name":"Teal Sat","route_type":3,"route_color":"#8FE3FD","route_text_color":"#000000"},{"route_id":"8930","agency_id":"7343","route_short_name":"T","route_long_name":"Teal Sun","route_type":3,"route_color":"#8FE3FD","route_text_color":"#000000"}],"agency_name":"City of Baldwin Park"},"geometry":{"type":"Point","coordinates":[-117.985195,34.06496]}},{"type":"Feature","properties":{"stop_id":"216780","stop_name":"Maine Ave & Olive St (NB)","wheelchair_boarding":0,"routes":[{"route_id":"8928","agency_id":"7343","route_short_name":"T","route_long_name":"Teal","route_type":3,"route_color":"#8FE3FD","route_text_color":"#000000"},{"route_id":"8929","agency_id":"7343","route_short_name":"T","route_long_name":"Teal Sat","route_type":3,"route_color":"#8FE3FD","route_text_color":"#000000"},{"route_id":"8930","agency_id":"7343","route_short_name":"T","route_long_name":"Teal Sun","route_type":3,"route_color":"#8FE3FD","route_text_color":"#000000"}],"agency_name":"City of Baldwin Park"},"geometry":{"type":"Point","coordinates":[-117.960425,34.099058]}},{"type":"Feature","properties":{"stop_id":"216775","stop_name":"Maine Ave & Olive St (SB)","wheelchair_boarding":0,"routes":[{"route_id":"8924","agency_id":"7343","route_short_name":"P","route_long_name":"Pumpkin","route_type":3,"route_color":"#E0813F","route_text_color":"#000000"},{"route_id":"8925","agency_id":"7343","route_short_name":"P","route_long_name":"Pumpkin Sat","route_type":3,"route_color":"#E0813F","route_text_color":"#000000"},{"route_id":"8926","agency_id":"7343","route_short_name":"P","route_long_name":"Pumpkin Sun","route_type":3,"route_color":"#E0813F","route_text_color":"#000000"}],"agency_name":"City of Baldwin Park"},"geometry":{"type":"Point","coordinates":[-117.960658,34.099256]}},{"type":"Feature","properties":{"stop_id":"216779","stop_name":"Maine Ave & Palm Ave (NB) (Main Park Plaza)","wheelchair_boarding":0,"routes":[{"route_id":"8928","agency_id":"7343","route_short_name":"T","route_long_name":"Teal","route_type":3,"route_color":"#8FE3FD","route_text_color":"#000000"},{"route_id":"8929","agency_id":"7343","route_short_name":"T","route_long_name":"Teal Sat","route_type":3,"route_color":"#8FE3FD","route_text_color":"#000000"},{"route_id":"8930","agency_id":"7343","route_short_name":"T","route_long_name":"Teal Sun","route_type":3,"route_color":"#8FE3FD","route_text_color":"#000000"}],"agency_name":"City of Baldwin Park"},"geometry":{"type":"Point","coordinates":[-117.960353,34.08888]}},{"type":"Feature","properties":{"stop_id":"216776","stop_name":"Maine Ave & Palmrose St (Main Park Plaza) (SB)","wheelchair_boarding":0,"routes":[{"route_id":"8924","agency_id":"7343","route_short_name":"P","route_long_name":"Pumpkin","route_type":3,"route_color":"#E0813F","route_text_color":"#000000"},{"route_id":"8925","agency_id":"7343","route_short_name":"P","route_long_name":"Pumpkin Sat","route_type":3,"route_color":"#E0813F","route_text_color":"#000000"},{"route_id":"8926","agency_id":"7343","route_short_name":"P","route_long_name":"Pumpkin Sun","route_type":3,"route_color":"#E0813F","route_text_color":"#000000"}],"agency_name":"City of Baldwin Park"},"geometry":{"type":"Point","coordinates":[-117.960568,34.08937]}},{"type":"Feature","properties":{"stop_id":"216771","stop_name":"Merced Ave & Los Angeles St (NB)","wheelchair_boarding":0,"routes":[{"route_id":"8924","agency_id":"7343","route_short_name":"P","route_long_name":"Pumpkin","route_type":3,"route_color":"#E0813F","route_text_color":"#000000"},{"route_id":"8925","agency_id":"7343","route_short_name":"P","route_long_name":"Pumpkin Sat","route_type":3,"route_color":"#E0813F","route_text_color":"#000000"},{"route_id":"8926","agency_id":"7343","route_short_name":"P","route_long_name":"Pumpkin Sun","route_type":3,"route_color":"#E0813F","route_text_color":"#000000"}],"agency_name":"City of Baldwin Park"},"geometry":{"type":"Point","coordinates":[-117.973516,34.091775]}},{"type":"Feature","properties":{"stop_id":"216784","stop_name":"Merced Ave & Los Angeles St (SB)","wheelchair_boarding":0,"routes":[{"route_id":"8928","agency_id":"7343","route_short_name":"T","route_long_name":"Teal","route_type":3,"route_color":"#8FE3FD","route_text_color":"#000000"},{"route_id":"8929","agency_id":"7343","route_short_name":"T","route_long_name":"Teal Sat","route_type":3,"route_color":"#8FE3FD","route_text_color":"#000000"},{"route_id":"8930","agency_id":"7343","route_short_name":"T","route_long_name":"Teal Sun","route_type":3,"route_color":"#8FE3FD","route_text_color":"#000000"}],"agency_name":"City of Baldwin Park"},"geometry":{"type":"Point","coordinates":[-117.973726,34.091447]}},{"type":"Feature","properties":{"stop_id":"216778","stop_name":"Metrolink","wheelchair_boarding":0,"routes":[{"route_id":"8924","agency_id":"7343","route_short_name":"P","route_long_name":"Pumpkin","route_type":3,"route_color":"#E0813F","route_text_color":"#000000"},{"route_id":"8925","agency_id":"7343","route_short_name":"P","route_long_name":"Pumpkin Sat","route_type":3,"route_color":"#E0813F","route_text_color":"#000000"},{"route_id":"8926","agency_id":"7343","route_short_name":"P","route_long_name":"Pumpkin Sun","route_type":3,"route_color":"#E0813F","route_text_color":"#000000"},{"route_id":"8928","agency_id":"7343","route_short_name":"T","route_long_name":"Teal","route_type":3,"route_color":"#8FE3FD","route_text_color":"#000000"},{"route_id":"8929","agency_id":"7343","route_short_name":"T","route_long_name":"Teal Sat","route_type":3,"route_color":"#8FE3FD","route_text_color":"#000000"},{"route_id":"8930","agency_id":"7343","route_short_name":"T","route_long_name":"Teal Sun","route_type":3,"route_color":"#8FE3FD","route_text_color":"#000000"}],"agency_name":"City of Baldwin Park"},"geometry":{"type":"Point","coordinates":[-117.9573,34.086253]}},{"type":"Feature","properties":{"stop_id":"216774","stop_name":"Nubia St & LA Sena Ave (EB)","wheelchair_boarding":0,"routes":[{"route_id":"8924","agency_id":"7343","route_short_name":"P","route_long_name":"Pumpkin","route_type":3,"route_color":"#E0813F","route_text_color":"#000000"},{"route_id":"8925","agency_id":"7343","route_short_name":"P","route_long_name":"Pumpkin Sat","route_type":3,"route_color":"#E0813F","route_text_color":"#000000"},{"route_id":"8926","agency_id":"7343","route_short_name":"P","route_long_name":"Pumpkin Sun","route_type":3,"route_color":"#E0813F","route_text_color":"#000000"}],"agency_name":"City of Baldwin Park"},"geometry":{"type":"Point","coordinates":[-117.944956,34.103305]}},{"type":"Feature","properties":{"stop_id":"216781","stop_name":"Nubia St & LA Sena Ave (WB)","wheelchair_boarding":0,"routes":[{"route_id":"8928","agency_id":"7343","route_short_name":"T","route_long_name":"Teal","route_type":3,"route_color":"#8FE3FD","route_text_color":"#000000"},{"route_id":"8929","agency_id":"7343","route_short_name":"T","route_long_name":"Teal Sat","route_type":3,"route_color":"#8FE3FD","route_text_color":"#000000"},{"route_id":"8930","agency_id":"7343","route_short_name":"T","route_long_name":"Teal Sun","route_type":3,"route_color":"#8FE3FD","route_text_color":"#000000"}],"agency_name":"City of Baldwin Park"},"geometry":{"type":"Point","coordinates":[-117.94496,34.103425]}},{"type":"Feature","properties":{"stop_id":"216766","stop_name":"Puente Ave & Big Dalton Ave (Baldwin Park High School)","wheelchair_boarding":0,"routes":[{"route_id":"8924","agency_id":"7343","route_short_name":"P","route_long_name":"Pumpkin","route_type":3,"route_color":"#E0813F","route_text_color":"#000000"},{"route_id":"8925","agency_id":"7343","route_short_name":"P","route_long_name":"Pumpkin Sat","route_type":3,"route_color":"#E0813F","route_text_color":"#000000"},{"route_id":"8926","agency_id":"7343","route_short_name":"P","route_long_name":"Pumpkin Sun","route_type":3,"route_color":"#E0813F","route_text_color":"#000000"}],"agency_name":"City of Baldwin Park"},"geometry":{"type":"Point","coordinates":[-117.94979,34.086659]}},{"type":"Feature","properties":{"stop_id":"216788","stop_name":"Puente Ave & Cleary Dr (Baldwin Park High School)","wheelchair_boarding":0,"routes":[{"route_id":"8928","agency_id":"7343","route_short_name":"T","route_long_name":"Teal","route_type":3,"route_color":"#8FE3FD","route_text_color":"#000000"},{"route_id":"8929","agency_id":"7343","route_short_name":"T","route_long_name":"Teal Sat","route_type":3,"route_color":"#8FE3FD","route_text_color":"#000000"},{"route_id":"8930","agency_id":"7343","route_short_name":"T","route_long_name":"Teal Sun","route_type":3,"route_color":"#8FE3FD","route_text_color":"#000000"}],"agency_name":"City of Baldwin Park"},"geometry":{"type":"Point","coordinates":[-117.949916,34.083646]}},{"type":"Feature","properties":{"stop_id":"216787","stop_name":"Puente Ave & Towne Center Dr (NE)","wheelchair_boarding":0,"routes":[{"route_id":"8928","agency_id":"7343","route_short_name":"T","route_long_name":"Teal","route_type":3,"route_color":"#8FE3FD","route_text_color":"#000000"},{"route_id":"8929","agency_id":"7343","route_short_name":"T","route_long_name":"Teal Sat","route_type":3,"route_color":"#8FE3FD","route_text_color":"#000000"},{"route_id":"8930","agency_id":"7343","route_short_name":"T","route_long_name":"Teal Sun","route_type":3,"route_color":"#8FE3FD","route_text_color":"#000000"}],"agency_name":"City of Baldwin Park"},"geometry":{"type":"Point","coordinates":[-117.959177,34.07278]}},{"type":"Feature","properties":{"stop_id":"216767","stop_name":"Puente Ave & Towne Center Dr (SW)","wheelchair_boarding":0,"routes":[{"route_id":"8924","agency_id":"7343","route_short_name":"P","route_long_name":"Pumpkin","route_type":3,"route_color":"#E0813F","route_text_color":"#000000"},{"route_id":"8925","agency_id":"7343","route_short_name":"P","route_long_name":"Pumpkin Sat","route_type":3,"route_color":"#E0813F","route_text_color":"#000000"},{"route_id":"8926","agency_id":"7343","route_short_name":"P","route_long_name":"Pumpkin Sun","route_type":3,"route_color":"#E0813F","route_text_color":"#000000"}],"agency_name":"City of Baldwin Park"},"geometry":{"type":"Point","coordinates":[-117.959371,34.072874]}},{"type":"Feature","properties":{"stop_id":"216777","stop_name":"Ramona Blvd & Cesar Chavez Dr (Morgan Park)","wheelchair_boarding":0,"routes":[{"route_id":"8924","agency_id":"7343","route_short_name":"P","route_long_name":"Pumpkin","route_type":3,"route_color":"#E0813F","route_text_color":"#000000"},{"route_id":"8925","agency_id":"7343","route_short_name":"P","route_long_name":"Pumpkin Sat","route_type":3,"route_color":"#E0813F","route_text_color":"#000000"},{"route_id":"8926","agency_id":"7343","route_short_name":"P","route_long_name":"Pumpkin Sun","route_type":3,"route_color":"#E0813F","route_text_color":"#000000"},{"route_id":"8928","agency_id":"7343","route_short_name":"T","route_long_name":"Teal","route_type":3,"route_color":"#8FE3FD","route_text_color":"#000000"},{"route_id":"8929","agency_id":"7343","route_short_name":"T","route_long_name":"Teal Sat","route_type":3,"route_color":"#8FE3FD","route_text_color":"#000000"},{"route_id":"8930","agency_id":"7343","route_short_name":"T","route_long_name":"Teal Sun","route_type":3,"route_color":"#8FE3FD","route_text_color":"#000000"}],"agency_name":"City of Baldwin Park"},"geometry":{"type":"Point","coordinates":[-117.962626,34.086535]}},{"type":"Feature","properties":{"stop_id":"216782","stop_name":"Stewart St & Live Oak Ave (NB)","wheelchair_boarding":0,"routes":[{"route_id":"8928","agency_id":"7343","route_short_name":"T","route_long_name":"Teal","route_type":3,"route_color":"#8FE3FD","route_text_color":"#000000"},{"route_id":"8929","agency_id":"7343","route_short_name":"T","route_long_name":"Teal Sat","route_type":3,"route_color":"#8FE3FD","route_text_color":"#000000"},{"route_id":"8930","agency_id":"7343","route_short_name":"T","route_long_name":"Teal Sun","route_type":3,"route_color":"#8FE3FD","route_text_color":"#000000"}],"agency_name":"City of Baldwin Park"},"geometry":{"type":"Point","coordinates":[-117.969221,34.105962]}},{"type":"Feature","properties":{"stop_id":"216773","stop_name":"Stewart St & Live Oak Ave (SB)","wheelchair_boarding":0,"routes":[{"route_id":"8924","agency_id":"7343","route_short_name":"P","route_long_name":"Pumpkin","route_type":3,"route_color":"#E0813F","route_text_color":"#000000"},{"route_id":"8925","agency_id":"7343","route_short_name":"P","route_long_name":"Pumpkin Sat","route_type":3,"route_color":"#E0813F","route_text_color":"#000000"},{"route_id":"8926","agency_id":"7343","route_short_name":"P","route_long_name":"Pumpkin Sun","route_type":3,"route_color":"#E0813F","route_text_color":"#000000"}],"agency_name":"City of Baldwin Park"},"geometry":{"type":"Point","coordinates":[-117.969396,34.105902]}},{"type":"Feature","properties":{"stop_id":"216770","stop_name":"Syracuse Ave & Blenheim St (NB)","wheelchair_boarding":0,"routes":[{"route_id":"8924","agency_id":"7343","route_short_name":"P","route_long_name":"Pumpkin","route_type":3,"route_color":"#E0813F","route_text_color":"#000000"},{"route_id":"8925","agency_id":"7343","route_short_name":"P","route_long_name":"Pumpkin Sat","route_type":3,"route_color":"#E0813F","route_text_color":"#000000"},{"route_id":"8926","agency_id":"7343","route_short_name":"P","route_long_name":"Pumpkin Sun","route_type":3,"route_color":"#E0813F","route_text_color":"#000000"}],"agency_name":"City of Baldwin Park"},"geometry":{"type":"Point","coordinates":[-117.995827,34.077326]}},{"type":"Feature","properties":{"stop_id":"216785","stop_name":"Syracuse Ave & Blenheim St (SB)","wheelchair_boarding":0,"routes":[{"route_id":"8928","agency_id":"7343","route_short_name":"T","route_long_name":"Teal","route_type":3,"route_color":"#8FE3FD","route_text_color":"#000000"},{"route_id":"8929","agency_id":"7343","route_short_name":"T","route_long_name":"Teal Sat","route_type":3,"route_color":"#8FE3FD","route_text_color":"#000000"},{"route_id":"8930","agency_id":"7343","route_short_name":"T","route_long_name":"Teal Sun","route_type":3,"route_color":"#8FE3FD","route_text_color":"#000000"}],"agency_name":"City of Baldwin Park"},"geometry":{"type":"Point","coordinates":[-117.995989,34.077377]}}]}